{"type":"FeatureCollection","features":[{"type":"Feature","geometry":{"type":"Point","coordinates":[17.6286367,59.8691331]},"properties":{"name":"Ingo Uppsala/Svartbäcksgatan","amenity":"fuel"}},{"type":"Feature","geometry":{"type":"Point","coordinates":[17.6394577,59.8546305]},"properties":{"name":"Fågelsången","amenity":"cafe"}},{"type":"Feature","geometry":{"type":"Point","coordinates":[17.6333393,59.862661]},"properties":{"name":"Hotell Botanika","amenity":""}},{"type":"Feature","geometry":{"type":"Point","coordinates":[17.6291603,59.8582271]},"properties":{"name":"Fyrisbiografen","amenity":"cinema"}},{"type":"Feature","geometry":{"type":"Point","coordinates":[17.6335071,59.8613906]},"properties":{"name":"Café Linné","amenity":"cafe"}},{"type":"Feature","geometry":{"type":"Point","coordinates":[17.6273628,59.8585099]},"properties":{"name":"Café Uroxen","amenity":"cafe"}},{"type":"Feature","geometry":{"type":"Point","coordinates":[17.649129,59.8616452]},"properties":{"name":"Mykonos livs","amenity":""}},{"type":"Feature","geometry":{"type":"Point","coordinates":[17.6405822,59.8564206]},"properties":{"name":"Grand Hotel Hörnan","amenity":""}},{"type":"Feature","geometry":{"type":"Point","coordinates":[17.6285115,59.8619399]},"properties":{"name":"Sirius loppmarknad","amenity":""}},{"type":"Feature","geometry":{"type":"Point","coordinates":[17.6266641,59.8703512]},"properties":{"name":"Java","amenity":"restaurant"}},{"type":"Feature","geometry":{"type":"Point","coordinates":[17.6305076,59.8599502]},"properties":{"name":"Palermo","amenity":"pub"}},{"type":"Feature","geometry":{"type":"Point","coordinates":[17.6389802,59.8582004]},"properties":{"name":"Kafferummet Storken","amenity":"cafe"}},{"type":"Feature","geometry":{"type":"Point","coordinates":[17.6293301,59.861239]},"properties":{"name":"Sukran's Clinic","amenity":""}},{"type":"Feature","geometry":{"type":"Point","coordinates":[17.6405754,59.858984]},"properties":{"name":"Etage Kök & Bar","amenity":"nightclub"}},{"type":"Feature","geometry":{"type":"Point","coordinates":[17.6343335,59.8606175]},"properties":{"name":"The Churchill Arms","amenity":"pub"}},{"type":"Feature","geometry":{"type":"Point","coordinates":[17.6380387,59.8582622]},"properties":{"name":"terrassen","amenity":""}},{"type":"Feature","geometry":{"type":"Point","coordinates":[17.64881,59.8554083]},"properties":{"name":"","amenity":""}},{"type":"Feature","geometry":{"type":"Point","coordinates":[17.6291577,59.8607371]},"properties":{"name":"Brezza","amenity":"restaurant"}},{"type":"Feature","geometry":{"type":"Point","coordinates":[17.636028,59.8580642]},"properties":{"name":"Hambergs Fisk","amenity":"restaurant"}},{"type":"Feature","geometry":{"type":"Point","coordinates":[17.6219973,59.8637114]},"properties":{"name":"Ayakos sushi","amenity":"restaurant"}},{"type":"Feature","geometry":{"type":"Point","coordinates":[17.6416868,59.858346]},"properties":{"name":"Bastard Burgers","amenity":"restaurant"}},{"type":"Feature","geometry":{"type":"Point","coordinates":[17.642607,59.8564475]},"properties":{"name":"Golden China","amenity":"restaurant"}},{"type":"Feature","geometry":{"type":"Point","coordinates":[17.6231566,59.8633066]},"properties":{"name":"Haircity","amenity":""}},{"type":"Feature","geometry":{"type":"Point","coordinates":[17.6411577,59.859732]},"properties":{"name":"Skivcentrum","amenity":""}},{"type":"Feature","geometry":{"type":"Point","coordinates":[17.6404891,59.8573857]},"properties":{"name":"Uno","amenity":"cafe"}},{"type":"Feature","geometry":{"type":"Point","coordinates":[17.6361161,59.862611]},"properties":{"name":"Tattoo Studio 13","amenity":""}},{"type":"Feature","geometry":{"type":"Point","coordinates":[17.6338181,59.8604496]},"properties":{"name":"Avans Klipp","amenity":""}},{"type":"Feature","geometry":{"type":"Point","coordinates":[17.6370342,59.8591105]},"properties":{"name":"Viking Nails","amenity":""}},{"type":"Feature","geometry":{"type":"Point","coordinates":[17.6309836,59.8615786]},"properties":{"name":"GinnDee Sushi & Wok","amenity":"restaurant"}},{"type":"Feature","geometry":{"type":"Point","coordinates":[17.6516278,59.8596987]},"properties":{"name":"Frimärken Vykort Auktioner","amenity":""}},{"type":"Feature","geometry":{"type":"Point","coordinates":[17.6519655,59.8595067]},"properties":{"name":"Kiosk Hörnan","amenity":""}},{"type":"Feature","geometry":{"type":"Point","coordinates":[17.6586221,59.8637916]},"properties":{"name":"Under Bar","amenity":"bar"}},{"type":"Feature","geometry":{"type":"Point","coordinates":[17.6503006,59.8622058]},"properties":{"name":"Salon Shalom","amenity":""}},{"type":"Feature","geometry":{"type":"Point","coordinates":[17.6460609,59.8619736]},"properties":{"name":"Notar","amenity":""}},{"type":"Feature","geometry":{"type":"Point","coordinates":[17.6354164,59.8584029]},"properties":{"name":"Lilla Japan","amenity":""}},{"type":"Feature","geometry":{"type":"Point","coordinates":[17.6366086,59.8581548]},"properties":{"name":"Galleri London","amenity":""}},{"type":"Feature","geometry":{"type":"Point","coordinates":[17.6476202,59.8482475]},"properties":{"name":"toilets","amenity":"toilets"}},{"type":"Feature","geometry":{"type":"Point","coordinates":[17.647936,59.8610248]},"properties":{"name":"","amenity":""}},{"type":"Feature","geometry":{"type":"Point","coordinates":[17.6481489,59.8607861]},"properties":{"name":"","amenity":""}},{"type":"Feature","geometry":{"type":"Point","coordinates":[17.6484459,59.861256]},"properties":{"name":"","amenity":""}},{"type":"Feature","geometry":{"type":"Point","coordinates":[17.6297577,59.8577357]},"properties":{"name":"","amenity":""}},{"type":"Feature","geometry":{"type":"Point","coordinates":[17.6258558,59.8578297]},"properties":{"name":"","amenity":""}},{"type":"Feature","geometry":{"type":"Point","coordinates":[17.653268,59.8628908]},"properties":{"name":"Hjalmar B:s skivbörs","amenity":""}},{"type":"Feature","geometry":{"type":"Point","coordinates":[17.6283799,59.8571224]},"properties":{"name":"","amenity":""}},{"type":"Feature","geometry":{"type":"Point","coordinates":[17.6677419,59.8598106]},"properties":{"name":"Optimal Scandinavia ab","amenity":""}},{"type":"Feature","geometry":{"type":"Point","coordinates":[17.6565544,59.8587291]},"properties":{"name":"Mirai Sushi","amenity":"restaurant"}},{"type":"Feature","geometry":{"type":"Point","coordinates":[17.6518874,59.861275]},"properties":{"name":"","amenity":""}},{"type":"Feature","geometry":{"type":"Point","coordinates":[17.6675766,59.8658378]},"properties":{"name":"Effektiv trafikskola","amenity":"driving_school"}},{"type":"Feature","geometry":{"type":"Point","coordinates":[17.6675284,59.8658845]},"properties":{"name":"Salong Rendezvous","amenity":""}},{"type":"Feature","geometry":{"type":"Point","coordinates":[17.631265,59.8638681]},"properties":{"name":"","amenity":""}},{"type":"Feature","geometry":{"type":"Point","coordinates":[17.6326765,59.8623933]},"properties":{"name":"Garçon","amenity":""}},{"type":"Feature","geometry":{"type":"Point","coordinates":[17.6568074,59.8636706]},"properties":{"name":"Properties & Partners Fastighetsmäklare","amenity":""}},{"type":"Feature","geometry":{"type":"Point","coordinates":[17.6562605,59.8635527]},"properties":{"name":"Renevatio","amenity":""}},{"type":"Feature","geometry":{"type":"Point","coordinates":[17.6555956,59.8633994]},"properties":{"name":"Almtuna Tapetserarverkstad","amenity":""}},{"type":"Feature","geometry":{"type":"Point","coordinates":[17.6404968,59.8572258]},"properties":{"name":"Wide Alley","amenity":""}},{"type":"Feature","geometry":{"type":"Point","coordinates":[17.6693041,59.8700842]},"properties":{"name":"12:ans skivor & sånt","amenity":""}},{"type":"Feature","geometry":{"type":"Point","coordinates":[17.6582995,59.8628007]},"properties":{"name":"UniQuest","amenity":""}},{"type":"Feature","geometry":{"type":"Point","coordinates":[17.6424798,59.8620062]},"properties":{"name":"Aurora Frisör","amenity":""}},{"type":"Feature","geometry":{"type":"Point","coordinates":[17.6139856,59.8488318]},"properties":{"name":"","amenity":""}},{"type":"Feature","geometry":{"type":"Point","coordinates":[17.6139789,59.8488076]},"properties":{"name":"","amenity":""}},{"type":"Feature","geometry":{"type":"Point","coordinates":[17.6327719,59.8714729]},"properties":{"name":"Friskstugan","amenity":""}},{"type":"Feature","geometry":{"type":"Point","coordinates":[17.6227162,59.8608796]},"properties":{"name":"","amenity":""}},{"type":"Feature","geometry":{"type":"Point","coordinates":[17.6229895,59.8610044]},"properties":{"name":"","amenity":""}},{"type":"Feature","geometry":{"type":"Point","coordinates":[17.6232735,59.861134]},"properties":{"name":"","amenity":""}}]}