{"type":"FeatureCollection","features":[{"type":"Feature","geometry":{"type":"Point","coordinates":[17.6386469,59.858864]},"properties":{"name":"Max","amenity":"fast_food"}},{"type":"Feature","geometry":{"type":"Point","coordinates":[17.6643787,59.8479097]},"properties":{"name":"OKQ8","amenity":"fuel"}},{"type":"Feature","geometry":{"type":"Point","coordinates":[17.6372066,59.862004]},"properties":{"name":"Indian Kitchen","amenity":"restaurant"}},{"type":"Feature","geometry":{"type":"Point","coordinates":[17.6419112,59.8593727]},"properties":{"name":"Förvaltningsrätten i Uppsala","amenity":"courthouse"}},{"type":"Feature","geometry":{"type":"Point","coordinates":[17.6272446,59.8614265]},"properties":{"name":"ICA Supermarket Luthagens livs","amenity":""}},{"type":"Feature","geometry":{"type":"Point","coordinates":[17.6309082,59.8653064]},"properties":{"name":"Polishuset","amenity":"police"}},{"type":"Feature","geometry":{"type":"Point","coordinates":[17.6301954,59.8672407]},"properties":{"name":"Circle K","amenity":"fuel"}},{"type":"Feature","geometry":{"type":"Point","coordinates":[17.6559352,59.870758]},"properties":{"name":"Lidl","amenity":""}},{"type":"Feature","geometry":{"type":"Point","coordinates":[17.6487914,59.8665872]},"properties":{"name":"Kvarntorget Hotell & Hostel","amenity":""}},{"type":"Feature","geometry":{"type":"Point","coordinates":[17.6369109,59.8595088]},"properties":{"name":"Apoteket","amenity":"pharmacy"}},{"type":"Feature","geometry":{"type":"Point","coordinates":[17.6318367,59.859478]},"properties":{"name":"Ofvandahls","amenity":"cafe"}},{"type":"Feature","geometry":{"type":"Point","coordinates":[17.6429753,59.8589349]},"properties":{"name":"Uppsala Stadsteater","amenity":"theatre"}},{"type":"Feature","geometry":{"type":"Point","coordinates":[17.6333412,59.8615105]},"properties":{"name":"Café Carl von Linné","amenity":"cafe"}},{"type":"Feature","geometry":{"type":"Point","coordinates":[17.6435434,59.8572528]},"properties":{"name":"O'Neill's","amenity":"pub"}},{"type":"Feature","geometry":{"type":"Point","coordinates":[17.6462107,59.8623261]},"properties":{"name":"ICA Torgkassen","amenity":""}},{"type":"Feature","geometry":{"type":"Point","coordinates":[17.6454109,59.8626494]},"properties":{"name":"Kronans Apotek","amenity":"pharmacy"}},{"type":"Feature","geometry":{"type":"Point","coordinates":[17.6434187,59.8563511]},"properties":{"name":"ICA Vretgränd","amenity":""}},{"type":"Feature","geometry":{"type":"Point","coordinates":[17.6194317,59.859947]},"properties":{"name":"Department of business studies","amenity":"university"}},{"type":"Feature","geometry":{"type":"Point","coordinates":[17.6323432,59.8583898]},"properties":{"name":"Katedralcafeet","amenity":"cafe"}},{"type":"Feature","geometry":{"type":"Point","coordinates":[17.6457607,59.8598666]},"properties":{"name":"Katalin and all that jazz","amenity":"restaurant"}},{"type":"Feature","geometry":{"type":"Point","coordinates":[17.6266177,59.8690246]},"properties":{"name":"Svartbäckens vårdcentral","amenity":"clinic"}},{"type":"Feature","geometry":{"type":"Point","coordinates":[17.6354891,59.8605525]},"properties":{"name":"Kardemumma","amenity":"cafe"}},{"type":"Feature","geometry":{"type":"Point","coordinates":[17.6432567,59.8582662]},"properties":{"name":"Hemköp Uppsala Svava C","amenity":""}},{"type":"Feature","geometry":{"type":"Point","coordinates":[17.6391491,59.8600286]},"properties":{"name":"Five Guys","amenity":"fast_food"}},{"type":"Feature","geometry":{"type":"Point","coordinates":[17.6386759,59.8604129]},"properties":{"name":"Scandic Uplandia","amenity":""}},{"type":"Feature","geometry":{"type":"Point","coordinates":[17.6375627,59.8605797]},"properties":{"name":"Clarion Hotel Gillet","amenity":""}},{"type":"Feature","geometry":{"type":"Point","coordinates":[17.6404082,59.8575911]},"properties":{"name":"Rififi","amenity":"restaurant"}},{"type":"Feature","geometry":{"type":"Point","coordinates":[17.6404921,59.8582083]},"properties":{"name":"Egon","amenity":"restaurant"}},{"type":"Feature","geometry":{"type":"Point","coordinates":[17.6434781,59.858637]},"properties":{"name":"Baras Sällskap","amenity":"restaurant"}},{"type":"Feature","geometry":{"type":"Point","coordinates":[17.6432625,59.8587723]},"properties":{"name":"China Garden","amenity":"restaurant"}},{"type":"Feature","geometry":{"type":"Point","coordinates":[17.6422584,59.858317]},"properties":{"name":"Amazing Thai","amenity":"restaurant"}},{"type":"Feature","geometry":{"type":"Point","coordinates":[17.6376375,59.8495169]},"properties":{"name":"","amenity":""}},{"type":"Feature","geometry":{"type":"Point","coordinates":[17.6403165,59.8519675]},"properties":{"name":"","amenity":""}},{"type":"Feature","geometry":{"type":"Point","coordinates":[17.6467281,59.8558079]},"properties":{"name":"","amenity":""}},{"type":"Feature","geometry":{"type":"Point","coordinates":[17.6484869,59.8553177]},"properties":{"name":"","amenity":""}},{"type":"Feature","geometry":{"type":"Point","coordinates":[17.6375864,59.8616908]},"properties":{"name":"","amenity":""}},{"type":"Feature","geometry":{"type":"Point","coordinates":[17.639901,59.8581599]},"properties":{"name":"Stadium","amenity":""}},{"type":"Feature","geometry":{"type":"Point","coordinates":[17.6369398,59.8602364]},"properties":{"name":"ICA Supermarket City","amenity":""}},{"type":"Feature","geometry":{"type":"Point","coordinates":[17.6378319,59.8597244]},"properties":{"name":"Dressmann","amenity":""}},{"type":"Feature","geometry":{"type":"Point","coordinates":[17.6348697,59.8609093]},"properties":{"name":"English Bookshop","amenity":""}},{"type":"Feature","geometry":{"type":"Point","coordinates":[17.6392445,59.8597231]},"properties":{"name":"Forsa Hembageri","amenity":""}},{"type":"Feature","geometry":{"type":"Point","coordinates":[17.6437281,59.8584546]},"properties":{"name":"Svava Tobak","amenity":""}},{"type":"Feature","geometry":{"type":"Point","coordinates":[17.6421015,59.858348]},"properties":{"name":"Apotek Kronan","amenity":"pharmacy"}},{"type":"Feature","geometry":{"type":"Point","coordinates":[17.6392042,59.8582376]},"properties":{"name":"Akademibokhandeln","amenity":""}},{"type":"Feature","geometry":{"type":"Point","coordinates":[17.644258,59.8581622]},"properties":{"name":"Pressbyrån","amenity":""}},{"type":"Feature","geometry":{"type":"Point","coordinates":[17.6419567,59.8584369]},"properties":{"name":"Systembolaget","amenity":""}},{"type":"Feature","geometry":{"type":"Point","coordinates":[17.6410099,59.8594069]},"properties":{"name":"Subway","amenity":"fast_food"}},{"type":"Feature","geometry":{"type":"Point","coordinates":[17.6369249,59.861015]},"properties":{"name":"Direkten","amenity":""}},{"type":"Feature","geometry":{"type":"Point","coordinates":[17.6370933,59.8609191]},"properties":{"name":"Texas Longhorn","amenity":"restaurant"}},{"type":"Feature","geometry":{"type":"Point","coordinates":[17.637686,59.8476993]},"properties":{"name":"","amenity":""}},{"type":"Feature","geometry":{"type":"Point","coordinates":[17.6490305,59.8664932]},"properties":{"name":"Hörnet","amenity":"restaurant"}},{"type":"Feature","geometry":{"type":"Point","coordinates":[17.6453787,59.8630749]},"properties":{"name":"Kvarnengaraget","amenity":"parking"}},{"type":"Feature","geometry":{"type":"Point","coordinates":[17.6455348,59.8624042]},"properties":{"name":"Systembolaget","amenity":""}},{"type":"Feature","geometry":{"type":"Point","coordinates":[17.6338092,59.8592509]},"properties":{"name":"Åkanten","amenity":"restaurant"}},{"type":"Feature","geometry":{"type":"Point","coordinates":[17.6393798,59.8594757]},"properties":{"name":"Pitcher's","amenity":"pub"}},{"type":"Feature","geometry":{"type":"Point","coordinates":[17.6384016,59.8584334]},"properties":{"name":"Pressbyrån","amenity":""}},{"type":"Feature","geometry":{"type":"Point","coordinates":[17.6313911,59.8596479]},"properties":{"name":"Restyle Second Hand & Records","amenity":""}},{"type":"Feature","geometry":{"type":"Point","coordinates":[17.6289364,59.8610097]},"properties":{"name":"PostNord","amenity":"post_office"}},{"type":"Feature","geometry":{"type":"Point","coordinates":[17.6269838,59.8611877]},"properties":{"name":"Siluett Syatelje & Kemtvätt","amenity":""}},{"type":"Feature","geometry":{"type":"Point","coordinates":[17.646568,59.8583792]},"properties":{"name":"UL Center","amenity":""}},{"type":"Feature","geometry":{"type":"Point","coordinates":[17.6465056,59.8580942]},"properties":{"name":"Pressbyrån","amenity":""}},{"type":"Feature","geometry":{"type":"Point","coordinates":[17.6465149,59.8583872]},"properties":{"name":"toilets","amenity":"toilets"}},{"type":"Feature","geometry":{"type":"Point","coordinates":[17.6304511,59.8567308]},"properties":{"name":"Nya Williams Pub","amenity":"pub"}},{"type":"Feature","geometry":{"type":"Point","coordinates":[17.6274551,59.861578]},"properties":{"name":"Lutisköket","amenity":"restaurant"}},{"type":"Feature","geometry":{"type":"Point","coordinates":[17.6361376,59.8567036]},"properties":{"name":"Grand","amenity":"arts_centre"}},{"type":"Feature","geometry":{"type":"Point","coordinates":[17.650065,59.8612498]},"properties":{"name":"","amenity":""}},{"type":"Feature","geometry":{"type":"Point","coordinates":[17.6501968,59.8611763]},"properties":{"name":"","amenity":""}},{"type":"Feature","geometry":{"type":"Point","coordinates":[17.6364538,59.858722]},"properties":{"name":"Alewalds Quality Outlet","amenity":""}},{"type":"Feature","geometry":{"type":"Point","coordinates":[17.6389296,59.8602648]},"properties":{"name":"Rolan Herrmode","amenity":""}},{"type":"Feature","geometry":{"type":"Point","coordinates":[17.6383733,59.8599667]},"properties":{"name":"Pressbyrån","amenity":""}},{"type":"Feature","geometry":{"type":"Point","coordinates":[17.6379579,59.859767]},"properties":{"name":"Apoteket","amenity":"pharmacy"}},{"type":"Feature","geometry":{"type":"Point","coordinates":[17.639997,59.8589046]},"properties":{"name":"Ecco","amenity":""}},{"type":"Feature","geometry":{"type":"Point","coordinates":[17.6400293,59.8592315]},"properties":{"name":"Smarteyes","amenity":""}},{"type":"Feature","geometry":{"type":"Point","coordinates":[17.6398358,59.8588319]},"properties":{"name":"August Johansson","amenity":""}},{"type":"Feature","geometry":{"type":"Point","coordinates":[17.6439583,59.8583178]},"properties":{"name":"Fixiphone","amenity":""}},{"type":"Feature","geometry":{"type":"Point","coordinates":[17.6433893,59.8578217]},"properties":{"name":"Svava Skoservice","amenity":""}},{"type":"Feature","geometry":{"type":"Point","coordinates":[17.6441264,59.8582258]},"properties":{"name":"Forex Bank","amenity":"bureau_de_change"}},{"type":"Feature","geometry":{"type":"Point","coordinates":[17.6439807,59.8573571]},"properties":{"name":"Böcker & Bläck","amenity":""}},{"type":"Feature","geometry":{"type":"Point","coordinates":[17.635039,59.8605007]},"properties":{"name":"Kjell & Company","amenity":""}},{"type":"Feature","geometry":{"type":"Point","coordinates":[17.6364194,59.8624545]},"properties":{"name":"Asian Livs","amenity":""}},{"type":"Feature","geometry":{"type":"Point","coordinates":[17.6347824,59.8633542]},"properties":{"name":"Venus Hårstudio","amenity":""}},{"type":"Feature","geometry":{"type":"Point","coordinates":[17.6354543,59.8611473]},"properties":{"name":"Lustgården","amenity":""}},{"type":"Feature","geometry":{"type":"Point","coordinates":[17.6351391,59.8604451]},"properties":{"name":"Kronans Apotek","amenity":"pharmacy"}},{"type":"Feature","geometry":{"type":"Point","coordinates":[17.6380693,59.8580143]},"properties":{"name":"Länsförsäkringar Fastighetsförmedling","amenity":""}},{"type":"Feature","geometry":{"type":"Point","coordinates":[17.6315265,59.8582983]},"properties":{"name":"Synsam","amenity":""}},{"type":"Feature","geometry":{"type":"Point","coordinates":[17.627692,59.8611395]},"properties":{"name":"Salong de två","amenity":""}},{"type":"Feature","geometry":{"type":"Point","coordinates":[17.6289322,59.8614573]},"properties":{"name":"Messob","amenity":"restaurant"}},{"type":"Feature","geometry":{"type":"Point","coordinates":[17.6291374,59.8517964]},"properties":{"name":"toilets","amenity":"toilets"}},{"type":"Feature","geometry":{"type":"Point","coordinates":[17.6279758,59.8504661]},"properties":{"name":"toilets","amenity":"toilets"}},{"type":"Feature","geometry":{"type":"Point","coordinates":[17.6346546,59.8479457]},"properties":{"name":"Johanna & Mat","amenity":"restaurant"}},{"type":"Feature","geometry":{"type":"Point","coordinates":[17.6291613,59.8552572]},"properties":{"name":"toilets","amenity":"toilets"}},{"type":"Feature","geometry":{"type":"Point","coordinates":[17.6278026,59.850525]},"properties":{"name":"Tropiska Växthuset","amenity":""}},{"type":"Feature","geometry":{"type":"Point","coordinates":[17.627634,59.8513244]},"properties":{"name":"","amenity":""}},{"type":"Feature","geometry":{"type":"Point","coordinates":[17.6377515,59.8642833]},"properties":{"name":"Teater Blanca","amenity":"social_centre"}},{"type":"Feature","geometry":{"type":"Point","coordinates":[17.6457781,59.8626632]},"properties":{"name":"toilets","amenity":"toilets"}},{"type":"Feature","geometry":{"type":"Point","coordinates":[17.6455074,59.84705]},"properties":{"name":"toilets","amenity":"toilets"}},{"type":"Feature","geometry":{"type":"Point","coordinates":[17.6282817,59.8745832]},"properties":{"name":"Kroasang","amenity":""}},{"type":"Feature","geometry":{"type":"Point","coordinates":[17.6352605,59.8604048]},"properties":{"name":"","amenity":""}},{"type":"Feature","geometry":{"type":"Point","coordinates":[17.63555,59.8591842]},"properties":{"name":"Kollaboratoriet Uppsala","amenity":"community_centre"}},{"type":"Feature","geometry":{"type":"Point","coordinates":[17.6374835,59.8599325]},"properties":{"name":"Søstrene Grene","amenity":""}},{"type":"Feature","geometry":{"type":"Point","coordinates":[17.638028,59.8601952]},"properties":{"name":"Twilfit","amenity":""}},{"type":"Feature","geometry":{"type":"Point","coordinates":[17.640277,59.8579147]},"properties":{"name":"Holy Greens","amenity":"restaurant"}},{"type":"Feature","geometry":{"type":"Point","coordinates":[17.6399537,59.8578663]},"properties":{"name":"Hemtex","amenity":""}},{"type":"Feature","geometry":{"type":"Point","coordinates":[17.6357496,59.8612052]},"properties":{"name":"Stadsbiblioteket","amenity":""}},{"type":"Feature","geometry":{"type":"Point","coordinates":[17.6357429,59.8610261]},"properties":{"name":"Stadsbiblioteket","amenity":""}},{"type":"Feature","geometry":{"type":"Point","coordinates":[17.6378335,59.8481116]},"properties":{"name":"","amenity":""}},{"type":"Feature","geometry":{"type":"Point","coordinates":[17.6382865,59.8513496]},"properties":{"name":"Akutmottagning för vuxenpsykiatri","amenity":""}},{"type":"Feature","geometry":{"type":"Point","coordinates":[17.637906,59.8516607]},"properties":{"name":"Barn- och ungdomspsykiatri","amenity":""}},{"type":"Feature","geometry":{"type":"Point","coordinates":[17.6277794,59.8511556]},"properties":{"name":"","amenity":""}},{"type":"Feature","geometry":{"type":"Point","coordinates":[17.6291875,59.8508438]},"properties":{"name":"","amenity":""}},{"type":"Feature","geometry":{"type":"Point","coordinates":[17.629037,59.8496574]},"properties":{"name":"","amenity":""}},{"type":"Feature","geometry":{"type":"Point","coordinates":[17.6340304,59.8514973]},"properties":{"name":"","amenity":""}},{"type":"Feature","geometry":{"type":"Point","coordinates":[17.6688463,59.8559889]},"properties":{"name":"Återbruket","amenity":""}},{"type":"Feature","geometry":{"type":"Point","coordinates":[17.6383546,59.8496053]},"properties":{"name":"","amenity":""}},{"type":"Feature","geometry":{"type":"Point","coordinates":[17.639661,59.857003]},"properties":{"name":"Distriktstandvården Östra Ågatan","amenity":"dentist"}},{"type":"Feature","geometry":{"type":"Point","coordinates":[17.646336,59.854181]},"properties":{"name":"Distriktstandvården Hamnesplanaden","amenity":"dentist"}},{"type":"Feature","geometry":{"type":"Point","coordinates":[17.6395533,59.8598329]},"properties":{"name":"O'Leary's","amenity":"restaurant"}},{"type":"Feature","geometry":{"type":"Point","coordinates":[17.6388014,59.8599514]},"properties":{"name":"Café Plaza","amenity":"cafe"}},{"type":"Feature","geometry":{"type":"Point","coordinates":[17.63612,59.8571739]},"properties":{"name":"Seriezonen","amenity":""}},{"type":"Feature","geometry":{"type":"Point","coordinates":[17.6365789,59.860179]},"properties":{"name":"toilets","amenity":"toilets"}},{"type":"Feature","geometry":{"type":"Point","coordinates":[17.646731,59.8601344]},"properties":{"name":"Home Hotel Uppsala","amenity":""}},{"type":"Feature","geometry":{"type":"Point","coordinates":[17.6469022,59.8582111]},"properties":{"name":"Espresso House","amenity":"cafe"}},{"type":"Feature","geometry":{"type":"Point","coordinates":[17.6407448,59.8595841]},"properties":{"name":"Negai","amenity":"restaurant"}},{"type":"Feature","geometry":{"type":"Point","coordinates":[17.6535192,59.8427208]},"properties":{"name":"Diggiloo - Uppsala","amenity":"events_venue"}},{"type":"Feature","geometry":{"type":"Point","coordinates":[17.6685731,59.8659918]},"properties":{"name":"Leijon Stenugnsbageri & Konditori","amenity":""}},{"type":"Feature","geometry":{"type":"Point","coordinates":[17.648541,59.8618574]},"properties":{"name":"Sushi Taiyo","amenity":"restaurant"}},{"type":"Feature","geometry":{"type":"Point","coordinates":[17.6402593,59.8593907]},"properties":{"name":"Gateau Vaksalagatan","amenity":"cafe"}},{"type":"Feature","geometry":{"type":"Point","coordinates":[17.6291998,59.8604495]},"properties":{"name":"Créperie Bamå","amenity":"cafe"}},{"type":"Feature","geometry":{"type":"Point","coordinates":[17.6457155,59.8549608]},"properties":{"name":"Ebbagården","amenity":"social_facility"}},{"type":"Feature","geometry":{"type":"Point","coordinates":[17.6685872,59.8799892]},"properties":{"name":"","amenity":""}},{"type":"Feature","geometry":{"type":"Point","coordinates":[17.661756,59.8661581]},"properties":{"name":"","amenity":""}},{"type":"Feature","geometry":{"type":"Point","coordinates":[17.6352371,59.8606388]},"properties":{"name":"","amenity":""}},{"type":"Feature","geometry":{"type":"Point","coordinates":[17.6360076,59.8605888]},"properties":{"name":"","amenity":""}},{"type":"Feature","geometry":{"type":"Point","coordinates":[17.6329281,59.8450966]},"properties":{"name":"","amenity":""}},{"type":"Feature","geometry":{"type":"Point","coordinates":[17.6327203,59.8453389]},"properties":{"name":"","amenity":""}},{"type":"Feature","geometry":{"type":"Point","coordinates":[17.632044,59.8453205]},"properties":{"name":"","amenity":""}},{"type":"Feature","geometry":{"type":"Point","coordinates":[17.6337805,59.8454267]},"properties":{"name":"","amenity":""}},{"type":"Feature","geometry":{"type":"Point","coordinates":[17.6328949,59.8456659]},"properties":{"name":"","amenity":""}},{"type":"Feature","geometry":{"type":"Point","coordinates":[17.6645724,59.8565527]},"properties":{"name":"Rexel","amenity":""}},{"type":"Feature","geometry":{"type":"Point","coordinates":[17.640997,59.8495569]},"properties":{"name":"Blodcentralen Akademiska Sjukhuset","amenity":""}},{"type":"Feature","geometry":{"type":"Point","coordinates":[17.6508365,59.8581535]},"properties":{"name":"","amenity":""}},{"type":"Feature","geometry":{"type":"Point","coordinates":[17.6430831,59.8594353]},"properties":{"name":"","amenity":""}},{"type":"Feature","geometry":{"type":"Point","coordinates":[17.6451543,59.8632785]},"properties":{"name":"Uppsalahem","amenity":""}},{"type":"Feature","geometry":{"type":"Point","coordinates":[17.6401231,59.8577653]},"properties":{"name":"Lakritsroten","amenity":""}},{"type":"Feature","geometry":{"type":"Point","coordinates":[17.6421573,59.8621343]},"properties":{"name":"","amenity":""}},{"type":"Feature","geometry":{"type":"Point","coordinates":[17.6419877,59.862045]},"properties":{"name":"","amenity":""}},{"type":"Feature","geometry":{"type":"Point","coordinates":[17.635904,59.8490214]},"properties":{"name":"","amenity":""}},{"type":"Feature","geometry":{"type":"Point","coordinates":[17.6423777,59.8565309]},"properties":{"name":"KungsFoten","amenity":""}},{"type":"Feature","geometry":{"type":"Point","coordinates":[17.6412134,59.8580632]},"properties":{"name":"toilets","amenity":"toilets"}},{"type":"Feature","geometry":{"type":"Point","coordinates":[17.6306969,59.8459051]},"properties":{"name":"","amenity":""}},{"type":"Feature","geometry":{"type":"Point","coordinates":[17.6305899,59.8458671]},"properties":{"name":"","amenity":""}},{"type":"Feature","geometry":{"type":"Point","coordinates":[17.6308721,59.8460308]},"properties":{"name":"","amenity":""}},{"type":"Feature","geometry":{"type":"Point","coordinates":[17.6307147,59.8461154]},"properties":{"name":"","amenity":""}},{"type":"Feature","geometry":{"type":"Point","coordinates":[17.6186833,59.8681184]},"properties":{"name":"Folktandvården Seminariet","amenity":"dentist"}},{"type":"Feature","geometry":{"type":"Point","coordinates":[17.6465644,59.8582208]},"properties":{"name":"Uppsala centralstation","amenity":""}},{"type":"Feature","geometry":{"type":"Point","coordinates":[17.6580908,59.8561596]},"properties":{"name":"Ottobock","amenity":""}},{"type":"Feature","geometry":{"type":"Point","coordinates":[17.6379754,59.8601014]},"properties":{"name":"Fix My Phone","amenity":""}},{"type":"Feature","geometry":{"type":"Point","coordinates":[17.637892,59.860059]},"properties":{"name":"Telenor","amenity":""}},{"type":"Feature","geometry":{"type":"Point","coordinates":[17.6372809,59.8600415]},"properties":{"name":"3Butiken","amenity":""}},{"type":"Feature","geometry":{"type":"Point","coordinates":[17.6228679,59.8607072]},"properties":{"name":"toilets","amenity":"toilets"}},{"type":"Feature","geometry":{"type":"Point","coordinates":[17.6475191,59.8553847]},"properties":{"name":"","amenity":""}},{"type":"Feature","geometry":{"type":"Point","coordinates":[17.6631482,59.8755786]},"properties":{"name":"toilets","amenity":"toilets"}},{"type":"Feature","geometry":{"type":"Point","coordinates":[17.6451885,59.8509411]},"properties":{"name":"drinking_water","amenity":"drinking_water"}},{"type":"Feature","geometry":{"type":"Point","coordinates":[17.6351909,59.8481836]},"properties":{"name":"Kommunalförbundet Avancerad Strålbehandling","amenity":""}},{"type":"Feature","geometry":{"type":"Point","coordinates":[17.6351348,59.8482602]},"properties":{"name":"Hotel Von Kraemer","amenity":""}},{"type":"Feature","geometry":{"type":"Point","coordinates":[17.6473239,59.8699881]},"properties":{"name":"Cafe delight","amenity":"cafe"}},{"type":"Feature","geometry":{"type":"Point","coordinates":[17.647515,59.8526226]},"properties":{"name":"Arbetsförmedlingen","amenity":""}},{"type":"Feature","geometry":{"type":"Point","coordinates":[17.6407331,59.8576598]},"properties":{"name":"C&C","amenity":""}},{"type":"Feature","geometry":{"type":"Point","coordinates":[17.6480378,59.8542472]},"properties":{"name":"Svintorget","amenity":"restaurant"}}]}