{"type":"FeatureCollection","name":"lcp_vaksalatorg_slope80_surface20","crs":{"type":"name","properties":{"name":"urn:ogc:def:crs:OGC:1.3:CRS84"}},"features":[{"type":"Feature","properties":{"start point id":2,"end point id":13,"total cost":2269.429},"geometry":{"type":"LineString","coordinates":[[17.638926259419307,59.858564099164745],[17.638874344513617,59.858589972679304],[17.638939604125117,59.85862460105595],[17.64144136314551,59.85976482560677],[17.641427086883784,59.859810033029504],[17.641281902330007,59.85989380405322],[17.64012540526664,59.86051445322184],[17.640320132971816,59.86060488138547],[17.640295870836578,59.860636812679886],[17.640307988573653,59.86067699844487],[17.641403973556184,59.86120753794425],[17.641510602865793,59.8613132084908],[17.64228277173998,59.86170199960563],[17.644148184588975,59.862585422420814],[17.645448434508115,59.86186302292703],[17.64569135225919,59.86177279093217],[17.645688145020962,59.86173242648789],[17.64594497562928,59.86159250125887],[17.646120821238426,59.8616698243569],[17.64708813443395,59.86168049956086]]}}]}