{
"type": "FeatureCollection",
"name": "output_least_cost_path",
"crs": { "type": "name", "properties": { "name": "urn:ogc:def:crs:OGC:1.3:CRS84" } },
"features": [
{ "type": "Feature", "properties": { "start point id": 2, "end point id": 16, "total cost": 57171.949 }, "geometry": { "type": "LineString", "coordinates": [ [ 17.638926259419307, 59.858564099164745 ], [ 17.638917151271642, 59.858566653937508 ], [ 17.638908590056189, 59.858571317666033 ], [ 17.638900028838339, 59.858575981393997 ], [ 17.638891467618091, 59.858580645121407 ], [ 17.638882906395455, 59.858585308848291 ], [ 17.638874345170418, 59.858589972574599 ], [ 17.638865073150722, 59.858585666370246 ], [ 17.63885580113342, 59.858581360165189 ], [ 17.638846529118513, 59.858577053959458 ], [ 17.638837257105997, 59.858572747753058 ], [ 17.63882798509588, 59.858568441546005 ], [ 17.638818713088156, 59.858564135338248 ], [ 17.638809441082827, 59.858559829129852 ], [ 17.638800169079893, 59.85855552292076 ], [ 17.638790897079357, 59.858551216711014 ], [ 17.638781625081212, 59.858546910500586 ], [ 17.638772353085461, 59.858542604289489 ], [ 17.638763081092108, 59.858538298077733 ], [ 17.638753809101154, 59.858533991865279 ], [ 17.638744537112586, 59.858529685652158 ], [ 17.638735265126417, 59.858525379438369 ], [ 17.638725993142643, 59.858521073223912 ], [ 17.638716721161263, 59.858516767008787 ], [ 17.638707449182277, 59.858512460792987 ], [ 17.63869817720569, 59.858508154576505 ], [ 17.638688905231497, 59.858503848359362 ], [ 17.638679633259695, 59.858499542141558 ], [ 17.638670361290291, 59.858495235923058 ], [ 17.638661089323286, 59.858490929703905 ], [ 17.638652172724633, 59.858491108450011 ], [ 17.638642900761106, 59.858486802229535 ], [ 17.638633628799973, 59.858482496008413 ], [ 17.638624356841234, 59.858478189786588 ], [ 17.638615084884886, 59.858473883564102 ], [ 17.63860581293094, 59.858469577340962 ], [ 17.638596540979382, 59.858465271117126 ], [ 17.638587269030225, 59.858460964892629 ], [ 17.638577997083459, 59.858456658667485 ], [ 17.638568725139091, 59.858452352441631 ], [ 17.638559453197118, 59.858448046215123 ], [ 17.638550181257536, 59.858443739987933 ], [ 17.638540909320351, 59.858439433760083 ], [ 17.638531637385562, 59.858435127531578 ], [ 17.638522365453166, 59.858430821302349 ], [ 17.638513093523169, 59.858426515072473 ], [ 17.638503821595563, 59.858422208841951 ], [ 17.638494905014173, 59.858422387577292 ], [ 17.638485633090049, 59.85841808134542 ], [ 17.638485277747534, 59.858413596378838 ], [ 17.638476005827119, 59.858409290146291 ], [ 17.638466733909091, 59.858404983913069 ], [ 17.638457461993461, 59.858400677679157 ], [ 17.638448190080226, 59.858396371444599 ], [ 17.638438918169385, 59.858392065209358 ], [ 17.638429646260938, 59.858387758973421 ], [ 17.63842037435489, 59.858383452736845 ], [ 17.638411457783267, 59.858383631466445 ], [ 17.638402185880697, 59.858379325228555 ], [ 17.638392913980521, 59.858375018989989 ], [ 17.638383642082744, 59.858370712750748 ], [ 17.638374370187357, 59.858366406510847 ], [ 17.638365098294365, 59.858362100270256 ], [ 17.638355826403771, 59.858357794029011 ], [ 17.638346554515572, 59.858353487787085 ], [ 17.638337282629767, 59.858349181544483 ], [ 17.638328010746353, 59.858344875301228 ], [ 17.63831873886534, 59.85834056905729 ], [ 17.638309466986716, 59.858336262812657 ], [ 17.638300195110489, 59.858331956567376 ], [ 17.63829092323666, 59.858327650321428 ], [ 17.638282006679042, 59.858327829042167 ], [ 17.638272734808691, 59.858323522794912 ], [ 17.638263462940735, 59.858319216546995 ], [ 17.638254191075173, 59.858314910298368 ], [ 17.638244919212006, 59.858310604049088 ], [ 17.638235647351234, 59.858306297799146 ], [ 17.638226375492859, 59.858301991548508 ], [ 17.638217103636876, 59.858297685297224 ], [ 17.638207831783291, 59.858293379045271 ], [ 17.6381985599321, 59.858289072792623 ], [ 17.638189288083304, 59.858284766539313 ], [ 17.638180016236902, 59.858280460285343 ], [ 17.638170744392895, 59.858276154030683 ], [ 17.638161472551282, 59.858271847775377 ], [ 17.638152200712067, 59.858267541519382 ], [ 17.638143284169534, 59.858267720230614 ], [ 17.638134012333797, 59.858263413973305 ], [ 17.638124740500459, 59.858259107715362 ], [ 17.638115468669511, 59.858254801456695 ], [ 17.638106196840958, 59.858250495197368 ], [ 17.6380969250148, 59.858246188937379 ], [ 17.63808765319104, 59.85824188267673 ], [ 17.63807838136967, 59.858237576415405 ], [ 17.638069109550699, 59.858233270153406 ], [ 17.638059837734122, 59.858228963890717 ], [ 17.63805056591994, 59.858224657627382 ], [ 17.638041294108152, 59.858220351363343 ], [ 17.638032022298759, 59.858216045098651 ], [ 17.638022750491761, 59.858211738833305 ], [ 17.63801347868716, 59.858207432567269 ], [ 17.638004562159715, 59.858207611269023 ], [ 17.637995290358592, 59.858203305001666 ], [ 17.637986018559868, 59.858198998733663 ], [ 17.637976746763535, 59.858194692464956 ], [ 17.637967474969596, 59.858190386195616 ], [ 17.637958203178052, 59.858186079925602 ], [ 17.637948931388902, 59.858181773654877 ], [ 17.637939659602154, 59.858177467383513 ], [ 17.637930387817793, 59.858173161111459 ], [ 17.637921116035827, 59.858168854838766 ], [ 17.637911844256262, 59.858164548565362 ], [ 17.637902572479089, 59.858160242291305 ], [ 17.637893300704309, 59.85815593601658 ], [ 17.637884028931925, 59.858151629741187 ], [ 17.637875112418484, 59.858151808434073 ], [ 17.637865840649578, 59.858147502157351 ], [ 17.637856568883073, 59.858143195879983 ], [ 17.637847297118959, 59.858138889601932 ], [ 17.63783802535724, 59.858134583323199 ], [ 17.637828753597919, 59.858130277043806 ], [ 17.637819481840985, 59.85812597076373 ], [ 17.637810210086453, 59.858121664482987 ], [ 17.637800938334316, 59.858117358201589 ], [ 17.637791666584572, 59.858113051919489 ], [ 17.63778239483722, 59.858108745636748 ], [ 17.637782039593766, 59.858104260667439 ], [ 17.637772767850119, 59.858099954383945 ], [ 17.637763496108871, 59.858095648099827 ], [ 17.637754579609542, 59.858095826784457 ], [ 17.637745663110103, 59.858096005468475 ], [ 17.637736391373419, 59.858091699182403 ], [ 17.637727474874954, 59.858091877865178 ], [ 17.637718558376378, 59.858092056547356 ], [ 17.637709641877688, 59.858092235228931 ], [ 17.637700370146657, 59.8580879289403 ], [ 17.637691098418017, 59.858083622650966 ], [ 17.637682537151115, 59.858088286300351 ], [ 17.637673265424649, 59.858083980009766 ], [ 17.637663993700578, 59.858079673718493 ], [ 17.637655077204812, 59.858079852396365 ], [ 17.637645805484219, 59.858075546103784 ], [ 17.637636533766024, 59.858071239810535 ], [ 17.637627262050223, 59.858066933516618 ], [ 17.637618345557598, 59.858067112191975 ], [ 17.63760907384528, 59.858062805896743 ], [ 17.637599802135355, 59.858058499600851 ], [ 17.637590530427826, 59.858054193304277 ], [ 17.63758125872269, 59.858049887007034 ], [ 17.637572342234296, 59.858050065679258 ], [ 17.637563070532643, 59.858045759380694 ], [ 17.63755379883338, 59.858041453081469 ], [ 17.637544527136516, 59.858037146781598 ], [ 17.637535255442046, 59.858032840481023 ], [ 17.63752598374997, 59.858028534179802 ], [ 17.637525628542164, 59.85802404920949 ], [ 17.637516356853791, 59.858019742907558 ], [ 17.637507085167819, 59.858015436604937 ], [ 17.637497813484234, 59.858011130301641 ], [ 17.637488541803048, 59.858006823997684 ], [ 17.637479270124256, 59.858002517693066 ], [ 17.637478914923108, 59.857998032722556 ], [ 17.637469643248021, 59.85799372641722 ], [ 17.637460371575326, 59.857989420111217 ], [ 17.637451099905025, 59.85798511380451 ], [ 17.63745074470792, 59.857980628833921 ], [ 17.637450389510924, 59.857976143863311 ], [ 17.637441117845636, 59.85797183755588 ], [ 17.637440762650062, 59.857967352585241 ], [ 17.63743149098848, 59.857963046277099 ], [ 17.637422219329292, 59.857958739968296 ], [ 17.637412947672502, 59.857954433658804 ], [ 17.637403676018106, 59.857950127348651 ], [ 17.637394404366102, 59.857945821037859 ], [ 17.637385132716496, 59.857941514726342 ], [ 17.637375861069284, 59.857937208414178 ], [ 17.637366589424467, 59.857932902101354 ], [ 17.637357317782044, 59.857928595787854 ], [ 17.637348046142016, 59.857924289473658 ], [ 17.637338774504382, 59.857919983158823 ], [ 17.637329858049007, 59.85792016181437 ], [ 17.637320586414855, 59.857915855498213 ], [ 17.637311314783098, 59.857911549181381 ], [ 17.637302043153735, 59.857907242863874 ], [ 17.63729277152677, 59.857902936545706 ], [ 17.637283499902196, 59.857898630226863 ], [ 17.637274228280017, 59.857894323907352 ], [ 17.637264956660232, 59.857890017587152 ], [ 17.637255685042842, 59.857885711266313 ], [ 17.637246413427849, 59.85788140494477 ], [ 17.637237141815248, 59.857877098622545 ], [ 17.63722822537062, 59.857877277271157 ], [ 17.637218953761504, 59.857872970947675 ], [ 17.63721003731785, 59.857873149595029 ], [ 17.637201120874085, 59.85787332824178 ], [ 17.637192204430207, 59.857873506887955 ], [ 17.637183287986215, 59.857873685533512 ], [ 17.637174371542116, 59.857873864178465 ], [ 17.637165455097904, 59.857874042822814 ], [ 17.637156183497691, 59.857869736494813 ], [ 17.637146911899876, 59.857865430166136 ], [ 17.637137640304459, 59.857861123836827 ], [ 17.637137285151304, 59.857856638865002 ], [ 17.637128013559586, 59.857852332534968 ], [ 17.637118741970266, 59.857848026204238 ], [ 17.63710947038334, 59.857843719872854 ], [ 17.637100198798809, 59.857839413540781 ], [ 17.637090927216672, 59.857835107208054 ], [ 17.637090572070171, 59.85783062223603 ], [ 17.637081300491744, 59.857826315902621 ], [ 17.637072028915703, 59.857822009568501 ], [ 17.637071673771938, 59.857817524596413 ], [ 17.637062402199604, 59.85781321826159 ], [ 17.637053130629663, 59.857808911926092 ], [ 17.637052775488627, 59.85780442695394 ], [ 17.637043503922392, 59.857800120617732 ], [ 17.637034942635502, 59.85780478422533 ], [ 17.637026026208773, 59.857804962860129 ], [ 17.637017464918177, 59.857809626466583 ], [ 17.637008548490023, 59.85780980510021 ], [ 17.636999987195729, 59.85781446870557 ], [ 17.636991070766157, 59.85781464733801 ], [ 17.636982509468154, 59.857819310942268 ], [ 17.636973948167757, 59.857823974545973 ], [ 17.636965031735453, 59.857824153176644 ], [ 17.63695647043135, 59.857828816779246 ], [ 17.636947553997629, 59.857828995408759 ], [ 17.636938992689824, 59.857833659010225 ], [ 17.636930076254682, 59.857833837638587 ], [ 17.636921514943172, 59.857838501238959 ], [ 17.636912953629267, 59.857843164838762 ], [ 17.636904037191393, 59.857843343465362 ], [ 17.636895475873786, 59.857848007064057 ], [ 17.636886559434494, 59.857848185689491 ], [ 17.636877998113182, 59.857852849287063 ], [ 17.636869081672465, 59.857853027911325 ], [ 17.636860520347447, 59.857857691507796 ], [ 17.636851959020035, 59.857862355103727 ], [ 17.63684304257659, 59.85786253372622 ], [ 17.636834481245476, 59.857867197321035 ], [ 17.63682556480061, 59.857867375942355 ], [ 17.63681700346579, 59.857872039536048 ], [ 17.636808087019503, 59.857872218156217 ], [ 17.636799525680981, 59.857876881748801 ], [ 17.636790964340065, 59.857881545340852 ], [ 17.636782047891046, 59.857881723959252 ], [ 17.636773486546424, 59.857886387550174 ], [ 17.636764570095988, 59.857886566167416 ], [ 17.63675600874766, 59.857891229757215 ], [ 17.636747447396942, 59.857895893346502 ], [ 17.636738530943774, 59.857896071961974 ], [ 17.63672996958935, 59.857900735550132 ], [ 17.63672105313476, 59.857900914164446 ], [ 17.636712491776631, 59.857905577751488 ], [ 17.63670357532062, 59.857905756364623 ], [ 17.636695013958789, 59.857910419950549 ], [ 17.636686452594564, 59.857915083535914 ], [ 17.636677536135824, 59.857915262147316 ], [ 17.63666897476789, 59.857919925731593 ], [ 17.636660058307733, 59.857920104341808 ], [ 17.636651496936096, 59.857924767924956 ], [ 17.636642580474511, 59.857924946533991 ], [ 17.636634019099176, 59.857929610116045 ], [ 17.63662545772144, 59.857934273697524 ], [ 17.63661654125713, 59.857934452304839 ], [ 17.636607979875691, 59.857939115885202 ], [ 17.636599063409957, 59.857939294491331 ], [ 17.63659050202482, 59.857943958070599 ], [ 17.636581585557664, 59.857944136675549 ], [ 17.636573024168818, 59.857948800253681 ], [ 17.636564462777578, 59.857953463831294 ], [ 17.636555546307697, 59.857953642434502 ], [ 17.636546984912751, 59.857958306010985 ], [ 17.636538068441446, 59.857958484613022 ], [ 17.636529507042795, 59.857963148188396 ], [ 17.636520590570072, 59.857963326789239 ], [ 17.636512029167719, 59.857967990363505 ], [ 17.636503467762974, 59.857972653937217 ], [ 17.636494551287516, 59.857972832536333 ], [ 17.636485989879066, 59.857977496108916 ], [ 17.63647707340219, 59.857977674706859 ], [ 17.636468511990032, 59.85798233827834 ], [ 17.636459595511738, 59.857982516875111 ], [ 17.636451034095881, 59.857987180445498 ], [ 17.636442472677622, 59.857991844015295 ], [ 17.636433556196597, 59.85799202261034 ], [ 17.636424994774636, 59.857996686179028 ], [ 17.636416078292193, 59.857996864772886 ], [ 17.63640751686653, 59.858001528340488 ], [ 17.636398955438469, 59.858006191907528 ], [ 17.636390038953294, 59.858006370499616 ], [ 17.636381477521532, 59.858011034065576 ], [ 17.636372561034939, 59.858011212656507 ], [ 17.636363999599467, 59.858015876221316 ], [ 17.63635508311145, 59.858016054811081 ], [ 17.63634652167228, 59.858020718374775 ], [ 17.636337960230719, 59.858025381937949 ], [ 17.63632904373997, 59.858025560525938 ], [ 17.6363204822947, 59.858030224088004 ], [ 17.636311565802529, 59.858030402674814 ], [ 17.636303004353557, 59.858035066235772 ], [ 17.636294087859966, 59.858035244821423 ], [ 17.636285526407292, 59.858039908381237 ], [ 17.63627696495222, 59.858044571940503 ], [ 17.6362680484559, 59.858044750524428 ], [ 17.636259486997126, 59.858049414082586 ], [ 17.636250570499381, 59.85804959266531 ], [ 17.636242009036906, 59.85805425622236 ], [ 17.636233092537744, 59.858054434803918 ], [ 17.636224531071559, 59.858059098359853 ], [ 17.636215969602983, 59.858063761915247 ], [ 17.636207053101089, 59.85806394049505 ], [ 17.636198491628807, 59.858068604049329 ], [ 17.636189575125492, 59.858068782627967 ], [ 17.636181013649509, 59.85807344618113 ], [ 17.636172097144772, 59.858073624758589 ], [ 17.636163535665084, 59.858078288310629 ], [ 17.636154974183, 59.858082951862137 ], [ 17.636146057675536, 59.858083130437848 ], [ 17.636137496189747, 59.858087793988247 ], [ 17.636128579680861, 59.858087972562778 ], [ 17.63612001819137, 59.858092636112062 ], [ 17.636111101681063, 59.858092814685421 ], [ 17.636102540187867, 59.858097478233582 ], [ 17.636093978692276, 59.858102141781181 ], [ 17.636085062179241, 59.858102320352813 ], [ 17.636076500679945, 59.858106983899305 ], [ 17.636067584165485, 59.858107162469743 ], [ 17.636059022662486, 59.85811182601514 ], [ 17.636050106146609, 59.85811200458442 ], [ 17.636041544639905, 59.858116668128702 ], [ 17.636032983130807, 59.858121331672407 ], [ 17.636024066612197, 59.858121510239933 ], [ 17.636015505099397, 59.858126173782544 ], [ 17.63600658857937, 59.858126352348904 ], [ 17.635998027062861, 59.8581310158904 ], [ 17.635989110541413, 59.858131194455581 ], [ 17.635980549021202, 59.858135857995954 ], [ 17.6359719874986, 59.858140521535795 ], [ 17.63596307097442, 59.858140700099234 ], [ 17.635954509448112, 59.858145363637966 ], [ 17.635945592922507, 59.858145542200219 ], [ 17.635937031392494, 59.858150205737807 ], [ 17.635928114865475, 59.858150384298909 ], [ 17.635919553331757, 59.858155047835403 ], [ 17.635910991795644, 59.858159711371336 ], [ 17.635902075265893, 59.85815988993069 ], [ 17.635893513726078, 59.858164553465507 ], [ 17.635884597194906, 59.858164732023674 ], [ 17.635876035651389, 59.858169395557418 ], [ 17.635867119118796, 59.858169574114399 ], [ 17.63585855757157, 59.858174237646999 ], [ 17.635849641037556, 59.8581744162028 ], [ 17.635841079486628, 59.858179079734313 ], [ 17.635832517933306, 59.858183743265243 ], [ 17.635823601396563, 59.858183921819318 ], [ 17.635815039839535, 59.858188585349133 ], [ 17.635806123301371, 59.858188763902035 ], [ 17.635797561740638, 59.858193427430749 ], [ 17.635788645201057, 59.858193605982493 ], [ 17.635780083636618, 59.85819826951009 ], [ 17.635771522069788, 59.858202933037134 ], [ 17.635762605527475, 59.858203111587116 ], [ 17.63575404395694, 59.858207775113058 ], [ 17.635745127413205, 59.858207953661868 ], [ 17.635736565838965, 59.858212617186666 ], [ 17.635727649293809, 59.858212795734296 ], [ 17.635719087715866, 59.858217459258015 ], [ 17.635710526135533, 59.8582221227812 ], [ 17.635701609587645, 59.858222301327068 ], [ 17.635693048003603, 59.858226964849123 ], [ 17.635684131454294, 59.858227143393826 ], [ 17.635675569866549, 59.858231806914773 ], [ 17.635666653315823, 59.858231985458289 ], [ 17.635658091724373, 59.858236648978135 ], [ 17.635649530130529, 59.858241312497405 ], [ 17.63564061357707, 59.858241491039195 ], [ 17.63563205197952, 59.858246154557364 ], [ 17.635623135424645, 59.858246333097981 ], [ 17.635614573823389, 59.858250996615006 ], [ 17.635605657267092, 59.85825117515445 ], [ 17.635597095662135, 59.858255838670402 ], [ 17.635588534054786, 59.858260502185786 ], [ 17.635579617495758, 59.858260680723475 ], [ 17.6355710558847, 59.858265344237758 ], [ 17.635562139324247, 59.858265522774261 ], [ 17.635553577709491, 59.858270186287449 ], [ 17.63554466114762, 59.858270364822772 ], [ 17.635536099529155, 59.858275028334823 ], [ 17.635527537908295, 59.85827969184632 ], [ 17.635518621343696, 59.858279870379924 ], [ 17.635510059719135, 59.858284533890327 ], [ 17.63550114315311, 59.858284712422737 ], [ 17.635492581524847, 59.858289375932031 ], [ 17.635483664957405, 59.858289554463255 ], [ 17.635475103325433, 59.858294217971419 ], [ 17.635465831822188, 59.858289911523954 ], [ 17.63545656032133, 59.858285605075785 ], [ 17.635447288822871, 59.858281298626977 ], [ 17.635438017326809, 59.858276992177473 ], [ 17.635428745833138, 59.858272685727314 ], [ 17.635428390904103, 59.858268200749613 ], [ 17.635419119414138, 59.858263894298751 ], [ 17.635409847926571, 59.858259587847208 ], [ 17.635400576441395, 59.858255281394982 ], [ 17.635400221516395, 59.85825079641716 ], [ 17.635390950034925, 59.858246489964245 ], [ 17.635381678555849, 59.858242183510654 ], [ 17.635381323633581, 59.858237698532761 ], [ 17.635372052158207, 59.858233392078454 ], [ 17.635362780685231, 59.858229085623492 ], [ 17.635362425765695, 59.858224600645528 ], [ 17.635353154296421, 59.85822029418982 ], [ 17.635343882829542, 59.85821598773348 ], [ 17.635334611365057, 59.858211681276444 ], [ 17.635334256449561, 59.85820719629838 ], [ 17.635324984988781, 59.858202889840648 ], [ 17.635315713530396, 59.85819858338224 ], [ 17.635315358617628, 59.858194098404084 ], [ 17.635306087162945, 59.858189791944966 ], [ 17.63529681571066, 59.858185485485173 ], [ 17.635287544260773, 59.858181179024719 ], [ 17.635287189352038, 59.858176694046435 ], [ 17.635277917905853, 59.85817238758527 ], [ 17.635268646462062, 59.858168081123431 ], [ 17.635268291556059, 59.858163596145097 ], [ 17.635259020115974, 59.858159289682554 ], [ 17.63524974867828, 59.858154983219343 ], [ 17.635249393775013, 59.858150498240903 ], [ 17.635240122341024, 59.858146191776989 ], [ 17.63523085090943, 59.858141885312392 ], [ 17.635221579480227, 59.858137578847099 ], [ 17.635221224580999, 59.858133093868574 ], [ 17.635211953155501, 59.858128787402599 ], [ 17.635202681732402, 59.858124480935949 ], [ 17.635202326835898, 59.858119995957338 ], [ 17.635193055416504, 59.858115689489978 ], [ 17.635183783999505, 59.858111383021949 ], [ 17.6351745125849, 59.858107076553239 ], [ 17.635174157692433, 59.858102591574529 ], [ 17.635164886281533, 59.858098285105129 ], [ 17.635155614873025, 59.858093978635033 ], [ 17.635155259983289, 59.858089493656223 ], [ 17.63514598857849, 59.858085187185452 ], [ 17.635136717176081, 59.858080880713985 ], [ 17.635127445776067, 59.858076574241863 ], [ 17.635127090890371, 59.858072089262933 ], [ 17.635117819494063, 59.858067782790094 ], [ 17.635108548100149, 59.858063476316588 ], [ 17.635108193217185, 59.858058991337593 ], [ 17.635098921826973, 59.858054684863376 ], [ 17.635089650439156, 59.858050378388484 ], [ 17.635089295558924, 59.858045893409411 ], [ 17.635080024174808, 59.858041586933801 ], [ 17.635070752793094, 59.858037280457552 ], [ 17.635061481413771, 59.858032973980585 ], [ 17.635061126537575, 59.858028489001406 ], [ 17.635051855161958, 59.858024182523742 ], [ 17.635042583788731, 59.858019876045425 ], [ 17.635042228915268, 59.858015391066175 ], [ 17.63503295754575, 59.858011084587147 ], [ 17.635023686178624, 59.858006778107445 ], [ 17.635023331307888, 59.858002293128102 ], [ 17.635014059944471, 59.857997986647689 ], [ 17.635004788583444, 59.857993680166615 ], [ 17.635004433715437, 59.857989195187194 ], [ 17.634995162358116, 59.857984888705396 ], [ 17.63498589100319, 59.857980582222943 ], [ 17.634976619650658, 59.857976275739809 ], [ 17.634976264786687, 59.857971790760274 ], [ 17.63496699343786, 59.857967484276443 ], [ 17.634957722091425, 59.857963177791916 ], [ 17.634957367230189, 59.857958692812311 ], [ 17.634948095887459, 59.857954386327101 ], [ 17.634938824547127, 59.85795007984121 ], [ 17.63493846968862, 59.857945594861526 ], [ 17.634929198351987, 59.857941288374917 ], [ 17.634919927017755, 59.857936981887661 ], [ 17.634919572161976, 59.8579324969079 ], [ 17.634910300831447, 59.857928190419912 ], [ 17.634901029503308, 59.857923883931257 ], [ 17.634900674650261, 59.85791939895141 ], [ 17.634891403325827, 59.857915092462051 ], [ 17.634882132003789, 59.857910785972031 ], [ 17.63488177715347, 59.85790630099212 ], [ 17.634872505835137, 59.857901994501368 ], [ 17.634863234519198, 59.857897688009977 ], [ 17.634862879671612, 59.857893203029974 ], [ 17.634853608359375, 59.857888896537858 ], [ 17.634844337049536, 59.857884590045074 ], [ 17.634843982204671, 59.857880105065 ], [ 17.634834710898538, 59.857875798571492 ], [ 17.634825439594799, 59.857871492077336 ], [ 17.634825084752666, 59.857867007097184 ], [ 17.634815813452633, 59.857862700602304 ], [ 17.634806542154987, 59.857858394106749 ], [ 17.634806187315586, 59.857853909126533 ], [ 17.634796916021649, 59.857849602630274 ], [ 17.634787644730103, 59.857845296133334 ], [ 17.634787289893435, 59.857840811153046 ], [ 17.634778018605598, 59.857836504655403 ], [ 17.634768747320152, 59.857832198157098 ], [ 17.634768392486208, 59.857827713176718 ], [ 17.634759121204468, 59.857823406677703 ], [ 17.634749849925122, 59.857819100178013 ], [ 17.634749495093914, 59.857814615197569 ], [ 17.63474022381827, 59.857810308697154 ], [ 17.634730952545024, 59.857806002196092 ], [ 17.634730597716541, 59.85780151721557 ], [ 17.634721326447, 59.857797210713791 ], [ 17.63471205517985, 59.857792904211344 ], [ 17.634711700354099, 59.857788419230744 ], [ 17.634702429090655, 59.857784112727565 ], [ 17.634702074266322, 59.857779627746915 ], [ 17.634692803006583, 59.857775321243068 ], [ 17.634683531749236, 59.857771014738518 ], [ 17.634683176927638, 59.857766529757797 ], [ 17.634673905673992, 59.857762223252543 ], [ 17.634664634422748, 59.857757916746635 ], [ 17.634664279603879, 59.857753431765843 ], [ 17.634655008356333, 59.857749125259225 ], [ 17.634654653538881, 59.857744640278355 ], [ 17.634645382295041, 59.857740333771048 ], [ 17.634636111053599, 59.857736027263023 ], [ 17.634635756238879, 59.857731542282117 ], [ 17.634626485001135, 59.857727235773396 ], [ 17.63461721376579, 59.857722929264014 ], [ 17.634616858953798, 59.857718444283023 ], [ 17.634607587722158, 59.857714137772938 ], [ 17.634607232911588, 59.857709652791883 ], [ 17.634597961683649, 59.857705346281087 ], [ 17.634588690458106, 59.857701039769616 ], [ 17.634588335650264, 59.857696554788497 ], [ 17.634579064428426, 59.857692248276322 ], [ 17.634570502819532, 59.857696911725853 ], [ 17.634561941208251, 59.857701575174836 ], [ 17.634553379594571, 59.857706238623308 ], [ 17.634544463176422, 59.857706417089908 ], [ 17.634535901559037, 59.857711080537257 ], [ 17.634526985139466, 59.857711259002691 ], [ 17.634518068719782, 59.85771143746755 ], [ 17.634509507097391, 59.857716100913201 ], [ 17.634500590676286, 59.857716279376874 ], [ 17.634491674255074, 59.857716457839963 ], [ 17.634483112627663, 59.857721121283902 ], [ 17.634474196205026, 59.857721299745805 ], [ 17.63446527978228, 59.857721478207111 ], [ 17.634456363359423, 59.857721656667792 ], [ 17.634447446936449, 59.857721835127883 ], [ 17.63443888530141, 59.857726498569015 ], [ 17.634429968877022, 59.857726677027941 ], [ 17.634421052452517, 59.857726855486241 ], [ 17.634412136027905, 59.857727033943945 ], [ 17.634403219603175, 59.857727212401052 ], [ 17.63439430317834, 59.857727390857548 ], [ 17.63438538675339, 59.857727569313461 ], [ 17.634376470328327, 59.857727747768749 ], [ 17.634367553903161, 59.857727926223447 ], [ 17.634358637477874, 59.857728104677527 ], [ 17.63434936627641, 59.85772379814906 ], [ 17.6343404498521, 59.857723976601903 ], [ 17.63433153342768, 59.857724155054164 ], [ 17.634322617003146, 59.8577243335058 ], [ 17.634313700578502, 59.857724511956839 ], [ 17.634304784153745, 59.857724690407281 ], [ 17.634295867728881, 59.857724868857112 ], [ 17.634286951303896, 59.857725047306353 ], [ 17.634278034878808, 59.857725225754983 ], [ 17.634269118453606, 59.857725404202995 ], [ 17.63426020202829, 59.857725582650424 ], [ 17.634251285602865, 59.85772576109725 ], [ 17.63424201441574, 59.857721454561094 ], [ 17.634233097991288, 59.857721633006676 ], [ 17.634224181566722, 59.857721811451647 ], [ 17.63421526514205, 59.857721989896042 ], [ 17.634206348717264, 59.857722168339791 ], [ 17.634197432292368, 59.857722346782964 ], [ 17.634188515867354, 59.857722525225519 ], [ 17.634179599442234, 59.857722703667498 ], [ 17.634170683017, 59.857722882108845 ], [ 17.634161766591657, 59.857723060549603 ], [ 17.634152850166199, 59.857723238989735 ], [ 17.634143933740635, 59.857723417429284 ], [ 17.634134662567849, 59.85771911088549 ], [ 17.634125746143255, 59.857719289323803 ], [ 17.63411682971855, 59.857719467761513 ], [ 17.634107913293732, 59.857719646198618 ], [ 17.634098996868801, 59.857719824635105 ], [ 17.634090080443762, 59.857720003071002 ], [ 17.63408116401861, 59.857720181506288 ], [ 17.634072247593348, 59.857720359940991 ], [ 17.634063331167972, 59.857720538375069 ], [ 17.634054414742486, 59.857720716808537 ], [ 17.63404549831689, 59.857720895241435 ], [ 17.634036581891181, 59.857721073673709 ], [ 17.634027310732733, 59.857716767122263 ], [ 17.634018394307997, 59.8577169455533 ], [ 17.634009477883151, 59.857717123983747 ], [ 17.634000561458191, 59.857717302413562 ], [ 17.63399164503312, 59.857717480842794 ], [ 17.63398272860794, 59.857717659271415 ], [ 17.633973812182646, 59.857717837699425 ], [ 17.633964895757241, 59.857718016126853 ], [ 17.633955979331727, 59.857718194553669 ], [ 17.633947062906099, 59.857718372979882 ], [ 17.633938146480357, 59.857718551405476 ], [ 17.633929230054505, 59.857718729830495 ], [ 17.63392031362854, 59.857718908254881 ], [ 17.633911042485519, 59.857714601695143 ], [ 17.63390212606053, 59.857714780118307 ], [ 17.633893209635428, 59.857714958540846 ], [ 17.633884293210219, 59.857715136962817 ], [ 17.633875376784896, 59.857715315384176 ], [ 17.63386646035946, 59.857715493804918 ], [ 17.633857543933914, 59.857715672225055 ], [ 17.633848627508254, 59.857715850644603 ], [ 17.633839711082484, 59.857716029063546 ], [ 17.633830794656603, 59.857716207481886 ], [ 17.633821878230609, 59.857716385899622 ], [ 17.633812961804505, 59.857716564316753 ], [ 17.633803690675819, 59.857712257749327 ], [ 17.633794774250688, 59.857712436165215 ], [ 17.633785857825448, 59.857712614580507 ], [ 17.633776941400097, 59.857712792995223 ], [ 17.633768024974628, 59.857712971409278 ], [ 17.633759108549054, 59.857713149822771 ], [ 17.633750192123365, 59.857713328235626 ], [ 17.633741275697563, 59.857713506647919 ], [ 17.633732359271651, 59.857713685059565 ], [ 17.633723442845628, 59.857713863470643 ], [ 17.633714526419492, 59.85771404188111 ], [ 17.63370560999325, 59.857714220290966 ], [ 17.633696338878902, 59.857709913715908 ], [ 17.633687422453633, 59.857710092124506 ], [ 17.633678506028247, 59.857710270532529 ], [ 17.633669589602754, 59.857710448939969 ], [ 17.633660673177147, 59.857710627346762 ], [ 17.633651756751426, 59.857710805752966 ], [ 17.633642840325596, 59.857710984158587 ], [ 17.633633923899655, 59.857711162563582 ], [ 17.633625007473604, 59.857711340967981 ], [ 17.633616091047436, 59.857711519371783 ], [ 17.633607174621162, 59.85771169777496 ], [ 17.63359825819477, 59.857711876177561 ], [ 17.633589341768275, 59.85771205457953 ], [ 17.63358007066935, 59.857707747996166 ], [ 17.633571154243825, 59.857707926396898 ], [ 17.63356223781819, 59.857708104797048 ], [ 17.633553321392444, 59.857708283196601 ], [ 17.633544404966585, 59.857708461595529 ], [ 17.633535488540609, 59.857708639993874 ], [ 17.633526572114526, 59.857708818391593 ], [ 17.633517655688333, 59.857708996788723 ], [ 17.633508739262027, 59.857709175185249 ], [ 17.63349982283561, 59.857709353581164 ], [ 17.633490906409079, 59.857709531976489 ], [ 17.633481635323413, 59.857705225386113 ], [ 17.633472718897856, 59.857705403780173 ], [ 17.633463802472193, 59.857705582173651 ], [ 17.633454886046412, 59.857705760566525 ], [ 17.633445969620521, 59.857705938958787 ], [ 17.63343705319452, 59.85770611735046 ], [ 17.633428136768405, 59.857706295741529 ], [ 17.633419220342184, 59.85770647413198 ], [ 17.633410303915845, 59.857706652521827 ], [ 17.6334013874894, 59.857706830911084 ], [ 17.633392471062837, 59.857707009299737 ], [ 17.633383554636168, 59.857707187687787 ], [ 17.633374638209382, 59.857707366075225 ], [ 17.633365367139142, 59.857703059476542 ], [ 17.633356450713332, 59.857703237862737 ], [ 17.633347534287417, 59.857703416248341 ], [ 17.63333861786138, 59.857703594633328 ], [ 17.633329701435237, 59.857703773017739 ], [ 17.633320785008983, 59.857703951401525 ], [ 17.63331186858262, 59.857704129784707 ], [ 17.633302952156143, 59.8577043081673 ], [ 17.633294035729552, 59.857704486549281 ], [ 17.633285119302847, 59.857704664930651 ], [ 17.633276202876036, 59.857704843311424 ], [ 17.633267286449112, 59.857705021691586 ], [ 17.633258370022077, 59.857705200071166 ], [ 17.633249098967259, 59.857700893464198 ], [ 17.633240182541197, 59.857701071842506 ], [ 17.633231266115025, 59.857701250220238 ], [ 17.63322234968874, 59.857701428597359 ], [ 17.633213433262345, 59.857701606973897 ], [ 17.633204516835836, 59.857701785349796 ], [ 17.633195600409216, 59.857701963725127 ], [ 17.63318668398249, 59.857702142099818 ], [ 17.633177767555644, 59.857702320473926 ], [ 17.633168851128691, 59.857702498847424 ], [ 17.633159934701627, 59.857702677220345 ], [ 17.63315101827445, 59.857702855592635 ], [ 17.633142101847159, 59.85770303396432 ], [ 17.633132830807771, 59.857698727349067 ], [ 17.633123914381454, 59.857698905719509 ], [ 17.63311499795503, 59.857699084089361 ], [ 17.633106081528489, 59.85769926245861 ], [ 17.633097165101841, 59.857699440827261 ], [ 17.63308824867508, 59.857699619195301 ], [ 17.633079332248212, 59.857699797562738 ], [ 17.633070415821223, 59.857699975929584 ], [ 17.633061499394131, 59.857700154295799 ], [ 17.633052582966922, 59.857700332661445 ], [ 17.633043666539606, 59.857700511026458 ], [ 17.633034750112174, 59.857700689390882 ], [ 17.633025833684634, 59.857700867754694 ], [ 17.633016917256978, 59.857701046117924 ], [ 17.633007646234098, 59.857696739493711 ], [ 17.632998729807419, 59.857696917855691 ], [ 17.632989813380632, 59.857697096217066 ], [ 17.632980896953729, 59.857697274577831 ], [ 17.632971980526712, 59.857697452938005 ], [ 17.632963064099592, 59.857697631297569 ], [ 17.632954147672354, 59.857697809656521 ], [ 17.632945231245003, 59.857697988014877 ], [ 17.632936314817545, 59.857698166372636 ], [ 17.632927398389974, 59.857698344729783 ], [ 17.632918481962289, 59.857698523086334 ], [ 17.632909565534497, 59.857698701442274 ], [ 17.632900649106592, 59.857698879797631 ], [ 17.632891378099135, 59.857694573165134 ], [ 17.632882461672203, 59.857694751519226 ], [ 17.632873545245161, 59.857694929872714 ], [ 17.632864628818005, 59.857695108225634 ], [ 17.632855712390736, 59.857695286577915 ], [ 17.63284679596336, 59.857695464929606 ], [ 17.632837879535874, 59.857695643280692 ], [ 17.63282896310827, 59.857695821631175 ], [ 17.63282004668056, 59.857695999981047 ], [ 17.632811130252733, 59.857696178330336 ], [ 17.632802213824796, 59.857696356679007 ], [ 17.632793297396752, 59.857696535027074 ], [ 17.632784380968594, 59.857696713374537 ], [ 17.63277510997656, 59.857692406733761 ], [ 17.632766193549379, 59.857692585079981 ], [ 17.632757277122082, 59.857692763425604 ], [ 17.632748360694677, 59.857692941770637 ], [ 17.632739444267155, 59.857693120115051 ], [ 17.632730527839524, 59.857693298458855 ], [ 17.632721611411785, 59.857693476802083 ], [ 17.63271269498393, 59.857693655144693 ], [ 17.632703778555967, 59.857693833486699 ], [ 17.632694862127888, 59.857694011828094 ], [ 17.632685945699702, 59.8576941901689 ], [ 17.632677029271399, 59.857694368509087 ], [ 17.632668112842989, 59.857694546848677 ], [ 17.632659196414465, 59.85769472518767 ], [ 17.632649925438944, 59.857690418537949 ], [ 17.632641009011397, 59.857690596875692 ], [ 17.632632092583737, 59.857690775212859 ], [ 17.632623176155967, 59.85769095354938 ], [ 17.632614259728083, 59.857691131885332 ], [ 17.632605343300085, 59.857691310220666 ], [ 17.632596426871981, 59.857691488555396 ], [ 17.632587510443763, 59.857691666889544 ], [ 17.632578594015435, 59.857691845223052 ], [ 17.632569677586993, 59.857692023555991 ], [ 17.632560761158441, 59.85769220188832 ], [ 17.632551844729775, 59.857692380220023 ], [ 17.632542928301003, 59.85769255855115 ], [ 17.632534011872114, 59.857692736881646 ], [ 17.632525095443118, 59.857692915211558 ], [ 17.632516179014004, 59.857693093540867 ], [ 17.63250690805717, 59.857688786880956 ], [ 17.632497991629034, 59.857688965209022 ], [ 17.632489075200784, 59.857689143536476 ], [ 17.632480158772427, 59.857689321863333 ], [ 17.632471242343957, 59.857689500189601 ], [ 17.632462325915377, 59.85768967851525 ], [ 17.632453409486683, 59.85768985684031 ], [ 17.632444493057879, 59.857690035164751 ], [ 17.632435576628961, 59.857690213488596 ], [ 17.632426660199933, 59.857690391811822 ], [ 17.632417743770791, 59.857690570134466 ], [ 17.632408827341543, 59.857690748456506 ], [ 17.632399910912177, 59.857690926777927 ], [ 17.632390994482705, 59.857691105098752 ], [ 17.632382078053119, 59.857691283418994 ], [ 17.63237316162342, 59.857691461738597 ], [ 17.632363890685269, 59.857687155068483 ], [ 17.632354974256547, 59.857687333386856 ], [ 17.632346057827707, 59.85768751170464 ], [ 17.632337141398764, 59.857687690021827 ], [ 17.632328224969708, 59.857687868338381 ], [ 17.632319308540538, 59.85768804665436 ], [ 17.632310392111258, 59.857688224969728 ], [ 17.632301475681864, 59.857688403284499 ], [ 17.63229255925236, 59.857688581598644 ], [ 17.632292913751126, 59.857693066588048 ], [ 17.632293268250002, 59.857697551577424 ], [ 17.632293622748989, 59.857702036566813 ], [ 17.632293977248089, 59.857706521556189 ], [ 17.6322943317473, 59.857711006545557 ], [ 17.632294686246624, 59.857715491534961 ], [ 17.632295040746055, 59.857719976524294 ], [ 17.632295395245603, 59.857724461513676 ], [ 17.632295749745261, 59.857728946503023 ], [ 17.632296104245029, 59.857733431492377 ], [ 17.632296458744911, 59.857737916481746 ], [ 17.632296813244899, 59.857742401471079 ], [ 17.632297167745005, 59.857746886460419 ], [ 17.632297522245221, 59.857751371449758 ], [ 17.632297876745547, 59.857755856439084 ], [ 17.632298231245983, 59.85776034142841 ], [ 17.632298585746533, 59.85776482641775 ], [ 17.632298940247193, 59.857769311407068 ], [ 17.632299294747966, 59.85777379639638 ], [ 17.63229964924885, 59.857778281385691 ], [ 17.632300003749844, 59.857782766374996 ], [ 17.632300358250951, 59.857787251364293 ], [ 17.632300712752169, 59.857791736353583 ], [ 17.632301067253501, 59.85779622134288 ], [ 17.632292505295393, 59.857800884646537 ], [ 17.632292859795747, 59.857805369635848 ], [ 17.632293214296215, 59.857809854625174 ], [ 17.632293568796793, 59.857814339614478 ], [ 17.632293923297482, 59.857818824603775 ], [ 17.632294277798287, 59.85782330959308 ], [ 17.632294632299196, 59.857827794582363 ], [ 17.632294986800222, 59.857832279571667 ], [ 17.632295341301361, 59.857836764560957 ], [ 17.632295695802608, 59.857841249550233 ], [ 17.632296050303971, 59.857845734539502 ], [ 17.632296404805441, 59.857850219528792 ], [ 17.632296759307021, 59.857854704518054 ], [ 17.632297113808715, 59.857859189507309 ], [ 17.632297468310522, 59.857863674496585 ], [ 17.632297822812436, 59.857868159485818 ], [ 17.632298177314468, 59.85787264447508 ], [ 17.632298531816605, 59.857877129464335 ], [ 17.632298886318861, 59.857881614453582 ], [ 17.632299240821222, 59.857886099442808 ], [ 17.632299595323698, 59.857890584432042 ], [ 17.632299949826283, 59.857895069421282 ], [ 17.632300304328982, 59.857899554410494 ], [ 17.632300658831792, 59.85790403939972 ], [ 17.632301013334711, 59.857908524388932 ], [ 17.632301367837744, 59.857913009378144 ], [ 17.632301722340888, 59.857917494367364 ], [ 17.632302076844145, 59.857921979356568 ], [ 17.632302431347508, 59.857926464345752 ], [ 17.632302785850989, 59.85793094933495 ], [ 17.632303140354576, 59.857935434324148 ], [ 17.632303494858281, 59.857939919313324 ], [ 17.632303849362092, 59.857944404302508 ], [ 17.63230420386602, 59.857948889291698 ], [ 17.632304558370056, 59.857953374280861 ], [ 17.632304912874204, 59.85795785927003 ], [ 17.632305267378463, 59.857962344259192 ], [ 17.632305621882832, 59.857966829248369 ], [ 17.632305976387315, 59.857971314237517 ], [ 17.632306330891907, 59.857975799226665 ], [ 17.632306685396614, 59.85798028421582 ], [ 17.632307039901431, 59.857984769204961 ], [ 17.632307394406361, 59.857989254194095 ], [ 17.632307748911398, 59.857993739183229 ], [ 17.632308103416552, 59.857998224172363 ], [ 17.632308457921813, 59.858002709161475 ], [ 17.632308812427187, 59.858007194150595 ], [ 17.632309166932675, 59.858011679139722 ], [ 17.632309521438273, 59.858016164128834 ], [ 17.632309875943982, 59.85802064911794 ], [ 17.63230131393027, 59.858025312422392 ], [ 17.632301668435002, 59.858029797411518 ], [ 17.63230202293985, 59.858034282400652 ], [ 17.632302377444805, 59.858038767389765 ], [ 17.632302731949874, 59.858043252378884 ], [ 17.632303086455057, 59.858047737368011 ], [ 17.632303440960349, 59.858052222357117 ], [ 17.632303795465752, 59.858056707346229 ], [ 17.632304149971269, 59.858061192335313 ], [ 17.632304504476895, 59.858065677324426 ], [ 17.632304858982636, 59.858070162313524 ], [ 17.632305213488486, 59.858074647302594 ], [ 17.632305567994447, 59.858079132291678 ], [ 17.632305922500517, 59.858083617280776 ], [ 17.632306277006705, 59.858088102269818 ], [ 17.632306631513003, 59.858092587258916 ], [ 17.632306986019408, 59.858097072247979 ], [ 17.63230734052593, 59.858101557237049 ], [ 17.632307695032562, 59.858106042226098 ], [ 17.632308049539301, 59.858110527215153 ], [ 17.632308404046153, 59.858115012204202 ], [ 17.632308758553119, 59.858119497193236 ], [ 17.632309113060199, 59.858123982182285 ], [ 17.632309467567385, 59.858128467171326 ], [ 17.632309822074689, 59.858132952160361 ], [ 17.632310176582099, 59.858137437149395 ], [ 17.632310531089622, 59.858141922138401 ], [ 17.632310885597256, 59.858146407127414 ], [ 17.632311240105, 59.858150892116434 ], [ 17.632311200615309, 59.858154179525847 ] ] } }
]
}
