{"type":"FeatureCollection","name":"lcp_slope80no4_surface20_carolina","crs":{"type":"name","properties":{"name":"urn:ogc:def:crs:OGC:1.3:CRS84"}},"features":[{"type":"Feature","properties":{"start point id":2,"end point id":18,"total cost":12323.705},"geometry":{"type":"LineString","coordinates":[[17.638926259419307,59.858564099164745],[17.63829217559268,59.85890710479469],[17.63976325982642,59.859551424571286],[17.638530046118124,59.860218518878376],[17.637402724341413,59.86087000305665],[17.637328189388676,59.86083106763934],[17.636489455713143,59.86129258568506],[17.636369978985826,59.86125005776864],[17.636122382713232,59.86139427097215],[17.63488166895174,59.86083963312315],[17.633580162234995,59.86154847468459],[17.6324853525103,59.86103132427758],[17.63254529170445,59.86099868102939],[17.632415130871507,59.860933902885826],[17.632824470185756,59.860463032243665],[17.63309852184401,59.860201502081814],[17.633250872303105,59.86009513663444],[17.633343589708502,59.86013820261366],[17.63348808612419,59.860045470238624],[17.632681098812572,59.85966630985941],[17.63251770410407,59.85974594306301],[17.63190578789701,59.85946170240889],[17.630470987607314,59.859953066629664],[17.63034798058564,59.85986568321101],[17.63024239328088,59.859885761381825],[17.630141826237345,59.859856326344676],[17.63003015560557,59.859912462483756],[17.63005046928744,59.859943501124754],[17.630001217661924,59.85999839006345],[17.628539614193834,59.86049026803288],[17.628468630565642,59.86049617753311],[17.6283680631962,59.86046674114536],[17.62834237361252,59.86048073030714],[17.627961548040044,59.860295174775096],[17.627778534838402,59.86035273321953],[17.62574715962574,59.85939603109904],[17.623997890836677,59.85861785018235],[17.624229100194093,59.85849195512429],[17.623812300266902,59.85830261328629],[17.624821691129217,59.85773894873046],[17.624872008599624,59.85769751672586],[17.624877743576597,59.857656973769494],[17.625118566494766,59.85753986941982],[17.625360017489736,59.85754403787383],[17.625589570202635,59.85773711003322],[17.625547816483156,59.85777387943552],[17.626780052477475,59.85833775524817],[17.62682428191742,59.858332380522754],[17.627952790181947,59.85769444090407],[17.62805441054383,59.85773733269285],[17.628097931102428,59.85772298753669],[17.628181718777046,59.85776623528404],[17.62828446900248,59.85771027876671],[17.628318365037085,59.85768714157314],[17.628280221495128,59.857656458720776],[17.62829380687417,59.85760228258941],[17.62947363517728,59.85693635194556],[17.62936274515724,59.85688915435739],[17.629405201746785,59.856861353777276],[17.631439023071163,59.85570218153331],[17.631941724691387,59.85528335101279],[17.631851857989375,59.85527616385564],[17.631747144925736,59.85532764702227]]}}]}