{
"type": "FeatureCollection",
"name": "lcp_stadsparken",
"crs": { "type": "name", "properties": { "name": "urn:ogc:def:crs:OGC:1.3:CRS84" } },
"features": [
{ "type": "Feature", "properties": { "start point id": 2, "end point id": 17, "total cost": 4556.248 }, "geometry": { "type": "LineString", "coordinates": [ [ 17.638926259419307, 59.858564099164745 ], [ 17.638934273695369, 59.858557326478888 ], [ 17.638942834903638, 59.858552662748735 ], [ 17.638951396109515, 59.858547999018072 ], [ 17.638959957312995, 59.858543335286853 ], [ 17.638968518514076, 59.858538671555074 ], [ 17.638977079712767, 59.858534007822762 ], [ 17.638985640909063, 59.858529344089916 ], [ 17.638994202102964, 59.858524680356517 ], [ 17.639002763294467, 59.858520016622577 ], [ 17.639011324483576, 59.858515352888077 ], [ 17.639019885670294, 59.858510689153064 ], [ 17.639028446854613, 59.858506025417476 ], [ 17.639037008036539, 59.858501361681377 ], [ 17.639045569216073, 59.858496697944709 ], [ 17.639054130393205, 59.858492034207508 ], [ 17.639062691567947, 59.858487370469767 ], [ 17.639071252740294, 59.858482706731493 ], [ 17.639079813910243, 59.858478042992644 ], [ 17.639088375077801, 59.858473379253269 ], [ 17.639096936242961, 59.858468715513361 ], [ 17.63910549740573, 59.858464051772891 ], [ 17.639114058566101, 59.858459388031903 ], [ 17.639122619724077, 59.85845472429034 ], [ 17.639131180879659, 59.85845006054825 ], [ 17.639139742032846, 59.858445396805607 ], [ 17.639148303183635, 59.85844073306243 ], [ 17.639156864332033, 59.858436069318714 ], [ 17.639165425478037, 59.858431405574443 ], [ 17.639173986621643, 59.858426741829625 ], [ 17.639182547762857, 59.858422078084281 ], [ 17.63919110890167, 59.858417414338398 ], [ 17.639199670038092, 59.858412750591931 ], [ 17.63920823117212, 59.858408086844953 ], [ 17.639216792303753, 59.858403423097435 ], [ 17.639225353432991, 59.858398759349342 ], [ 17.639233914559835, 59.858394095600744 ], [ 17.639242475684281, 59.858389431851585 ], [ 17.639251036806332, 59.858384768101885 ], [ 17.639259597925992, 59.858380104351646 ], [ 17.639268159043255, 59.858375440600845 ], [ 17.639267803596042, 59.858370955637078 ], [ 17.639276364709822, 59.85836629188578 ], [ 17.639284925821208, 59.858361628133913 ], [ 17.639293486930203, 59.858356964381535 ], [ 17.6393020480368, 59.858352300628589 ], [ 17.639310609141003, 59.858347636875116 ], [ 17.639319525696543, 59.858347458084701 ], [ 17.63932808679704, 59.858342794330113 ], [ 17.639336647895142, 59.858338130574957 ], [ 17.63934520899085, 59.858333466819303 ], [ 17.639353770084163, 59.858328803063067 ], [ 17.639362331175086, 59.858324139306291 ], [ 17.63937089226361, 59.858319475549003 ], [ 17.639379453349736, 59.858314811791132 ], [ 17.639388014433472, 59.858310148032736 ], [ 17.639396575514812, 59.858305484273792 ], [ 17.639405136593755, 59.858300820514316 ], [ 17.639413697670307, 59.858296156754292 ], [ 17.63942225874446, 59.858291492993715 ], [ 17.639430819816219, 59.858286829232597 ], [ 17.639439380885587, 59.858282165470946 ], [ 17.639447941952557, 59.858277501708734 ], [ 17.639456858488341, 59.85827732290916 ], [ 17.639465419551609, 59.85827265914584 ], [ 17.639473980612483, 59.858267995381986 ], [ 17.639482541670954, 59.858263331617586 ], [ 17.639491102727039, 59.858258667852631 ], [ 17.639499663780722, 59.858254004087136 ], [ 17.639508224832014, 59.858249340321095 ], [ 17.639516785880915, 59.858244676554534 ], [ 17.639525346927414, 59.858240012787412 ], [ 17.639533907971522, 59.858235349019715 ], [ 17.639542469013232, 59.858230685251542 ], [ 17.639551030052548, 59.858226021482778 ], [ 17.639559591089473, 59.858221357713482 ], [ 17.639568152123999, 59.858216693943646 ], [ 17.639576713156131, 59.858212030173256 ], [ 17.639585274185873, 59.85820736640234 ], [ 17.639593835213216, 59.858202702630869 ], [ 17.639602396238164, 59.858198038858866 ], [ 17.639610957260714, 59.858193375086309 ], [ 17.63961951828087, 59.858188711313197 ], [ 17.639628079298635, 59.858184047539559 ], [ 17.639636640314002, 59.858179383765361 ], [ 17.639645201326974, 59.858174719990636 ], [ 17.639653762337556, 59.858170056215371 ], [ 17.639662323345739, 59.858165392439545 ], [ 17.639670884351531, 59.858160728663201 ], [ 17.63967980085447, 59.858160549848712 ], [ 17.639688361856557, 59.858155886071252 ], [ 17.639696922856245, 59.858151222293237 ], [ 17.639705483853543, 59.858146558514655 ], [ 17.639714044848443, 59.858141894735574 ], [ 17.639722605840948, 59.858137230955919 ], [ 17.639731166831055, 59.858132567175716 ], [ 17.639739727818775, 59.858127903394994 ], [ 17.639748288804093, 59.858123239613704 ], [ 17.63975684978702, 59.858118575831888 ], [ 17.639765410767552, 59.858113912049511 ], [ 17.63977397174569, 59.858109248266601 ], [ 17.639782532721426, 59.858104584483158 ], [ 17.639791093694775, 59.858099920699154 ], [ 17.639799654665726, 59.858095256914616 ], [ 17.639808215634282, 59.858090593129525 ], [ 17.639816776600444, 59.858085929343893 ], [ 17.639825337564211, 59.858081265557729 ], [ 17.639833898525584, 59.85807660177101 ], [ 17.639842459484562, 59.858071937983766 ], [ 17.639851020441146, 59.85806727419596 ], [ 17.639859581395335, 59.8580626104076 ], [ 17.639868142347126, 59.858057946618715 ], [ 17.639876703296526, 59.858053282829289 ], [ 17.639885264243528, 59.858048619039316 ], [ 17.639893825188135, 59.858043955248789 ], [ 17.639902386130348, 59.858039291457722 ], [ 17.639910947070167, 59.858034627666136 ], [ 17.639919508007594, 59.858029963873975 ], [ 17.63992806894262, 59.85802530008128 ], [ 17.639936629875258, 59.858020636288053 ], [ 17.639945190805495, 59.858015972494279 ], [ 17.639953751733341, 59.858011308699943 ], [ 17.639962312658788, 59.858006644905061 ], [ 17.639970873581845, 59.858001981109673 ], [ 17.639979434502504, 59.857997317313725 ], [ 17.639987995420768, 59.857992653517215 ], [ 17.639996556336641, 59.857987989720179 ], [ 17.640005117250116, 59.857983325922604 ], [ 17.640013678161196, 59.857978662124459 ], [ 17.640022594612965, 59.857978483287127 ], [ 17.64003115552034, 59.857973819487867 ], [ 17.640039716425321, 59.857969155688089 ], [ 17.64004827732791, 59.857964491887763 ], [ 17.640056838228102, 59.857959828086891 ], [ 17.640065399125898, 59.857955164285457 ], [ 17.640073960021301, 59.857950500483511 ], [ 17.640082520914309, 59.857945836681012 ], [ 17.640091081804922, 59.857941172877958 ], [ 17.640099642693141, 59.857936509074378 ], [ 17.640108203578965, 59.857931845270222 ], [ 17.640116764462391, 59.857927181465556 ], [ 17.640125325343423, 59.857922517660327 ], [ 17.64013388622206, 59.857917853854559 ], [ 17.640142447098309, 59.857913190048265 ], [ 17.640151007972154, 59.85790852624141 ], [ 17.640159568843611, 59.857903862434 ], [ 17.64016812971267, 59.857899198626079 ], [ 17.640176690579334, 59.857894534817596 ], [ 17.640185251443604, 59.857889871008581 ], [ 17.64019381230548, 59.857885207199004 ], [ 17.640202373164957, 59.85788054338888 ], [ 17.640210934022043, 59.857875879578238 ], [ 17.640219494876735, 59.857871215767041 ], [ 17.640228055729029, 59.857866551955283 ], [ 17.640236616578932, 59.857861888143006 ], [ 17.640245177426436, 59.857857224330175 ], [ 17.640253738271547, 59.857852560516797 ], [ 17.640262299114266, 59.857847896702893 ], [ 17.640270859954587, 59.857843232888435 ], [ 17.640279776368274, 59.857843054033921 ], [ 17.64028833720489, 59.857838390218355 ], [ 17.640296898039114, 59.857833726402227 ], [ 17.640305458870944, 59.857829062585566 ], [ 17.640314019700376, 59.857824398768365 ], [ 17.640322580527414, 59.85781973495061 ], [ 17.640331141352057, 59.857815071132322 ], [ 17.640339702174305, 59.85781040731348 ], [ 17.640348262994159, 59.857805743494112 ], [ 17.640356823811619, 59.857801079674189 ], [ 17.640365384626683, 59.857796415853713 ], [ 17.640373945439354, 59.857791752032711 ], [ 17.64038250624963, 59.857787088211161 ], [ 17.640391067057507, 59.857782424389072 ], [ 17.64039962786299, 59.857777760566428 ], [ 17.640408188666083, 59.857773096743252 ], [ 17.64041674946678, 59.857768432919514 ], [ 17.64042531026508, 59.857763769095257 ], [ 17.640433871060985, 59.857759105270439 ], [ 17.640442431854495, 59.857754441445067 ], [ 17.640450992645615, 59.857749777619176 ], [ 17.640459553434333, 59.857745113792731 ], [ 17.64046811422066, 59.857740449965732 ], [ 17.640476675004592, 59.857735786138228 ], [ 17.64048523578613, 59.857731122310156 ], [ 17.640493796565273, 59.857726458481523 ], [ 17.640502357342019, 59.857721794652363 ], [ 17.640510918116373, 59.85771713082265 ], [ 17.640519478888333, 59.85771246699241 ], [ 17.640528039657895, 59.857707803161631 ], [ 17.640536600425062, 59.857703139330283 ], [ 17.640545161189838, 59.857698475498431 ], [ 17.640553721952216, 59.857693811665996 ], [ 17.640562282712203, 59.857689147833021 ], [ 17.640570843469789, 59.857684483999527 ], [ 17.640579404224987, 59.857679820165451 ], [ 17.640587964977783, 59.857675156330863 ], [ 17.640596525728188, 59.857670492495728 ], [ 17.640605086476199, 59.857665828660046 ], [ 17.640613647221812, 59.857661164823831 ], [ 17.64062256358433, 59.857660985946417 ], [ 17.640631124326244, 59.857656322109094 ], [ 17.640639685065757, 59.857651658271202 ], [ 17.640648245802879, 59.857646994432798 ], [ 17.64065680653761, 59.857642330593805 ], [ 17.640665367269939, 59.857637666754293 ], [ 17.640673927999877, 59.857633002914248 ], [ 17.640682488727418, 59.857628339073642 ], [ 17.640691049452567, 59.857623675232489 ], [ 17.640699610175322, 59.857619011390803 ], [ 17.640708170895682, 59.857614347548584 ], [ 17.640716731613647, 59.857609683705803 ], [ 17.640725292329215, 59.85760501986249 ], [ 17.640733853042388, 59.857600356018615 ], [ 17.64074241375317, 59.857595692174229 ], [ 17.640750974461554, 59.85759102832926 ], [ 17.640759535167543, 59.85758636448378 ], [ 17.640768095871138, 59.857581700637745 ], [ 17.640776656572339, 59.85757703679117 ], [ 17.640785217271141, 59.857572372944013 ], [ 17.640793777967556, 59.857567709096386 ], [ 17.640802338661569, 59.857563045248163 ], [ 17.640810899353191, 59.857558381399414 ], [ 17.640819460042419, 59.857553717550104 ], [ 17.640828020729252, 59.857549053700275 ], [ 17.640836937060232, 59.857548874808579 ], [ 17.64084549774336, 59.857544210957627 ], [ 17.640854058424093, 59.857539547106121 ], [ 17.640862619102432, 59.857534883254083 ], [ 17.640871179778376, 59.857530219401504 ], [ 17.640879740451922, 59.857525555548364 ], [ 17.640888301123081, 59.857520891694698 ], [ 17.640896861791838, 59.857516227840478 ], [ 17.640905422458204, 59.857511563985724 ], [ 17.640913983122172, 59.857506900130424 ], [ 17.640922543783748, 59.857502236274563 ], [ 17.640931104442927, 59.857497572418197 ], [ 17.640939665099715, 59.857492908561255 ], [ 17.640948225754101, 59.857488244703767 ], [ 17.6409567864061, 59.857483580845759 ], [ 17.640965347055705, 59.857478916987205 ], [ 17.640973907702907, 59.857474253128075 ], [ 17.640982468347723, 59.857469589268462 ], [ 17.64099102899014, 59.857464925408266 ], [ 17.640999589630159, 59.857460261547516 ], [ 17.641008150267787, 59.857455597686226 ], [ 17.64101671090302, 59.857450933824417 ], [ 17.64102527153586, 59.85744626996204 ], [ 17.641033832166304, 59.857441606099137 ], [ 17.641042392794354, 59.857436942235694 ], [ 17.641050953420006, 59.857432278371675 ], [ 17.641059514043267, 59.857427614507138 ], [ 17.64106807466413, 59.857422950642061 ], [ 17.641076635282602, 59.857418286776443 ], [ 17.641085195898675, 59.857413622910265 ], [ 17.641093756512358, 59.857408959043539 ], [ 17.641102317123643, 59.857404295176295 ], [ 17.641110877732533, 59.857399631308503 ], [ 17.641119438339029, 59.857394967440136 ], [ 17.641119082656665, 59.857390482482387 ], [ 17.641127643259683, 59.857385818613523 ], [ 17.641136203860302, 59.857381154744118 ], [ 17.641144764458531, 59.857376490874174 ], [ 17.641153325054361, 59.857371827003682 ], [ 17.641161885647797, 59.85736716313265 ], [ 17.641170446238842, 59.857362499261079 ], [ 17.641179006827489, 59.857357835388946 ], [ 17.641187567413745, 59.857353171516294 ], [ 17.641196127997603, 59.857348507643067 ], [ 17.641204688579066, 59.857343843769321 ], [ 17.641213249158135, 59.857339179895014 ], [ 17.641221809734805, 59.857334516020174 ], [ 17.641230370309088, 59.857329852144808 ], [ 17.641238930880974, 59.857325188268874 ], [ 17.641247491450461, 59.857320524392392 ], [ 17.641256052017557, 59.857315860515399 ], [ 17.641264612582255, 59.857311196637852 ], [ 17.641273173144565, 59.857306532759743 ], [ 17.641281733704474, 59.857301868881095 ], [ 17.641290294261992, 59.85729720500192 ], [ 17.641298854817116, 59.857292541122206 ], [ 17.641307415369841, 59.857287877241916 ], [ 17.641315975920172, 59.8572832133611 ], [ 17.641324536468112, 59.85727854947973 ], [ 17.641333097013653, 59.857273885597841 ], [ 17.641341657556801, 59.857269221715391 ], [ 17.641350218097557, 59.857264557832409 ], [ 17.641358778635915, 59.857259893948864 ], [ 17.641367339171879, 59.85725523006478 ], [ 17.641375899705448, 59.857250566180177 ], [ 17.641384460236623, 59.85724590229502 ], [ 17.641393020765406, 59.857241238409316 ], [ 17.641401581291788, 59.857236574523064 ], [ 17.641410141815779, 59.857231910636251 ], [ 17.641418702337376, 59.857227246748913 ], [ 17.641418346617133, 59.857222761792116 ], [ 17.641426907135248, 59.857218097904266 ], [ 17.641435467650972, 59.857213434015883 ], [ 17.641444028164294, 59.857208770126938 ], [ 17.641452588675229, 59.85720410623744 ], [ 17.641461149183765, 59.857199442347422 ], [ 17.641469709689908, 59.857194778456865 ], [ 17.641478270193655, 59.857190114565739 ], [ 17.641486830695008, 59.857185450674095 ], [ 17.641495391193967, 59.857180786781889 ], [ 17.641503951690531, 59.85717612288915 ], [ 17.641512512184701, 59.857171458995857 ], [ 17.641521072676472, 59.857166795102025 ], [ 17.641529633165852, 59.857162131207666 ], [ 17.641538193652838, 59.857157467312739 ], [ 17.64154675413743, 59.857152803417286 ], [ 17.641555314619623, 59.857148139521293 ], [ 17.641563875099425, 59.857143475624731 ], [ 17.64157243557683, 59.857138811727637 ], [ 17.641580996051843, 59.857134147830003 ], [ 17.641589556524458, 59.857129483931828 ], [ 17.641598116994682, 59.857124820033107 ], [ 17.641606677462509, 59.857120156133838 ], [ 17.64161523792794, 59.857115492234023 ], [ 17.641623798390981, 59.857110828333674 ], [ 17.641632358851624, 59.857106164432778 ], [ 17.641640919309872, 59.857101500531364 ], [ 17.641649479765725, 59.85709683662936 ], [ 17.641658040219188, 59.857092172726837 ], [ 17.641666600670252, 59.857087508823788 ], [ 17.641666244918646, 59.85708302386778 ], [ 17.641674805366229, 59.857078359964191 ], [ 17.641683365811417, 59.857073696060077 ], [ 17.641691926254214, 59.857069032155401 ], [ 17.641700486694614, 59.857064368250178 ], [ 17.641709047132622, 59.857059704344437 ], [ 17.641717607568232, 59.857055040438119 ], [ 17.641717251810224, 59.857050555482289 ], [ 17.641707979862186, 59.857046249476809 ], [ 17.641707624105599, 59.857041764520929 ], [ 17.641698352161267, 59.857037458514746 ], [ 17.641697996406101, 59.85703297355883 ], [ 17.641688724465471, 59.857028667551937 ], [ 17.64168836871173, 59.857024182595993 ], [ 17.641679096774801, 59.857019876588375 ], [ 17.641678741022481, 59.857015391632395 ], [ 17.641678385270268, 59.857010906676386 ], [ 17.641669113338356, 59.857006600668029 ], [ 17.641668757587563, 59.857002115712 ], [ 17.641659485659357, 59.856997809702939 ], [ 17.641659129909986, 59.856993324746846 ], [ 17.641649857985485, 59.856989018737103 ], [ 17.641649502237534, 59.856984533780953 ], [ 17.641640230316735, 59.856980227770485 ], [ 17.641631314143662, 59.85698040671555 ], [ 17.641622042226341, 59.856976100703783 ], [ 17.641613126054239, 59.856976279647618 ], [ 17.641603854140399, 59.856971973634529 ], [ 17.64159493796927, 59.856972152577114 ], [ 17.641585666058909, 59.856967846562739 ], [ 17.641576394150945, 59.856963540547675 ], [ 17.641567477981877, 59.856963719488384 ], [ 17.641558206077391, 59.856959413471998 ], [ 17.641549289909296, 59.856959592411478 ], [ 17.641540018008289, 59.856955286393806 ], [ 17.641531101841167, 59.856955465332042 ], [ 17.641521829943642, 59.856951159313077 ], [ 17.641512558048511, 59.856946853293394 ], [ 17.641503641883446, 59.856947032229776 ], [ 17.641494369991801, 59.856942726208807 ], [ 17.641485453827709, 59.856942905143939 ], [ 17.641476181939538, 59.856938599121655 ], [ 17.641466910053765, 59.856934293098739 ], [ 17.641457993891734, 59.85693447203198 ], [ 17.641448722009436, 59.856930166007729 ], [ 17.641439805848382, 59.856930344939755 ], [ 17.641430533969562, 59.856926038914189 ], [ 17.641421617809481, 59.856926217844965 ], [ 17.641412345934146, 59.856921911818098 ], [ 17.641403074061206, 59.856917605790571 ], [ 17.641394157903179, 59.856917784719471 ], [ 17.64138488603372, 59.856913478690629 ], [ 17.641375969876666, 59.856913657618279 ], [ 17.641366698010685, 59.856909351588151 ], [ 17.641357781854605, 59.856909530514557 ], [ 17.641348509992106, 59.856905224483107 ], [ 17.641339238132002, 59.856900918450975 ], [ 17.641330321977982, 59.85690109737552 ], [ 17.641321050121356, 59.856896791342088 ], [ 17.641312133968309, 59.856896970265403 ], [ 17.641302862115165, 59.856892664230671 ], [ 17.641293945963092, 59.856892843152735 ], [ 17.641284674113425, 59.856888537116696 ], [ 17.641275402266157, 59.856884231079967 ], [ 17.641266130421279, 59.856879925042577 ], [ 17.64125721427235, 59.856880103962148 ], [ 17.641247942430955, 59.856875797923436 ], [ 17.641238670591953, 59.856871491884078 ], [ 17.641229398755346, 59.856867185844038 ], [ 17.641220126921134, 59.856862879803316 ], [ 17.641211210776437, 59.856863058719746 ], [ 17.641201938945702, 59.856858752677716 ], [ 17.641192667117366, 59.856854446635033 ], [ 17.641183395291421, 59.856850140591668 ], [ 17.64117412346787, 59.856845834547634 ], [ 17.641165207327408, 59.856846013460896 ], [ 17.641155935507335, 59.856841707415555 ], [ 17.641146663689661, 59.856837401369539 ], [ 17.641137391874381, 59.856833095322841 ], [ 17.641128120061499, 59.856828789275504 ], [ 17.641118848251011, 59.856824483227463 ], [ 17.641109932115857, 59.856824662136972 ], [ 17.641100660308847, 59.856820356087624 ], [ 17.641091388504229, 59.856816050037629 ], [ 17.641082116702009, 59.856811743986945 ], [ 17.641072844902183, 59.856807437935601 ], [ 17.64106392877126, 59.856807616841955 ], [ 17.641054656974916, 59.856803310789282 ], [ 17.641045385180963, 59.85679900473594 ], [ 17.641036113389408, 59.856794698681952 ], [ 17.641026841600244, 59.856790392627268 ], [ 17.641017925473548, 59.856790571530482 ], [ 17.641008653687869, 59.856786265474483 ], [ 17.640999381904582, 59.856781959417845 ], [ 17.640990110123688, 59.856777653360503 ], [ 17.640980838345186, 59.856773347302493 ], [ 17.640971922222722, 59.856773526202552 ], [ 17.640962650447705, 59.856769220143278 ], [ 17.640953378675086, 59.856764914083278 ], [ 17.640944106904854, 59.856760608022633 ], [ 17.640934835137021, 59.856756301961326 ], [ 17.640925563371582, 59.856751995899337 ], [ 17.640916647254432, 59.856752174795623 ], [ 17.640907375492475, 59.856747868732334 ], [ 17.640898103732908, 59.856743562668356 ], [ 17.640888831975737, 59.856739256603689 ], [ 17.640879560220963, 59.856734950538403 ], [ 17.64087028846858, 59.856730644472414 ], [ 17.640861372356749, 59.856730823364913 ], [ 17.640852100607848, 59.856726517297624 ], [ 17.640842828861341, 59.856722211229652 ], [ 17.640833557117229, 59.856717905161027 ], [ 17.640824285375512, 59.856713599091719 ], [ 17.640815013636185, 59.856709293021737 ], [ 17.640806097529669, 59.856709471910456 ], [ 17.640796825793824, 59.856705165839152 ], [ 17.640787554060378, 59.856700859767209 ], [ 17.640778282329325, 59.856696553694576 ], [ 17.640769010600664, 59.856692247621275 ], [ 17.640759738874401, 59.856687941547307 ], [ 17.6407508227732, 59.856688120432253 ], [ 17.640741551050414, 59.856683814356963 ], [ 17.640732279330027, 59.856679508281026 ], [ 17.640723007612035, 59.8566752022044 ], [ 17.64071373589643, 59.856670896127085 ], [ 17.640704464183226, 59.856666590049137 ], [ 17.64069554808734, 59.856666768930303 ], [ 17.640686276377611, 59.856662462851034 ], [ 17.64067700467028, 59.856658156771076 ], [ 17.640667732965348, 59.856653850690471 ], [ 17.640658461262802, 59.856649544609176 ], [ 17.640649189562655, 59.856645238527193 ], [ 17.640648833954277, 59.85664075356722 ], [ 17.640639562257835, 59.856636447484561 ], [ 17.640639206650878, 59.856631962524553 ], [ 17.640638851044034, 59.856627477564523 ], [ 17.640629579352602, 59.856623171481104 ], [ 17.640629223747176, 59.856618686521038 ], [ 17.640619952059453, 59.856614380436909 ], [ 17.640619596455448, 59.856609895476808 ], [ 17.640610324771426, 59.856605589391975 ], [ 17.640609969168846, 59.856601104431832 ], [ 17.640609613566376, 59.856596619471681 ], [ 17.640600341887364, 59.856592313386109 ], [ 17.640599986286315, 59.856587828425916 ], [ 17.640590714611008, 59.856583522339641 ], [ 17.640590359011384, 59.856579037379397 ], [ 17.640581087339779, 59.85657473129239 ], [ 17.640571815670572, 59.856570425204744 ], [ 17.640571460073676, 59.856565940244437 ], [ 17.640562188408172, 59.856561634156073 ], [ 17.640553272339339, 59.85656181302739 ], [ 17.640544000677316, 59.856557506937726 ], [ 17.640534729017688, 59.856553200847387 ], [ 17.640525812950916, 59.856553379716843 ], [ 17.640516541294765, 59.856549073625196 ], [ 17.640507269641009, 59.856544767532874 ], [ 17.640497997989648, 59.856540461439863 ], [ 17.64048908192602, 59.856540640306811 ], [ 17.640479810278141, 59.856536334212507 ], [ 17.640470538632655, 59.856532028117535 ], [ 17.640461622571085, 59.856532206982614 ], [ 17.640452350929081, 59.856527900886313 ], [ 17.640443079289472, 59.856523594789373 ], [ 17.640434163229962, 59.856523773652597 ], [ 17.640424891593828, 59.856519467554307 ], [ 17.640415619960095, 59.856515161455391 ], [ 17.640406703902642, 59.856515340316719 ], [ 17.640397432272387, 59.856511034216467 ], [ 17.640388160644527, 59.856506728115548 ], [ 17.640379244589134, 59.856506906975021 ], [ 17.640369972964752, 59.856502600872794 ], [ 17.640360701342765, 59.856498294769899 ], [ 17.640351785289432, 59.856498473627489 ], [ 17.640342513670923, 59.856494167523294 ], [ 17.640333242054812, 59.856489861418432 ], [ 17.64032432600354, 59.856490040274139 ], [ 17.640315054390907, 59.856485734167947 ], [ 17.640305782780668, 59.85648142806108 ], [ 17.64029686673145, 59.85648160691494 ], [ 17.640287595124697, 59.856477300806787 ], [ 17.640278323520331, 59.856472994697938 ], [ 17.640269407473173, 59.856473173549908 ], [ 17.640260135872293, 59.856468867439787 ], [ 17.640250864273806, 59.856464561328991 ], [ 17.640241948228706, 59.856464740179057 ], [ 17.640232676633698, 59.856460434066939 ], [ 17.640223405041084, 59.856456127954182 ], [ 17.640214488998048, 59.856456306802386 ], [ 17.640205217408916, 59.856452000688279 ], [ 17.640196656911634, 59.856456664497017 ], [ 17.640197012456536, 59.85646114945876 ], [ 17.640188451955783, 59.856465813266965 ], [ 17.640179891452632, 59.85647047707463 ], [ 17.640180246995474, 59.856474962036415 ], [ 17.640171686488845, 59.856479625843562 ], [ 17.640163125979818, 59.856484289650155 ], [ 17.640163481520599, 59.856488774611989 ], [ 17.640154921008097, 59.856493438418106 ], [ 17.640146360493198, 59.85649810222364 ], [ 17.640146716031918, 59.856502587185531 ], [ 17.64013815551354, 59.856507250990582 ], [ 17.640129594992768, 59.856511914795043 ], [ 17.640129950529431, 59.856516399756991 ], [ 17.640121390005181, 59.856521063560983 ], [ 17.640112829478529, 59.856525727364385 ], [ 17.640113185013135, 59.856530212326383 ], [ 17.640104624483008, 59.856534876129295 ], [ 17.640096063950484, 59.856539539931674 ], [ 17.640096419483026, 59.856544024893708 ], [ 17.640087858947027, 59.856548688695561 ], [ 17.640078587347993, 59.856544382572679 ], [ 17.640069315751351, 59.8565400764491 ], [ 17.640060044157103, 59.856535770324854 ], [ 17.640051483618034, 59.856540434124376 ], [ 17.640051839144594, 59.856544919086581 ], [ 17.640043278602043, 59.85654958288557 ], [ 17.640034718057102, 59.856554246684027 ], [ 17.640035073581604, 59.856558731646295 ], [ 17.640026513033177, 59.856563395444233 ], [ 17.64001795248236, 59.856568059241631 ], [ 17.640018308004802, 59.856572544203921 ], [ 17.640009747450506, 59.856577208000814 ], [ 17.640001186893816, 59.856581871797147 ], [ 17.639992626334724, 59.856586535592918 ], [ 17.639992981854022, 59.856591020555314 ], [ 17.639984421291455, 59.856595684350616 ], [ 17.639975860726494, 59.856600348145328 ], [ 17.639976216243731, 59.85660483310776 ], [ 17.639967655675289, 59.856609496901982 ], [ 17.639959095104452, 59.856614160695656 ], [ 17.639959450619632, 59.856618645658152 ], [ 17.639950890045316, 59.856623309451301 ], [ 17.639942329468607, 59.856627973243903 ], [ 17.639942684981722, 59.856632458206462 ], [ 17.639934124401531, 59.856637121998546 ], [ 17.639925563818949, 59.856641785790124 ], [ 17.639925919330008, 59.856646270752719 ], [ 17.63991735874394, 59.856650934543723 ], [ 17.639908798155481, 59.856655598334235 ], [ 17.639900237564625, 59.856660262124173 ], [ 17.639900593072539, 59.856664747086846 ], [ 17.639892032478208, 59.856669410876293 ], [ 17.639883471881475, 59.856674074665186 ], [ 17.639883827387333, 59.856678559627909 ], [ 17.639875266787126, 59.856683223416297 ], [ 17.63986670618452, 59.856687887204124 ], [ 17.639867061688317, 59.856692372166883 ], [ 17.639858501082234, 59.856697035954205 ], [ 17.639849940473756, 59.856701699740974 ], [ 17.639850295975492, 59.856706184703796 ], [ 17.639841735363532, 59.856710848490067 ], [ 17.639833174749182, 59.856715512275777 ], [ 17.639833530248861, 59.856719997238656 ], [ 17.639824969631025, 59.856724661023868 ], [ 17.639816409010798, 59.856729324808519 ], [ 17.639807848388177, 59.856733988592623 ], [ 17.639808203884709, 59.856738473555566 ], [ 17.639799643258605, 59.856743137339187 ], [ 17.639791082630108, 59.856747801122239 ], [ 17.639791438124586, 59.856752286085232 ], [ 17.639782877492607, 59.856756949867773 ], [ 17.639774316858233, 59.856761613649766 ], [ 17.639774672350654, 59.856766098612823 ], [ 17.639766111712799, 59.856770762394305 ], [ 17.639757551072549, 59.856775426175233 ], [ 17.63975790656291, 59.856779911138339 ], [ 17.639749345919181, 59.856784574918755 ], [ 17.639740785273059, 59.856789238698639 ], [ 17.639741140761359, 59.856793723661795 ], [ 17.639732580111755, 59.856798387441138 ], [ 17.639724019459759, 59.856803051219956 ], [ 17.639724374946002, 59.856807536183197 ], [ 17.639715814290522, 59.856812199961482 ], [ 17.63970725363265, 59.856816863739247 ], [ 17.639707609116833, 59.856821348702518 ], [ 17.63969904845548, 59.856826012479743 ], [ 17.639690487791736, 59.856830676256457 ], [ 17.639690843273858, 59.85683516121977 ], [ 17.639682282606628, 59.856839824995923 ], [ 17.639673721937012, 59.856844488771593 ], [ 17.639674077417069, 59.856848973734941 ], [ 17.639665516743971, 59.856853637510063 ], [ 17.639656956068471, 59.856858301284646 ], [ 17.639657311546475, 59.856862786248044 ], [ 17.639648750867497, 59.856867450022108 ], [ 17.639640190186128, 59.856872113795632 ], [ 17.639630918552982, 59.856867807641613 ], [ 17.63962164692223, 59.856863501486927 ], [ 17.639621291449018, 59.856859016523401 ], [ 17.639612019821971, 59.856854710368005 ], [ 17.639602748197316, 59.856850404211926 ], [ 17.639593476575058, 59.856846098055193 ], [ 17.639593121105882, 59.856841613091525 ], [ 17.63958384948733, 59.856837306934089 ], [ 17.639574577871169, 59.856833000775978 ], [ 17.639565306257403, 59.856828694617171 ], [ 17.639556034646031, 59.85682438845771 ], [ 17.639555679182205, 59.856819903493921 ], [ 17.639546407574539, 59.856815597333735 ], [ 17.639537135969263, 59.856811291172889 ], [ 17.639527864366386, 59.856806985011367 ], [ 17.639518592765903, 59.856802678849178 ], [ 17.639509321167814, 59.856798372686335 ], [ 17.639500049572121, 59.856794066522788 ], [ 17.639490777978821, 59.856789760358595 ], [ 17.639490422524268, 59.856785275394522 ], [ 17.639481150934675, 59.856780969229618 ], [ 17.639471879347472, 59.856776663064039 ], [ 17.63946260776267, 59.856772356897778 ], [ 17.639453336180257, 59.856768050730849 ], [ 17.639444064600241, 59.856763744563274 ], [ 17.639434793022616, 59.856759438395002 ], [ 17.639425521447389, 59.856755132226048 ], [ 17.639416249874557, 59.856750826056448 ], [ 17.639415894430591, 59.856746341092077 ], [ 17.639406622861461, 59.856742034921766 ], [ 17.639397351294726, 59.856737728750765 ], [ 17.639388079730388, 59.85673342257909 ], [ 17.639378808168441, 59.856729116406768 ], [ 17.639369536608889, 59.85672481023375 ], [ 17.639360265051732, 59.856720504060071 ], [ 17.639350993496972, 59.856716197885738 ], [ 17.639341721944604, 59.856711891710695 ], [ 17.639332450394633, 59.856707585535027 ], [ 17.639332094962562, 59.856703100570329 ], [ 17.639322823416293, 59.856698794393928 ], [ 17.639313551872419, 59.85669448821686 ], [ 17.63930428033094, 59.856690182039102 ], [ 17.639295008791855, 59.856685875860677 ], [ 17.639285737255165, 59.856681569681605 ], [ 17.639276465720869, 59.856677263501837 ], [ 17.639267194188967, 59.8566729573214 ], [ 17.639257922659461, 59.856668651140303 ], [ 17.639257567237976, 59.856664166175314 ], [ 17.639248295712175, 59.856659859993513 ], [ 17.639239024188765, 59.856655553811024 ], [ 17.639229752667752, 59.856651247627852 ], [ 17.639220481149131, 59.856646941444033 ], [ 17.639211209632908, 59.856642635259526 ], [ 17.639201938119076, 59.85663832907435 ], [ 17.639192666607645, 59.856634022888521 ], [ 17.639183395098602, 59.856629716702002 ], [ 17.63917412359196, 59.856625410514837 ], [ 17.639173768182367, 59.8566209255495 ], [ 17.639164496679424, 59.856616619361596 ], [ 17.639164141271252, 59.856612134396251 ], [ 17.639163785863193, 59.856607649430877 ], [ 17.639154514365263, 59.856603343242234 ], [ 17.639154158958625, 59.85659885827684 ], [ 17.639144887464401, 59.856594552087486 ], [ 17.639144532059181, 59.856590067122049 ], [ 17.639135260568658, 59.856585760931992 ], [ 17.639134905164862, 59.856581275966512 ], [ 17.639125633678045, 59.856576969775745 ], [ 17.639116362193622, 59.856572663584309 ], [ 17.63910709071159, 59.856568357392199 ], [ 17.63909781923196, 59.856564051199442 ], [ 17.639088547754717, 59.856559745005974 ], [ 17.639079276279872, 59.856555438811839 ], [ 17.639070004807422, 59.856551132617064 ], [ 17.639060733337367, 59.856546826421585 ], [ 17.639051461869705, 59.85654252022546 ], [ 17.639042190404439, 59.856538214028639 ], [ 17.63903291894157, 59.856533907831164 ], [ 17.639023647481089, 59.856529601633021 ], [ 17.63901437602301, 59.856525295434196 ], [ 17.639005104567318, 59.856520989234689 ], [ 17.638995833114027, 59.856516683034542 ], [ 17.638986561663128, 59.856512376833685 ], [ 17.638977290214623, 59.856508070632181 ], [ 17.638968018768512, 59.856503764429988 ], [ 17.638967663388392, 59.856499279463868 ], [ 17.638958391945987, 59.856494973260972 ], [ 17.638949120505973, 59.856490667057393 ], [ 17.638939849068358, 59.856486360853154 ], [ 17.638930577633136, 59.856482054648275 ], [ 17.638921306200309, 59.856477748442686 ], [ 17.638912034769874, 59.856473442236421 ], [ 17.638902763341836, 59.856469136029524 ], [ 17.638893491916193, 59.856464829821924 ], [ 17.63888422049294, 59.856460523613649 ], [ 17.63887494907209, 59.856456217404727 ], [ 17.638865677653627, 59.856451911195101 ], [ 17.638856406237561, 59.856447604984837 ], [ 17.638847134823891, 59.85644329877389 ], [ 17.638837863412615, 59.856438992562254 ], [ 17.638828592003733, 59.856434686349964 ], [ 17.638819320597246, 59.856430380137006 ], [ 17.63881004919315, 59.856426073923352 ], [ 17.638800777791456, 59.856421767709058 ], [ 17.638791506392149, 59.856417461494082 ], [ 17.63878223499524, 59.85641315527841 ], [ 17.638781879641414, 59.856408670311545 ], [ 17.638772608248207, 59.856404364095191 ], [ 17.638763336857398, 59.856400057878162 ], [ 17.638754065468984, 59.856395751660465 ], [ 17.63874479408296, 59.856391445442057 ], [ 17.638735522699331, 59.856387139223024 ], [ 17.638726251318101, 59.856382833003302 ], [ 17.638716979939261, 59.856378526782912 ], [ 17.638707708562819, 59.85637422056184 ], [ 17.638698437188769, 59.856369914340107 ], [ 17.638689165817116, 59.856365608117699 ], [ 17.638679894447858, 59.85636130189463 ], [ 17.638670623080991, 59.856356995670886 ], [ 17.638661351716522, 59.856352689446467 ], [ 17.638652080354444, 59.856348383221359 ], [ 17.638642808994764, 59.856344076995605 ], [ 17.638633537637475, 59.856339770769168 ], [ 17.638624266282584, 59.856335464542063 ], [ 17.638614994930087, 59.856331158314283 ], [ 17.638605723579985, 59.856326852085822 ], [ 17.638596452232274, 59.856322545856706 ], [ 17.638587180886962, 59.856318239626923 ], [ 17.638577909544043, 59.856313933396443 ], [ 17.638568638203516, 59.856309627165309 ], [ 17.638559366865387, 59.856305320933515 ], [ 17.638559011543091, 59.85630083596574 ], [ 17.638549740208664, 59.856296529733214 ], [ 17.638540468876631, 59.856292223500041 ], [ 17.638531197546993, 59.856287917266172 ], [ 17.638521926219749, 59.856283611031657 ], [ 17.638512654894903, 59.856279304796431 ], [ 17.638503383572445, 59.856274998560565 ], [ 17.638494112252388, 59.856270692324024 ], [ 17.638484840934723, 59.85626638608678 ], [ 17.638475569619452, 59.856262079848875 ], [ 17.638466298306579, 59.856257773610324 ], [ 17.638457026996093, 59.856253467371069 ], [ 17.638447755688006, 59.856249161131167 ], [ 17.638438484382316, 59.856244854890591 ], [ 17.638429213079018, 59.856240548649346 ], [ 17.638419941778118, 59.856236242407434 ], [ 17.638410670479608, 59.856231936164846 ], [ 17.638401399183493, 59.856227629921563 ], [ 17.638392127889777, 59.856223323677639 ], [ 17.638382856598447, 59.85621901743302 ], [ 17.638373585309523, 59.856214711187761 ], [ 17.638364314022986, 59.856210404941805 ], [ 17.638355042738844, 59.856206098695168 ], [ 17.6383457714571, 59.856201792447877 ], [ 17.638336500177747, 59.85619748619991 ], [ 17.638336144886978, 59.856193001231269 ], [ 17.63832687361133, 59.856188694982613 ], [ 17.638317602338077, 59.856184388733261 ], [ 17.638308331067215, 59.856180082483235 ], [ 17.638299059798747, 59.856175776232547 ], [ 17.638289788532681, 59.856171469981177 ], [ 17.638280517269003, 59.85616716372914 ], [ 17.638271246007722, 59.856162857476441 ], [ 17.638261974748836, 59.856158551223068 ], [ 17.638252703492345, 59.856154244969034 ], [ 17.638243432238248, 59.856149938714296 ], [ 17.638234160986546, 59.856145632458912 ], [ 17.638224889737238, 59.856141326202852 ], [ 17.638215618490324, 59.856137019946118 ], [ 17.638206347245802, 59.856132713688702 ], [ 17.638197076003678, 59.856128407430631 ], [ 17.638196720732655, 59.856123922461428 ], [ 17.638187449494236, 59.856119616202648 ], [ 17.638178178258208, 59.856115309943192 ], [ 17.638168907024578, 59.856111003683068 ], [ 17.63815963579334, 59.856106697422277 ], [ 17.638150364564495, 59.856102391160796 ], [ 17.638141093338046, 59.856098084898655 ], [ 17.638131822113994, 59.856093778635838 ], [ 17.638122550892334, 59.856089472372339 ], [ 17.638113279673068, 59.85608516610818 ], [ 17.6381040084562, 59.856080859843352 ], [ 17.638094737241722, 59.856076553577843 ], [ 17.638094381985212, 59.85607206860827 ], [ 17.638085110774441, 59.85606776234205 ], [ 17.63807583956606, 59.856063456075155 ], [ 17.638066568360081, 59.856059149807621 ], [ 17.638057297156486, 59.856054843539383 ], [ 17.638048025955293, 59.856050537270491 ], [ 17.638038754756494, 59.856046231000917 ], [ 17.638029483560089, 59.85604192473069 ], [ 17.638020212366079, 59.856037618459759 ], [ 17.638010941174461, 59.856033312188174 ], [ 17.63800166998524, 59.856029005915921 ], [ 17.637992398798414, 59.856024699642994 ], [ 17.637983127613982, 59.856020393369405 ], [ 17.637973856431941, 59.856016087095114 ], [ 17.637964585252302, 59.856011780820189 ], [ 17.63795531407505, 59.856007474544562 ], [ 17.637946042900193, 59.85600316826828 ], [ 17.637936771727738, 59.855998861991317 ], [ 17.637927500557669, 59.855994555713693 ], [ 17.637918229389999, 59.855990249435393 ], [ 17.637908958224724, 59.855985943156426 ], [ 17.637899687061843, 59.855981636876763 ], [ 17.637890415901357, 59.85597733059646 ], [ 17.637881144743261, 59.855973024315468 ], [ 17.63787187358756, 59.855968718033807 ], [ 17.637862602434257, 59.855964411751479 ], [ 17.637853331283349, 59.855960105468476 ], [ 17.637844060134832, 59.855955799184798 ], [ 17.637834788988712, 59.855951492900459 ], [ 17.637825517844988, 59.855947186615438 ], [ 17.637816246703654, 59.855942880329749 ], [ 17.637815891486529, 59.855938395359061 ], [ 17.637806620348901, 59.855934089072662 ], [ 17.637797349213663, 59.855929782785601 ], [ 17.637788078080828, 59.855925476497852 ], [ 17.637778806950379, 59.855921170209427 ], [ 17.637787367654759, 59.855916506556248 ], [ 17.637795928356741, 59.855911842902501 ], [ 17.637804489056329, 59.855907179248213 ], [ 17.637813049753522, 59.855902515593407 ], [ 17.63782161044832, 59.855897851938025 ], [ 17.637830171140724, 59.855893188282131 ], [ 17.637838731830737, 59.855888524625676 ], [ 17.637847292518352, 59.855883860968653 ], [ 17.637855853203572, 59.85587919731114 ], [ 17.637864413886398, 59.855874533653029 ], [ 17.637872974566829, 59.855869869994407 ], [ 17.637881535244865, 59.855865206335253 ], [ 17.637890095920511, 59.855860542675522 ], [ 17.637898656593759, 59.855855879015266 ], [ 17.637907217264608, 59.855851215354477 ], [ 17.637915777933067, 59.855846551693112 ], [ 17.637924338599134, 59.855841888031229 ], [ 17.637932899262804, 59.855837224368791 ], [ 17.637941459924082, 59.855832560705821 ], [ 17.637950020582963, 59.85582789704231 ], [ 17.637958581239449, 59.855823233378224 ], [ 17.63796714189354, 59.855818569713634 ], [ 17.637975702545237, 59.855813906048482 ], [ 17.637984263194543, 59.855809242382783 ], [ 17.637992823841451, 59.855804578716544 ], [ 17.638001384485968, 59.855799915049779 ], [ 17.638009945128086, 59.85579525138246 ], [ 17.63801850576781, 59.855790587714587 ], [ 17.63802706640514, 59.855785924046174 ], [ 17.638035627040079, 59.855781260377213 ], [ 17.638044187672623, 59.855776596707713 ], [ 17.638052748302769, 59.855771933037673 ], [ 17.638061308930521, 59.855767269367085 ], [ 17.638069869555881, 59.855762605695972 ], [ 17.638078430178844, 59.85575794202429 ], [ 17.638086990799415, 59.85575327835209 ], [ 17.638095551417589, 59.855748614679314 ], [ 17.638104112033368, 59.855743951006005 ], [ 17.638112672646756, 59.855739287332177 ], [ 17.638121233257749, 59.855734623657774 ], [ 17.638129793866344, 59.855729959982853 ], [ 17.638138354472545, 59.855725296307362 ], [ 17.638146915076359, 59.855720632631346 ], [ 17.63815547567777, 59.855715968954797 ], [ 17.638164036276788, 59.85571130527768 ], [ 17.638172596873414, 59.855706641600023 ], [ 17.638181157467645, 59.855701977921832 ], [ 17.638189718059483, 59.855697314243088 ], [ 17.638198278648918, 59.855692650563803 ], [ 17.63820683923597, 59.855687986883979 ], [ 17.63821539982062, 59.855683323203614 ], [ 17.638223960402879, 59.855678659522695 ], [ 17.63823252098274, 59.855673995841244 ], [ 17.63824108156021, 59.855669332159245 ], [ 17.638249642135289, 59.855664668476713 ], [ 17.63825820270797, 59.855660004793634 ], [ 17.638266763278253, 59.855655341109987 ], [ 17.638275323846148, 59.855650677425828 ], [ 17.638283884411642, 59.855646013741108 ], [ 17.638292444974745, 59.855641350055848 ], [ 17.638301005535453, 59.855636686370048 ], [ 17.638309566093767, 59.8556320226837 ], [ 17.638318126649686, 59.855627358996827 ], [ 17.638326687203211, 59.855622695309386 ], [ 17.638335247754341, 59.855618031621411 ], [ 17.63834380830308, 59.855613367932889 ], [ 17.638352368849418, 59.855608704243828 ], [ 17.638360929393365, 59.855604040554212 ], [ 17.63836948993492, 59.85559937686407 ], [ 17.638378050474074, 59.855594713173375 ], [ 17.638386611010841, 59.855590049482124 ], [ 17.638395171545206, 59.855585385790356 ], [ 17.638403732077187, 59.85558072209804 ], [ 17.638412292606766, 59.855576058405177 ], [ 17.638420853133951, 59.85557139471176 ], [ 17.638420497840759, 59.85556690974299 ], [ 17.638429058364462, 59.855562246049075 ], [ 17.638437618885778, 59.855557582354592 ], [ 17.638446179404692, 59.855552918659569 ], [ 17.638454739921215, 59.855548254964049 ], [ 17.638463300435344, 59.855543591267931 ], [ 17.638471860947075, 59.855538927571303 ], [ 17.638480421456418, 59.855534263874112 ], [ 17.638488981963363, 59.855529600176368 ], [ 17.63849754246791, 59.855524936478098 ], [ 17.638506102970069, 59.855520272779266 ], [ 17.638514663469827, 59.855515609079902 ], [ 17.638523223967194, 59.855510945380004 ], [ 17.638531784462167, 59.85550628167956 ], [ 17.638540344954748, 59.855501617978568 ], [ 17.638548905444935, 59.855496954277058 ], [ 17.63855746593272, 59.855492290574958 ], [ 17.638566026418118, 59.855487626872339 ], [ 17.638574586901118, 59.855482963169173 ], [ 17.638583147381723, 59.855478299465453 ], [ 17.638591707859934, 59.855473635761221 ], [ 17.638600268335754, 59.855468972056421 ], [ 17.638608828809176, 59.855464308351067 ], [ 17.638617389280203, 59.855459644645201 ], [ 17.638625949748839, 59.855454980938767 ], [ 17.638634510215077, 59.855450317231799 ], [ 17.638643070678921, 59.855445653524292 ], [ 17.638651631140373, 59.855440989816223 ], [ 17.638660191599428, 59.855436326107636 ], [ 17.638668752056091, 59.855431662398495 ], [ 17.638668396731536, 59.855427177430514 ], [ 17.638676957184718, 59.855422513720882 ], [ 17.638685517635505, 59.855417850010653 ], [ 17.638694078083898, 59.855413186299906 ], [ 17.6387026385299, 59.855408522588618 ], [ 17.638711198973503, 59.855403858876791 ], [ 17.638719759414712, 59.855399195164438 ], [ 17.638728319853531, 59.855394531451509 ], [ 17.638736880289947, 59.85538986773804 ], [ 17.63874544072398, 59.855385204024046 ], [ 17.638754001155611, 59.855380540309483 ], [ 17.638762561584848, 59.85537587659438 ], [ 17.638771122011693, 59.855371212878772 ], [ 17.638779682436141, 59.855366549162575 ], [ 17.638788242858194, 59.855361885445845 ], [ 17.638796803277856, 59.855357221728582 ], [ 17.638805363695123, 59.855352558010772 ], [ 17.638813924109996, 59.855347894292429 ], [ 17.638822484522471, 59.855343230573524 ], [ 17.638831044932555, 59.855338566854073 ], [ 17.638839605340241, 59.855333903134095 ], [ 17.638848521092889, 59.855333724380955 ], [ 17.638857081496873, 59.855329060659841 ], [ 17.638865641898462, 59.855324396938201 ], [ 17.638874202297661, 59.855319733216028 ], [ 17.638882762694461, 59.855315069493294 ], [ 17.63889132308887, 59.85531040577002 ], [ 17.638899883480882, 59.855305742046205 ], [ 17.638908443870502, 59.855301078321844 ], [ 17.638917004257728, 59.85529641459695 ], [ 17.638925564642559, 59.855291750871494 ], [ 17.638934125024992, 59.855287087145499 ], [ 17.638942685405034, 59.855282423418963 ], [ 17.638951245782678, 59.855277759691887 ], [ 17.638959806157931, 59.855273095964257 ], [ 17.638968366530793, 59.855268432236116 ], [ 17.63897692690125, 59.855263768507406 ], [ 17.638985487269323, 59.85525910477817 ], [ 17.638994047634998, 59.855254441048359 ], [ 17.639002607998279, 59.855249777318008 ], [ 17.639011168359165, 59.855245113587145 ], [ 17.639019728717656, 59.855240449855707 ], [ 17.639028289073753, 59.85523578612375 ], [ 17.639036849427459, 59.855231122391245 ], [ 17.639045409778767, 59.85522645865818 ], [ 17.63905397012768, 59.855221794924582 ], [ 17.639062530474199, 59.855217131190436 ], [ 17.639071090818327, 59.855212467455758 ], [ 17.639079651160056, 59.855207803720539 ], [ 17.639088211499395, 59.855203139984766 ], [ 17.639096771836336, 59.855198476248432 ], [ 17.639105332170885, 59.855193812511587 ], [ 17.63911389250304, 59.855189148774173 ], [ 17.639122452832797, 59.855184485036226 ], [ 17.63913101316016, 59.855179821297739 ], [ 17.639139573485132, 59.855175157558712 ], [ 17.639148133807709, 59.855170493819131 ], [ 17.639156694127891, 59.855165830079017 ], [ 17.639165254445679, 59.855161166338355 ], [ 17.639173814761069, 59.855156502597161 ], [ 17.639182375074071, 59.855151838855384 ], [ 17.639190935384672, 59.85514717511311 ], [ 17.639199495692885, 59.855142511370275 ], [ 17.639208055998697, 59.855137847626892 ], [ 17.639216616302118, 59.855133183882948 ], [ 17.639225176603148, 59.8551285201385 ], [ 17.63923373690178, 59.85512385639349 ], [ 17.63924229719802, 59.855119192647933 ], [ 17.639250857491863, 59.855114528901829 ], [ 17.639259417783311, 59.855109865155178 ], [ 17.639267978072365, 59.855105201408001 ], [ 17.639276538359027, 59.85510053766027 ], [ 17.639285098643292, 59.855095873911985 ], [ 17.639293658925165, 59.855091210163188 ], [ 17.639302219204644, 59.855086546413823 ], [ 17.639310779481725, 59.855081882663917 ], [ 17.639319339756415, 59.855077218913472 ], [ 17.639327900028707, 59.855072555162494 ], [ 17.639336460298608, 59.855067891410961 ], [ 17.639345020566118, 59.855063227658889 ], [ 17.63935358083123, 59.855058563906283 ], [ 17.639362141093947, 59.855053900153116 ], [ 17.639370701354267, 59.855049236399402 ], [ 17.639370345940709, 59.855044751433702 ], [ 17.639378906197553, 59.855040087679491 ], [ 17.639387466452, 59.855035423924726 ], [ 17.639396026704055, 59.85503076016942 ], [ 17.639404586953713, 59.85502609641356 ], [ 17.639413147200983, 59.855021432657175 ], [ 17.639421707445855, 59.855016768900242 ], [ 17.639430267688329, 59.855012105142755 ], [ 17.639438827928412, 59.855007441384743 ], [ 17.639447388166104, 59.855002777626169 ], [ 17.639455948401395, 59.854998113867047 ], [ 17.639464508634294, 59.854993450107393 ], [ 17.639473068864799, 59.854988786347207 ], [ 17.639481629092913, 59.854984122586444 ], [ 17.639490189318629, 59.854979458825177 ], [ 17.639498749541954, 59.854974795063349 ], [ 17.639507309762877, 59.854970131300959 ], [ 17.639515869981413, 59.854965467538058 ], [ 17.639524430197554, 59.854960803774603 ], [ 17.639532990411297, 59.854956140010593 ], [ 17.639541550622649, 59.854951476246043 ], [ 17.639550110831603, 59.854946812480961 ], [ 17.639558671038166, 59.854942148715324 ], [ 17.639567231242335, 59.854937484949154 ], [ 17.639575791444109, 59.85493282118243 ], [ 17.639584351643489, 59.854928157415166 ], [ 17.639592911840474, 59.854923493647355 ], [ 17.639601472035064, 59.854918829879004 ], [ 17.63961003222726, 59.854914166110113 ], [ 17.639618592417062, 59.854909502340689 ], [ 17.639627152604469, 59.854904838570675 ], [ 17.639635712789485, 59.854900174800186 ], [ 17.639644272972102, 59.854895511029106 ], [ 17.639652833152326, 59.854890847257508 ], [ 17.639661393330158, 59.854886183485348 ], [ 17.639669953505592, 59.854881519712649 ], [ 17.639678513678636, 59.854876855939409 ], [ 17.639687073849284, 59.854872192165637 ], [ 17.639695634017535, 59.854867528391289 ], [ 17.639704194183395, 59.854862864616429 ], [ 17.639712754346856, 59.854858200841015 ], [ 17.639721314507931, 59.854853537065047 ], [ 17.639729874666607, 59.854848873288567 ], [ 17.639738434822888, 59.854844209511505 ], [ 17.639738079362768, 59.854839724547013 ], [ 17.639746639515572, 59.854835060769446 ], [ 17.639755199665977, 59.854830396991332 ], [ 17.639763759813995, 59.854825733212699 ], [ 17.639772319959611, 59.854821069433505 ], [ 17.639780880102837, 59.854816405653757 ], [ 17.639789440243668, 59.854811741873498 ], [ 17.6397980003821, 59.854807078092669 ], [ 17.639806560518146, 59.854802414311315 ], [ 17.639815120651789, 59.8547977505294 ], [ 17.639823680783046, 59.854793086746945 ], [ 17.639832240911904, 59.854788422963971 ], [ 17.639840801038368, 59.854783759180428 ], [ 17.63984936116244, 59.854779095396346 ], [ 17.639857921284115, 59.854774431611716 ], [ 17.639866481403395, 59.854769767826539 ], [ 17.639875041520284, 59.85476510404083 ], [ 17.639883601634779, 59.85476044025458 ], [ 17.639892161746875, 59.854755776467783 ], [ 17.639900721856581, 59.854751112680447 ], [ 17.639909281963892, 59.854746448892563 ], [ 17.639917842068808, 59.854741785104117 ], [ 17.63992640217133, 59.854737121315168 ], [ 17.639934962271457, 59.854732457525628 ], [ 17.63994352236919, 59.854727793735584 ], [ 17.639952082464529, 59.854723129944972 ], [ 17.639960642557472, 59.854718466153834 ], [ 17.639969202648025, 59.854713802362156 ], [ 17.63997776273618, 59.854709138569909 ], [ 17.63998632282194, 59.854704474777137 ], [ 17.639994882905309, 59.854699810983824 ], [ 17.640003442986281, 59.854695147189972 ], [ 17.640012003064857, 59.854690483395551 ], [ 17.640020563141046, 59.854685819600604 ], [ 17.640029123214834, 59.85468115580511 ], [ 17.640037683286231, 59.854676492009069 ], [ 17.640046598854422, 59.854676313175986 ], [ 17.640055158922117, 59.854671649378851 ], [ 17.640063718987413, 59.854666985581154 ], [ 17.640072279050319, 59.854662321782932 ], [ 17.64008083911083, 59.854657657984127 ], [ 17.640089399168943, 59.854652994184811 ], [ 17.640097959224665, 59.854648330384954 ], [ 17.640106519277992, 59.854643666584536 ], [ 17.640097248213372, 59.854639360458258 ], [ 17.640088332655431, 59.854639539294702 ], [ 17.640079061594296, 59.854635233167137 ], [ 17.640070146037324, 59.85463541200231 ], [ 17.640060874979667, 59.854631105873437 ], [ 17.640051959423669, 59.854631284707388 ], [ 17.640042688369491, 59.854626978577187 ], [ 17.640033772814469, 59.854627157409908 ], [ 17.640024501763769, 59.854622851278421 ], [ 17.640015586209721, 59.854623030109892 ], [ 17.640006315162502, 59.85461872397709 ], [ 17.639997399609424, 59.854618902807324 ], [ 17.639988128565687, 59.854614596673237 ], [ 17.639979213013582, 59.85461477550222 ], [ 17.63996994197332, 59.854610469366811 ], [ 17.639961026422192, 59.854610648194566 ], [ 17.639951755385411, 59.854606342057842 ], [ 17.639942839835257, 59.854606520884374 ], [ 17.639933924284989, 59.854606699710295 ], [ 17.639924653252773, 59.854602393571625 ], [ 17.639915737703479, 59.854602572396317 ], [ 17.639906466674741, 59.854598266256339 ], [ 17.639897195648398, 59.854593960115679 ], [ 17.639888280101164, 59.854594138938502 ], [ 17.639879009078303, 59.854589832796549 ], [ 17.639870093532039, 59.854590011618122 ], [ 17.639860822512659, 59.854585705474847 ], [ 17.639851906967369, 59.854585884295197 ], [ 17.639842635951467, 59.854581578150636 ], [ 17.639833720407154, 59.854581756969729 ], [ 17.639824449394727, 59.85457745082384 ], [ 17.639815533851387, 59.854577629641696 ], [ 17.639806262842441, 59.85457332349452 ], [ 17.639797347300075, 59.85457350231114 ], [ 17.639788076294611, 59.854569196162664 ], [ 17.639779160753218, 59.854569374978041 ], [ 17.639769889751232, 59.854565068828236 ], [ 17.639760974210809, 59.854565247642363 ], [ 17.639751703212305, 59.854560941491279 ], [ 17.639742787672855, 59.854561120304176 ], [ 17.639733516677833, 59.854556814151792 ], [ 17.639724601139356, 59.854556992963424 ], [ 17.639715685600773, 59.854557171774488 ], [ 17.639706414610313, 59.854552865620143 ], [ 17.6396974990727, 59.854553044429977 ], [ 17.639688228085717, 59.85454873827431 ], [ 17.639679312549077, 59.854548917082901 ], [ 17.639670041565576, 59.854544610925942 ], [ 17.63966112602991, 59.854544789733289 ], [ 17.639651855049888, 59.854540483575015 ], [ 17.639642939515198, 59.854540662381126 ], [ 17.639633668538654, 59.854536356221544 ], [ 17.639624753004934, 59.854536535026398 ], [ 17.639615837471109, 59.854536713830669 ], [ 17.639606566499129, 59.854532407669133 ], [ 17.63959765096627, 59.854532586472182 ], [ 17.639588379997772, 59.854528280309339 ], [ 17.639579464465889, 59.85452845911113 ], [ 17.639570193500873, 59.854524152947015 ], [ 17.63956127796996, 59.854524331747548 ], [ 17.639552007008422, 59.854520025582104 ], [ 17.639543091478487, 59.85452020438143 ], [ 17.639533820520427, 59.854515898214665 ], [ 17.639524904991465, 59.85451607701274 ], [ 17.639515634036886, 59.854511770844695 ], [ 17.639506718508898, 59.85451194964152 ], [ 17.639497802980799, 59.854512128437769 ], [ 17.639488532030782, 59.85450782226777 ], [ 17.639479616503653, 59.854508001062754 ], [ 17.639470345557122, 59.854503694891477 ], [ 17.639461430030966, 59.854503873685218 ], [ 17.639452159087909, 59.854499567512605 ], [ 17.639443243562727, 59.85449974630513 ], [ 17.639433972623152, 59.854495440131203 ], [ 17.639425057098947, 59.854495618922485 ], [ 17.63941578616285, 59.85449131274725 ], [ 17.639406870639615, 59.854491491537296 ], [ 17.639397599706999, 59.854487185360767 ], [ 17.639388684184738, 59.85448736414957 ], [ 17.639379768662369, 59.854487542937768 ], [ 17.639370497734316, 59.854483236759293 ], [ 17.639361582212914, 59.854483415546234 ], [ 17.639352666691408, 59.854483594332606 ], [ 17.63934339576792, 59.854479288152191 ], [ 17.639334480247385, 59.854479466937313 ], [ 17.63932556472674, 59.854479645721824 ], [ 17.639316293807813, 59.854475339539469 ], [ 17.639307378288141, 59.854475518322758 ], [ 17.639298462768352, 59.854475697105428 ], [ 17.639289191853994, 59.854471390921113 ], [ 17.639280276335185, 59.854471569702554 ], [ 17.639271360816259, 59.854471748483391 ], [ 17.639262089906463, 59.854467442297143 ], [ 17.639253174388518, 59.854467621076772 ], [ 17.639244258870455, 59.854467799855748 ], [ 17.639234987965224, 59.854463493667559 ], [ 17.639226072448135, 59.854463672445306 ], [ 17.639216801546389, 59.854459366255824 ], [ 17.639207886030274, 59.854459545032348 ], [ 17.639198615131999, 59.854455238841553 ], [ 17.639189699616857, 59.854455417616805 ], [ 17.639180428722071, 59.854451111424702 ], [ 17.639171513207902, 59.854451290198739 ], [ 17.639162242316594, 59.854446984005328 ], [ 17.639153326803399, 59.854447162778136 ], [ 17.639144055915565, 59.854442856583397 ], [ 17.639135140403347, 59.854443035354983 ], [ 17.639125869518992, 59.854438729158922 ], [ 17.639116954007747, 59.85443890792925 ], [ 17.639107683126873, 59.854434601731931 ], [ 17.639098767616602, 59.854434780501023 ], [ 17.63908949673921, 59.854430474302369 ], [ 17.639080581229909, 59.854430653070231 ], [ 17.639071310355995, 59.854426346870277 ], [ 17.63906239484767, 59.854426525636889 ], [ 17.639053123977238, 59.854422219435627 ], [ 17.639044208469883, 59.854422398200988 ], [ 17.639034937602933, 59.85441809199844 ], [ 17.639026022096552, 59.854418270762558 ], [ 17.639016751233079, 59.854413964558702 ], [ 17.639007835727671, 59.854414143321584 ], [ 17.638998564867677, 59.8544098371164 ], [ 17.638989649363243, 59.854410015878067 ], [ 17.63898037850673, 59.854405709671589 ], [ 17.638971463003269, 59.854405888432005 ], [ 17.638962192150235, 59.854401582224213 ], [ 17.638953276647747, 59.854401760983386 ], [ 17.638944005798194, 59.854397454774293 ], [ 17.638935090296684, 59.85439763353223 ], [ 17.638925819450606, 59.854393327321823 ], [ 17.638916903950069, 59.854393506078537 ], [ 17.638907633107472, 59.854389199866816 ], [ 17.638898717607908, 59.85438937862228 ], [ 17.63888944676879, 59.854385072409258 ], [ 17.638880175932069, 59.85438076619559 ], [ 17.638871260434563, 59.854380944949177 ], [ 17.63886198960132, 59.854376638734173 ], [ 17.638853074104787, 59.854376817486511 ], [ 17.638843803275023, 59.854372511270213 ], [ 17.638834887779463, 59.854372690021329 ], [ 17.638825616953181, 59.854368383803717 ], [ 17.638816701458598, 59.854368562553596 ], [ 17.63880743063579, 59.854364256334662 ], [ 17.638798515142181, 59.854364435083312 ], [ 17.638789244322851, 59.854360128863078 ], [ 17.638780328830215, 59.854360307610492 ], [ 17.638771058014374, 59.85435600138895 ], [ 17.638762142522708, 59.85435618013512 ], [ 17.638752871710341, 59.854351873912265 ], [ 17.638743956219649, 59.854352052657198 ], [ 17.638734685410764, 59.854347746433049 ], [ 17.638725769921045, 59.854347925176725 ], [ 17.638716499115642, 59.854343618951283 ], [ 17.638707583626896, 59.85434379769373 ], [ 17.638698312824971, 59.854339491466952 ], [ 17.638689397337199, 59.854339670208176 ], [ 17.638680126538752, 59.85433536398012 ], [ 17.638670855742699, 59.854331057751374 ], [ 17.638661940256988, 59.854331236490694 ], [ 17.638652669464417, 59.854326930260655 ], [ 17.638643753979675, 59.854327108998746 ], [ 17.638634483190582, 59.854322802767406 ], [ 17.638625567706818, 59.854322981504247 ], [ 17.638616296921207, 59.8543186752716 ], [ 17.638607381438415, 59.854318854007218 ], [ 17.638598110656279, 59.854314547773235 ], [ 17.638589195174461, 59.854314726507617 ], [ 17.638579924395806, 59.854310420272363 ], [ 17.638571008914962, 59.854310599005501 ], [ 17.638561738139789, 59.854306292768911 ], [ 17.638552822659918, 59.854306471500813 ], [ 17.638543551888223, 59.854302165262936 ], [ 17.638534636409325, 59.854302343993581 ], [ 17.638525365641108, 59.854298037754411 ], [ 17.638516450163184, 59.854298216483834 ], [ 17.638507179398449, 59.854293910243335 ], [ 17.638498263921498, 59.854294088971514 ], [ 17.638488993160241, 59.854289782729701 ], [ 17.638480077684267, 59.854289961456658 ], [ 17.638470806926488, 59.854285655213538 ], [ 17.638461891451485, 59.854285833939251 ], [ 17.638452620697187, 59.85428152769483 ], [ 17.63844370522316, 59.8542817064193 ], [ 17.638434434472341, 59.854277400173594 ], [ 17.638425518999288, 59.854277578896813 ], [ 17.63841624825195, 59.854273272649785 ], [ 17.638407332779867, 59.854273451371782 ], [ 17.638398062036003, 59.854269145123418 ], [ 17.638389146564897, 59.854269323844193 ], [ 17.638379875824519, 59.85426501759455 ], [ 17.638370960354386, 59.85426519631406 ], [ 17.638361689617486, 59.854260890063117 ], [ 17.638352774148323, 59.854261068781383 ], [ 17.638343503414902, 59.854256762529118 ], [ 17.638334232683878, 59.854252456276193 ], [ 17.638324961955245, 59.854248150022585 ], [ 17.638315691229007, 59.854243843768323 ], [ 17.638307131023101, 59.854248507453526 ], [ 17.638298570814797, 59.854253171138204 ], [ 17.638290010604102, 59.854257834822327 ], [ 17.638281450391013, 59.854262498505904 ], [ 17.638272890175529, 59.854267162188947 ], [ 17.63826432995765, 59.854271825871436 ], [ 17.638255414484867, 59.854272004583144 ], [ 17.638246854263283, 59.854276668264539 ], [ 17.638238294039308, 59.854281331945366 ], [ 17.638229733812938, 59.854285995625659 ], [ 17.638221173584174, 59.85429065930542 ], [ 17.638212613353019, 59.854295322984647 ], [ 17.638203342627801, 59.854291016722463 ], [ 17.638194071904977, 59.854286710459611 ], [ 17.638184801184551, 59.854282404196113 ], [ 17.638175530466512, 59.85427809793191 ], [ 17.638166259750875, 59.854273791667062 ], [ 17.638156989037629, 59.854269485401524 ], [ 17.638147718326778, 59.854265179135325 ], [ 17.638138447618321, 59.854260872868466 ], [ 17.638129176912258, 59.854256566600931 ], [ 17.63811990620859, 59.8542522603327 ], [ 17.638110635507317, 59.85424795406383 ], [ 17.638101364808435, 59.854243647794263 ], [ 17.638092094111947, 59.854239341524028 ], [ 17.638082823417854, 59.854235035253147 ], [ 17.638082468189211, 59.854230550282232 ], [ 17.638082112960667, 59.854226065311323 ], [ 17.638081757732245, 59.854221580340436 ], [ 17.638090317963275, 59.854216916669685 ], [ 17.638089962733879, 59.854212431698819 ], [ 17.638098522961428, 59.854207768027543 ], [ 17.638107083186586, 59.854203104355747 ], [ 17.63810672795513, 59.854198619384924 ], [ 17.638115288176806, 59.854193955712603 ], [ 17.638123848396091, 59.854189292039727 ], [ 17.638123493162571, 59.854184807068975 ], [ 17.638132053378374, 59.854180143395581 ], [ 17.638140613591787, 59.854175479721675 ], [ 17.638140258356209, 59.854170994750937 ], [ 17.63814881856614, 59.854166331076499 ], [ 17.638157378773677, 59.854161667401534 ], [ 17.638165938978819, 59.854157003726009 ], [ 17.638165583740097, 59.854152518755349 ], [ 17.638174143941761, 59.854147855079319 ], [ 17.63818270414103, 59.854143191402727 ], [ 17.638182348900248, 59.854138706432131 ], [ 17.638190909096039, 59.854134042755028 ], [ 17.638199469289432, 59.854129379077385 ], [ 17.638199114046593, 59.85412489410686 ], [ 17.638207674236508, 59.854120230428677 ], [ 17.638216234424029, 59.854115566749989 ], [ 17.638215879179135, 59.854111081779507 ], [ 17.638224439363174, 59.85410641810028 ], [ 17.638224084117304, 59.854101933129805 ], [ 17.638232644297865, 59.854097269450087 ], [ 17.638241204476031, 59.854092605769807 ], [ 17.638240849228101, 59.854088120799361 ], [ 17.638249409402789, 59.854083457118598 ], [ 17.638257969575086, 59.854078793437246 ], [ 17.638257614325095, 59.854074308466892 ], [ 17.638266174493911, 59.854069644785049 ], [ 17.638274734660328, 59.854064981102631 ], [ 17.638274379408283, 59.854060496132334 ], [ 17.638282939571223, 59.854055832449426 ], [ 17.638291499731768, 59.854051168765949 ], [ 17.638291144477662, 59.85404668379568 ], [ 17.638299704634729, 59.854042020111727 ], [ 17.638299349379647, 59.85403753514148 ], [ 17.638307909533236, 59.854032871456987 ], [ 17.63831646968443, 59.854028207771961 ], [ 17.63831611442729, 59.854023722801784 ], [ 17.638324674575003, 59.85401905911624 ], [ 17.638333234720321, 59.854014395430134 ], [ 17.638332879461124, 59.85400991046 ], [ 17.638341439602964, 59.85400524677339 ], [ 17.63834999974241, 59.85400058308624 ], [ 17.638349644481153, 59.853996098116163 ], [ 17.638358204617116, 59.853991434428472 ], [ 17.638366764750689, 59.853986770740285 ], [ 17.638366409487375, 59.853982285770243 ], [ 17.638374969617466, 59.853977622081516 ], [ 17.638383529745166, 59.853972958392255 ], [ 17.638383174479792, 59.853968473422263 ], [ 17.63839173460401, 59.853963809732484 ], [ 17.638391379337662, 59.853959324762521 ], [ 17.638399939458399, 59.853954661072216 ], [ 17.638408499576745, 59.853949997381399 ], [ 17.63840814430834, 59.853945512411464 ], [ 17.638416704423204, 59.853940848720114 ], [ 17.638425264535677, 59.853936185028232 ], [ 17.638424909265208, 59.853931700058347 ], [ 17.638433469374203, 59.853927036365924 ], [ 17.6384420294808, 59.853922372672976 ], [ 17.638441674208273, 59.853917887703155 ], [ 17.638450234311392, 59.853913224009695 ], [ 17.638458794412117, 59.853908560315674 ], [ 17.638458439137533, 59.853904075345909 ], [ 17.638466999234783, 59.853899411651383 ], [ 17.638466643959223, 59.853894926681633 ], [ 17.638475204052988, 59.853890262986575 ], [ 17.638483764144361, 59.853885599291011 ], [ 17.63848340886674, 59.853881114321304 ], [ 17.638491968954632, 59.853876450625201 ], [ 17.63850052904013, 59.853871786928558 ], [ 17.638500173760455, 59.853867301958914 ], [ 17.638508733842475, 59.853862638261752 ], [ 17.638517293922099, 59.853857974564043 ], [ 17.638516938640361, 59.853853489594449 ], [ 17.638525498716508, 59.853848825896243 ], [ 17.63853405879026, 59.853844162197447 ], [ 17.638533703506464, 59.853839677227917 ], [ 17.638542263576738, 59.853835013528645 ], [ 17.638550823644611, 59.853830349828812 ], [ 17.638550468358762, 59.853825864859317 ], [ 17.63855902842316, 59.853821201158986 ], [ 17.638558673136334, 59.85381671618952 ], [ 17.63856723319725, 59.853812052488671 ], [ 17.638575793255775, 59.85380738878726 ], [ 17.638575437966892, 59.853802903817844 ], [ 17.638583998021936, 59.853798240115935 ], [ 17.638592558074585, 59.853793576413466 ], [ 17.638592202783641, 59.853789091444099 ], [ 17.638600762832812, 59.853784427741139 ], [ 17.638609322879585, 59.853779764037604 ], [ 17.638608967586585, 59.853775279068302 ], [ 17.638617527629883, 59.853770615364269 ], [ 17.638626087670787, 59.853765951659689 ], [ 17.638625732375729, 59.853761466690422 ], [ 17.638634292413148, 59.853756802985338 ], [ 17.638642852448179, 59.853752139279692 ], [ 17.638642497151061, 59.853747654310489 ], [ 17.63865105718261, 59.853742990604331 ], [ 17.638650701884515, 59.853738505635135 ], [ 17.638659261912586, 59.853733841928481 ], [ 17.638667821938263, 59.853729178221265 ], [ 17.638667466638111, 59.853724693252133 ], [ 17.63867602666031, 59.853720029544405 ], [ 17.63868458668011, 59.853715365836138 ], [ 17.638684231377901, 59.853710880867055 ], [ 17.638692791394224, 59.853706217158248 ], [ 17.638701351408152, 59.853701553448929 ], [ 17.638700996103886, 59.853697068479903 ], [ 17.638709556114332, 59.853692404770058 ], [ 17.638718116122387, 59.853687741059652 ], [ 17.638717760816061, 59.853683256090683 ], [ 17.638726320820638, 59.853678592379765 ], [ 17.638725965513334, 59.853674107410818 ], [ 17.63873452551443, 59.853669443699395 ], [ 17.638743085513134, 59.853664779987426 ], [ 17.638742730203774, 59.853660295018528 ], [ 17.638751290198996, 59.853655631306054 ], [ 17.638759850191828, 59.853650967593026 ], [ 17.638759494880407, 59.853646482624171 ], [ 17.638768054869757, 59.853641818910617 ], [ 17.638776614856713, 59.853637155196537 ], [ 17.638776259543235, 59.853632670227732 ], [ 17.638784819526709, 59.853628006513127 ], [ 17.638793379507792, 59.853623342798002 ], [ 17.638793024192253, 59.853618857829247 ], [ 17.638801584169858, 59.853614194113575 ], [ 17.638810144145069, 59.853609530397378 ], [ 17.638818704117881, 59.853604866680634 ], [ 17.638818348799202, 59.853600381711956 ], [ 17.638826908768536, 59.853595717994693 ], [ 17.638835468735476, 59.853591054276883 ], [ 17.638835113414739, 59.853586569308284 ], [ 17.638843673378201, 59.853581905589948 ], [ 17.638852233339268, 59.853577241871086 ], [ 17.638851878016467, 59.853572756902523 ], [ 17.638860437974056, 59.853568093183121 ], [ 17.638868997929251, 59.853563429463208 ], [ 17.638877557882051, 59.85355876574274 ], [ 17.63887720255611, 59.853554280774254 ], [ 17.638885762505428, 59.853549617053247 ], [ 17.638894322452355, 59.853544953331749 ], [ 17.638893967124353, 59.853540468363299 ], [ 17.638902527067803, 59.853535804641268 ], [ 17.638911087008854, 59.853531140918669 ], [ 17.638910731678791, 59.853526655950276 ], [ 17.638919291616368, 59.853521992227193 ], [ 17.63892785155155, 59.853517328503543 ], [ 17.638927496219431, 59.853512843535214 ], [ 17.638936056151127, 59.853508179811037 ], [ 17.638944616080433, 59.853503516086334 ], [ 17.638953176007345, 59.853498852361092 ], [ 17.638952820672085, 59.853494367392834 ], [ 17.638961380595518, 59.853489703667073 ], [ 17.638969940516557, 59.853485039940779 ], [ 17.638969585179233, 59.853480554972556 ], [ 17.638978145096793, 59.853475891245722 ], [ 17.638986705011959, 59.853471227518376 ], [ 17.638986349672578, 59.853466742550218 ], [ 17.638994909584262, 59.853462078822318 ], [ 17.639003469493559, 59.853457415093906 ], [ 17.639012029400451, 59.853452751364941 ], [ 17.639011674057929, 59.853448266396875 ], [ 17.639020233961347, 59.853443602667383 ], [ 17.639028793862373, 59.853438938937344 ], [ 17.639028438517791, 59.853434453969328 ], [ 17.639036998415332, 59.853429790238785 ], [ 17.639036643069776, 59.853425305270754 ], [ 17.639045202963842, 59.853420641539728 ], [ 17.639044847617313, 59.853416156571747 ], [ 17.639053407507898, 59.853411492840145 ], [ 17.639053052160396, 59.853407007872192 ], [ 17.639061612047502, 59.853402344140093 ], [ 17.639070171932214, 59.853397680407475 ], [ 17.639078731814536, 59.853393016674296 ], [ 17.639087291694459, 59.853388352940563 ], [ 17.639086936342725, 59.853383867972724 ], [ 17.63909549621917, 59.853379204238486 ], [ 17.639095140866466, 59.853374719270647 ], [ 17.639103700739433, 59.853370055535905 ], [ 17.639112260610005, 59.853365391800615 ], [ 17.639111905255238, 59.853360906832847 ], [ 17.639120465122328, 59.853356243097025 ], [ 17.639129024987028, 59.85335157936067 ], [ 17.639128669630207, 59.853347094392952 ], [ 17.639137229491425, 59.853342430656085 ], [ 17.639136874133627, 59.853337945688374 ], [ 17.63914543399137, 59.853333281950988 ], [ 17.639153993846712, 59.853328618213062 ], [ 17.63915363848686, 59.853324133245415 ], [ 17.639162198338727, 59.853319469506978 ], [ 17.639170758188197, 59.853314805767987 ], [ 17.639170402826284, 59.853310320800389 ], [ 17.639178962672275, 59.853305657060872 ], [ 17.639187522515876, 59.853300993320829 ], [ 17.639196082357081, 59.853296329580253 ], [ 17.639195726992025, 59.85329184461272 ], [ 17.639204286829749, 59.853287180871618 ], [ 17.639212846665082, 59.853282517129976 ], [ 17.639212491297965, 59.853278032162486 ], [ 17.639221051129816, 59.853273368420325 ], [ 17.639229610959276, 59.853268704677618 ], [ 17.639238170786339, 59.853264040934363 ], [ 17.639237815416077, 59.853259555966979 ], [ 17.639246375239665, 59.853254892223212 ], [ 17.639254935060855, 59.853250228478906 ], [ 17.639254579688536, 59.853245743511565 ], [ 17.639263139506248, 59.85324107976674 ], [ 17.639272054696058, 59.853240900988645 ], [ 17.639281325261553, 59.85324520717721 ], [ 17.63929059582944, 59.853249513365114 ], [ 17.63929951102131, 59.853249334585144 ], [ 17.639308781592678, 59.853253640771754 ], [ 17.639317696785518, 59.853253461990548 ], [ 17.639326967360368, 59.85325776817583 ], [ 17.639335882554182, 59.853257589393408 ], [ 17.63934515313251, 59.853261895577369 ], [ 17.639354068327297, 59.853261716793696 ], [ 17.639363338909103, 59.853266022976356 ], [ 17.639372254104863, 59.853265844191448 ], [ 17.639381524690151, 59.853270150372808 ], [ 17.639390439886885, 59.853269971586649 ], [ 17.639399710475651, 59.853274277766708 ], [ 17.639408625673358, 59.853274098979334 ], [ 17.639417896265602, 59.853278405158079 ], [ 17.639426811464286, 59.853278226369468 ], [ 17.639436082060008, 59.853282532546878 ], [ 17.639444997259663, 59.853282353757031 ], [ 17.639454267858866, 59.853286659933161 ], [ 17.639463183059494, 59.853286481142071 ], [ 17.639472453662179, 59.853290787316894 ], [ 17.639481724267252, 59.853295093491049 ], [ 17.639490639469944, 59.853294914698061 ], [ 17.639499910078499, 59.853299220870909 ], [ 17.639509180689448, 59.853303527043103 ], [ 17.639518095894193, 59.853303348248247 ], [ 17.639527366508624, 59.853307654419105 ], [ 17.639536281714342, 59.853307475623026 ], [ 17.639545552332251, 59.853311781792584 ], [ 17.639554822952555, 59.85331608796146 ], [ 17.63956373816033, 59.853315909163499 ], [ 17.639573008784115, 59.853320215331102 ], [ 17.639581568575551, 59.853315551565785 ], [ 17.639581213158348, 59.853311066599666 ], [ 17.639589772946305, 59.853306402833837 ], [ 17.639598332731872, 59.853301739067469 ], [ 17.639606892515044, 59.853297075300546 ], [ 17.639606537094693, 59.853292590334519 ], [ 17.639615096874387, 59.853287926567077 ], [ 17.639623656651686, 59.853283262799117 ], [ 17.639623301229278, 59.853278777833118 ], [ 17.6396318610031, 59.853274114064625 ], [ 17.639640420774519, 59.853269450295599 ], [ 17.639640065350058, 59.85326496532965 ], [ 17.639648625118003, 59.853260301560113 ], [ 17.639648269692564, 59.853255816594185 ], [ 17.639656829457032, 59.85325115282415 ], [ 17.639665389219104, 59.853246489053525 ], [ 17.639665033791609, 59.853242004087647 ], [ 17.639673593550199, 59.853237340316547 ], [ 17.639682153306399, 59.85323267654487 ], [ 17.639681797876843, 59.853228191579049 ], [ 17.639690357629561, 59.853223527806868 ], [ 17.639698917379885, 59.853218864034133 ], [ 17.639698561948276, 59.853214379068397 ], [ 17.639707121695121, 59.853209715295158 ], [ 17.639706766262535, 59.853205230329401 ], [ 17.639715326005899, 59.853200566555664 ], [ 17.639723885746871, 59.853195902781344 ], [ 17.639723530312228, 59.853191417815665 ], [ 17.639732090049723, 59.853186754040863 ], [ 17.639740649784819, 59.853182090265484 ], [ 17.639740294348115, 59.853177605299855 ], [ 17.639748854079734, 59.853172941523972 ], [ 17.639757413808962, 59.853168277747564 ], [ 17.639757058370201, 59.853163792781984 ], [ 17.639765618095947, 59.853159129005043 ], [ 17.639765262656212, 59.853154644039485 ], [ 17.63977382237848, 59.853149980262032 ], [ 17.63978238209835, 59.853145316484031 ], [ 17.639782026656558, 59.85314083151853 ], [ 17.63979058637295, 59.853136167740026 ], [ 17.639799146086951, 59.853131503960967 ], [ 17.639798790643102, 59.853127018995508 ], [ 17.639807350353621, 59.853122355215945 ], [ 17.639815910061749, 59.853117691435834 ], [ 17.63981555461584, 59.853113206470439 ], [ 17.639824114320483, 59.853108542689796 ], [ 17.6398237588736, 59.853104057724408 ], [ 17.639832318574772, 59.853099393943268 ], [ 17.639840878273542, 59.853094730161594 ], [ 17.639840522824603, 59.853090245196249 ], [ 17.639849082519895, 59.853085581414049 ], [ 17.639857642212796, 59.853080917631289 ], [ 17.639857286761796, 59.853076432666022 ], [ 17.639865846451219, 59.853071768882756 ], [ 17.639874406138244, 59.853067105098944 ], [ 17.639874050685183, 59.853062620133727 ], [ 17.639882610368733, 59.853057956349403 ], [ 17.639882254914699, 59.853053471384186 ], [ 17.639890814594771, 59.853048807599365 ], [ 17.639899374272446, 59.853044143813975 ], [ 17.639899018816354, 59.853039658848822 ], [ 17.639907578490551, 59.85303499506292 ], [ 17.639916138162349, 59.853030331276486 ], [ 17.6399157827042, 59.853025846311382 ], [ 17.63992434237252, 59.853021182524429 ], [ 17.639932902038449, 59.853016518736929 ], [ 17.639932546578244, 59.85301203377189 ], [ 17.639941106240695, 59.853007369983864 ], [ 17.639949665900748, 59.853002706195319 ], [ 17.639949310438485, 59.852998221230301 ], [ 17.63995787009506, 59.852993557441224 ], [ 17.639966429749244, 59.852988893651634 ], [ 17.639966074284917, 59.85298440868668 ], [ 17.639974633935616, 59.85297974489653 ], [ 17.63998319358393, 59.852975081105861 ], [ 17.639982838117547, 59.852970596140977 ], [ 17.639991397762373, 59.852965932349754 ], [ 17.639999957404811, 59.85296126855804 ], [ 17.639999601936367, 59.852956783593193 ], [ 17.640008161575324, 59.852952119800932 ], [ 17.64000780610591, 59.852947634836113 ], [ 17.640016365741388, 59.852942971043355 ], [ 17.640024925374473, 59.852938307250049 ], [ 17.640024569902995, 59.852933822285266 ], [ 17.6400331295326, 59.852929158491435 ], [ 17.640041689159812, 59.852924494697078 ], [ 17.640041333686277, 59.852920009732344 ], [ 17.640049893310007, 59.852915345937461 ], [ 17.640058452931346, 59.852910682142046 ], [ 17.640058097455753, 59.852906197177361 ], [ 17.640066657073614, 59.852901533381434 ], [ 17.64007521668908, 59.852896869584953 ], [ 17.640074861211428, 59.852892384620318 ], [ 17.640083420823416, 59.852887720823325 ], [ 17.64008306534479, 59.852883235858734 ], [ 17.640091624953296, 59.852878572061194 ], [ 17.640100184559408, 59.852873908263156 ], [ 17.640099829078725, 59.8528694232986 ], [ 17.640108388681359, 59.852864759500029 ], [ 17.640116948281598, 59.852860095700912 ], [ 17.640116592798858, 59.852855610736405 ], [ 17.640125152395619, 59.852850946936776 ], [ 17.640133711989982, 59.852846283136593 ], [ 17.640133356505185, 59.85284179817215 ], [ 17.640141916096074, 59.852837134371462 ], [ 17.640150475684564, 59.85283247057022 ], [ 17.640150120197706, 59.852827985605821 ], [ 17.640158679782722, 59.852823321804067 ], [ 17.640158324294887, 59.852818836839688 ], [ 17.640166883876425, 59.852814173037402 ], [ 17.640175443455561, 59.852809509234611 ], [ 17.640175087965673, 59.852805024270282 ], [ 17.640183647541335, 59.852800360466965 ], [ 17.640192207114602, 59.852795696663087 ], [ 17.640191851622653, 59.852791211698815 ], [ 17.640200411192446, 59.852786547894439 ], [ 17.64020897075984, 59.852781884089516 ], [ 17.640208615265831, 59.85277739912528 ], [ 17.64021717482975, 59.852772735319853 ], [ 17.640225734391269, 59.852768071513836 ], [ 17.640225378895202, 59.852763586549692 ], [ 17.64023393845325, 59.852758922743192 ], [ 17.640233582956206, 59.852754437779033 ], [ 17.640242142510772, 59.852749773972036 ], [ 17.640250702062943, 59.852745110164456 ], [ 17.640250346563846, 59.852740625200362 ], [ 17.640258906112535, 59.852735961392284 ], [ 17.64026746565883, 59.852731297583652 ], [ 17.640267110157676, 59.852726812619608 ], [ 17.640275669700493, 59.852722148810471 ], [ 17.640284229240915, 59.852717485000795 ], [ 17.640283873737705, 59.852713000036829 ], [ 17.640292433274645, 59.852708336226613 ], [ 17.640300992809195, 59.852703672415871 ], [ 17.640300637303923, 59.852699187451918 ], [ 17.640309196834998, 59.852694523640693 ], [ 17.640308841328753, 59.852690038676762 ], [ 17.640317400856343, 59.852685374864997 ], [ 17.640325960381542, 59.85268071105267 ], [ 17.640325604873237, 59.852676226088803 ], [ 17.640334164394957, 59.85267156227598 ], [ 17.64034272391428, 59.852666898462601 ], [ 17.640342368403921, 59.852662413498784 ], [ 17.640350927919766, 59.852657749684923 ], [ 17.640359487433216, 59.852653085870472 ], [ 17.640359131920796, 59.852648600906718 ], [ 17.640367691430772, 59.852643937091763 ], [ 17.640376250938349, 59.852639273276267 ], [ 17.640375895423869, 59.85263478831255 ], [ 17.640384454927968, 59.852630124496535 ], [ 17.640384099412518, 59.852625639532874 ], [ 17.640392658913139, 59.852620975716349 ], [ 17.640401218411366, 59.852616311899283 ], [ 17.640400862893856, 59.852611826935643 ], [ 17.640409422388601, 59.852607163118066 ], [ 17.640417981880955, 59.852602499299927 ], [ 17.640417626361387, 59.852598014336351 ], [ 17.640426185850259, 59.852593350517701 ], [ 17.640425830329718, 59.852588865554125 ], [ 17.640434389815116, 59.852584201734985 ], [ 17.640442949298116, 59.852579537915275 ], [ 17.640442593775514, 59.852575052951764 ], [ 17.640451153255039, 59.852570389131557 ], [ 17.640450797731464, 59.852565904168053 ], [ 17.640459357207511, 59.852561240347335 ], [ 17.640467916681157, 59.852556576526055 ], [ 17.640467561155525, 59.852552091562615 ], [ 17.640476120625696, 59.852547427740838 ], [ 17.64047576509909, 59.852542942777418 ], [ 17.640484324565783, 59.852538278955102 ], [ 17.640492884030081, 59.852533615132273 ], [ 17.640492528501415, 59.85252913016889 ], [ 17.640501087962239, 59.852524466345542 ], [ 17.640509647420661, 59.852519802521634 ], [ 17.640509291889938, 59.8525153175583 ], [ 17.640517851344885, 59.852510653733901 ], [ 17.640526410797438, 59.852505989908927 ], [ 17.640526055264655, 59.852501504945657 ], [ 17.640534614713729, 59.852496841120178 ], [ 17.640543174160406, 59.852492177294138 ], [ 17.640542818625569, 59.852487692330961 ], [ 17.640551378068768, 59.852483028504409 ], [ 17.640559937509572, 59.852478364677317 ], [ 17.640559581972678, 59.852473879714175 ], [ 17.640568141410004, 59.852469215886558 ], [ 17.640567785872129, 59.85246473092343 ], [ 17.640576345305981, 59.852460067095301 ], [ 17.640584904737434, 59.852455403266653 ], [ 17.640584549197502, 59.85245091830356 ], [ 17.640593108625477, 59.852446254474394 ], [ 17.640601668051062, 59.852441590644666 ], [ 17.640601312509073, 59.852437105681652 ], [ 17.640609871931176, 59.852432441851398 ], [ 17.640618431350884, 59.852427778020626 ], [ 17.640618075806838, 59.852423293057647 ], [ 17.640626635223065, 59.852418629226342 ], [ 17.6406351946369, 59.852413965394504 ], [ 17.640634839090797, 59.852409480431575 ], [ 17.640643398501155, 59.852404816599226 ], [ 17.640652669005782, 59.852409122692102 ], [ 17.640653024554279, 59.852413607654952 ], [ 17.640662295062604, 59.852417913747097 ], [ 17.640662650612523, 59.852422398709919 ], [ 17.640671921124554, 59.852426704801353 ], [ 17.640681191638979, 59.852431010892126 ], [ 17.640681547191626, 59.852435495854898 ], [ 17.640690817709753, 59.852439801944932 ], [ 17.640691173263821, 59.852444286907662 ], [ 17.640700443785647, 59.852448592996993 ], [ 17.640709714309871, 59.852452899085677 ], [ 17.640710069866671, 59.852457384048314 ], [ 17.640719340394597, 59.852461690136259 ], [ 17.640719695952814, 59.852466175098861 ], [ 17.640728966484446, 59.852470481186131 ], [ 17.640738237018468, 59.852474787272719 ], [ 17.640738592579414, 59.852479272235236 ], [ 17.640747863117138, 59.852483578321127 ], [ 17.640757133657257, 59.852487884406322 ], [ 17.640757489220938, 59.852492369368768 ], [ 17.640766759764755, 59.852496675453239 ], [ 17.64077603031097, 59.852500981537091 ], [ 17.640776385877381, 59.852505466499458 ], [ 17.640785656427298, 59.852509772582572 ], [ 17.640786011995125, 59.852514257544904 ], [ 17.640795282548744, 59.852518563627314 ], [ 17.640804553104761, 59.852522869709055 ], [ 17.640804908675321, 59.852527354671309 ], [ 17.64081417923504, 59.852531660752334 ], [ 17.640805619816771, 59.852536324595768 ], [ 17.64079706039611, 59.852540988438662 ], [ 17.640788500973056, 59.852545652280995 ], [ 17.640779585980081, 59.852545831160477 ], [ 17.640771026553324, 59.852550495001736 ], [ 17.640762467124173, 59.852555158842428 ], [ 17.640771737686318, 59.852559464926394 ], [ 17.640781008250858, 59.852563771009748 ], [ 17.640789923248619, 59.85256359213011 ], [ 17.640798838246269, 59.852563413249889 ], [ 17.640807753243806, 59.852563234369072 ], [ 17.640817023813995, 59.852567540449819 ], [ 17.640825938812508, 59.852567361567772 ], [ 17.640835209386175, 59.852571667647183 ], [ 17.640844124385659, 59.852571488763886 ], [ 17.640853394962804, 59.852575794842032 ], [ 17.640862309963264, 59.852575615957484 ], [ 17.640871580543887, 59.852579922034302 ], [ 17.640880495545318, 59.852579743148524 ], [ 17.640889766129423, 59.852584049224042 ], [ 17.640899036715922, 59.852588355298892 ], [ 17.640907951719413, 59.852588176411253 ], [ 17.640917222309387, 59.852592482484773 ], [ 17.640926492901759, 59.852596788557634 ], [ 17.640935763496522, 59.852601094629847 ], [ 17.640944678503157, 59.852600915739686 ], [ 17.640953949101398, 59.85260522181057 ], [ 17.640963219702037, 59.852609527880787 ], [ 17.640972134710729, 59.852609348988757 ], [ 17.640981405314847, 59.85261365505766 ], [ 17.640990675921355, 59.852617961125901 ], [ 17.640999590932104, 59.852617782231974 ], [ 17.641008861542094, 59.852622088298922 ], [ 17.641018132154478, 59.852626394365174 ], [ 17.641027047167285, 59.852626215469407 ], [ 17.641036317783151, 59.852630521534351 ], [ 17.64104523279693, 59.852630342637347 ], [ 17.641054503416271, 59.852634648700985 ], [ 17.641063418431028, 59.852634469802723 ], [ 17.641072689053846, 59.85263877586506 ], [ 17.641081604069576, 59.852638596965576 ], [ 17.641090874695877, 59.852642903026606 ], [ 17.641099789712573, 59.852642724125872 ], [ 17.641109060342355, 59.852647030185601 ], [ 17.641117975360029, 59.852646851283623 ], [ 17.641127245993285, 59.852651157342031 ], [ 17.641136161011932, 59.852650978438817 ], [ 17.64114543164867, 59.852655284495938 ], [ 17.641154346668291, 59.852655105591481 ], [ 17.641163617308507, 59.852659411647295 ], [ 17.641172532329101, 59.852659232741601 ], [ 17.641181802972795, 59.852663538796101 ], [ 17.641190717994363, 59.852663359889178 ], [ 17.641199988641539, 59.852667665942377 ], [ 17.641208903664076, 59.852667487034218 ], [ 17.64121817431473, 59.852671793086088 ], [ 17.641227444967775, 59.852676099137305 ], [ 17.641227800597424, 59.852680584097918 ], [ 17.641237071254174, 59.852684890148424 ], [ 17.641246341913316, 59.852689196198256 ], [ 17.641255612574856, 59.852693502247426 ], [ 17.641255968208537, 59.852697987207897 ], [ 17.641265238873778, 59.852702293256364 ], [ 17.64126559450888, 59.852706778216813 ], [ 17.641274865177824, 59.852711084264556 ], [ 17.641275220814347, 59.852715569224969 ], [ 17.641284491486992, 59.852719875272001 ], [ 17.641284847124936, 59.852724360232372 ], [ 17.641294117801287, 59.852728666278701 ], [ 17.641294473440652, 59.852733151239036 ], [ 17.641303744120702, 59.852737457284654 ], [ 17.641304099761491, 59.852741942244954 ], [ 17.641313370445246, 59.852746248289847 ], [ 17.641313726087454, 59.852750733250105 ], [ 17.641322996774907, 59.852755039294301 ], [ 17.641323352418535, 59.852759524254516 ], [ 17.641332623109697, 59.852763830298009 ], [ 17.641332978754743, 59.852768315258182 ], [ 17.641342249449607, 59.852772621300971 ], [ 17.641342605096078, 59.852777106261115 ], [ 17.641351875794641, 59.852781412303173 ], [ 17.641352231442532, 59.852785897263267 ], [ 17.6413615021448, 59.852790203304622 ], [ 17.641361857794113, 59.852794688264673 ], [ 17.641362213443536, 59.852799173224732 ], [ 17.641371484150817, 59.852803479265361 ], [ 17.641371839801657, 59.852807964225349 ], [ 17.641372195452615, 59.852812449185365 ], [ 17.641372551103682, 59.852816934145345 ], [ 17.64137290675486, 59.852821419105346 ], [ 17.641382177469769, 59.852825725145152 ], [ 17.641382533122368, 59.852830210105104 ], [ 17.64138288877508, 59.852834695065042 ], [ 17.641383244427907, 59.852839180024965 ], [ 17.641383600080839, 59.852843664984917 ], [ 17.641383955733886, 59.85284814994484 ], [ 17.641393226457733, 59.852852455983779 ], [ 17.641393582112205, 59.852856940943667 ], [ 17.641393937766782, 59.852861425903569 ], [ 17.641394293421474, 59.852865910863443 ], [ 17.641394649076279, 59.852870395823317 ], [ 17.641403919807757, 59.852874701861467 ], [ 17.64140427546398, 59.852879186821291 ], [ 17.641404631120317, 59.852883671781129 ], [ 17.641404986776767, 59.852888156740953 ], [ 17.641405342433323, 59.852892641700777 ], [ 17.641414613172433, 59.852896947738103 ], [ 17.641414968830411, 59.852901432697877 ], [ 17.641415324488506, 59.852905917657644 ], [ 17.641415680146711, 59.852910402617418 ], [ 17.641416035805026, 59.852914887577192 ], [ 17.641416391463459, 59.852919372536967 ], [ 17.6414256622115, 59.852923678573411 ], [ 17.64142601787135, 59.852928163533136 ], [ 17.64142637353131, 59.852932648492867 ], [ 17.641426729191384, 59.852937133452578 ], [ 17.641427084851568, 59.852941618412288 ], [ 17.641427440511865, 59.852946103372012 ], [ 17.64142779617227, 59.852950588331709 ], [ 17.641437066930564, 59.852954894367265 ], [ 17.641437422592393, 59.852959379326919 ], [ 17.641437778254335, 59.852963864286579 ], [ 17.641438133916385, 59.85296834924624 ], [ 17.641438489578551, 59.852972834205872 ], [ 17.641438845240831, 59.852977319165525 ], [ 17.641439200903218, 59.852981804125172 ], [ 17.641448471671755, 59.85298611015984 ], [ 17.641448827335566, 59.852990595119437 ], [ 17.641449182999487, 59.85299508007904 ], [ 17.641449538663519, 59.852999565038623 ], [ 17.641449894327668, 59.853004049998219 ], [ 17.641450249991919, 59.853008534957773 ], [ 17.641450605656292, 59.853013019917356 ], [ 17.641459876435079, 59.853017325951171 ], [ 17.641460232100865, 59.853021810910704 ], [ 17.641460587766769, 59.853026295870229 ], [ 17.641469858550568, 59.853030601903285 ], [ 17.641478417999831, 59.853025938016728 ], [ 17.641487333116196, 59.853025759089086 ], [ 17.641496248232446, 59.853025580160839 ], [ 17.641505163348583, 59.853025401231982 ], [ 17.64151372279153, 59.853020737343179 ], [ 17.641522637906249, 59.853020558413156 ], [ 17.64153119734549, 59.853015894523239 ], [ 17.641540112458788, 59.853015715592036 ], [ 17.641548671894324, 59.853011051701003 ], [ 17.641557587006204, 59.853010872768628 ], [ 17.641566146438038, 59.853006208876486 ], [ 17.64157470586748, 59.853001544983798 ], [ 17.641583620976629, 59.853001366049682 ], [ 17.64159218040237, 59.852996702155885 ], [ 17.641601095510097, 59.85299652322059 ], [ 17.641609654932129, 59.85299185932567 ], [ 17.641618214351773, 59.85298719543021 ], [ 17.641627129456772, 59.852987016493167 ], [ 17.641635688872711, 59.852982352596598 ], [ 17.641644603976289, 59.85298217365839 ], [ 17.641653163388522, 59.852977509760713 ], [ 17.641661722798368, 59.852972845862475 ], [ 17.641670637899214, 59.852972666922511 ], [ 17.641679197305351, 59.852968003023179 ], [ 17.641688112404776, 59.852967824082029 ], [ 17.641696671807217, 59.852963160181581 ], [ 17.641705231207258, 59.852958496280579 ], [ 17.641714146303954, 59.852958317337688 ], [ 17.641722705700296, 59.852953653435584 ], [ 17.641731620795571, 59.852953474491521 ], [ 17.641740180188208, 59.852948810588309 ], [ 17.641749095282062, 59.852948631643081 ], [ 17.641757654670997, 59.852943967738724 ], [ 17.641766214057537, 59.852939303833857 ], [ 17.641775129148662, 59.852939124886866 ], [ 17.641783688531497, 59.852934460980862 ], [ 17.641792603621205, 59.852934282032713 ], [ 17.641801163000334, 59.852929618125593 ], [ 17.641809722377079, 59.852924954217933 ], [ 17.641818637464052, 59.852924775268043 ], [ 17.641827196837092, 59.852920111359275 ], [ 17.641836111922647, 59.852919932408213 ], [ 17.641844671291977, 59.852915268498307 ], [ 17.641853230658921, 59.852910604587883 ], [ 17.641862145741747, 59.852910425635066 ], [ 17.641870705104985, 59.852905761723527 ], [ 17.641879620186387, 59.852905582769537 ], [ 17.641888179545923, 59.852900918856875 ], [ 17.641896738903064, 59.85289625494368 ], [ 17.641905653981738, 59.852896075987935 ], [ 17.641914213335177, 59.852891412073618 ], [ 17.641923128412429, 59.852891233116715 ], [ 17.641931687762163, 59.852886569201296 ], [ 17.641940602837998, 59.852886390243214 ], [ 17.64194916218403, 59.852881726326657 ], [ 17.64195807725844, 59.852881547367403 ], [ 17.64196699233274, 59.852881368407537 ], [ 17.641975551673763, 59.852876704489304 ], [ 17.641984466746639, 59.852876525528266 ], [ 17.641993381819407, 59.852876346566639 ], [ 17.642002296892063, 59.852876167604393 ], [ 17.642011211964608, 59.852875988641543 ], [ 17.642020127037039, 59.852875809678103 ], [ 17.642029042109357, 59.852875630714053 ], [ 17.642037957181564, 59.852875451749412 ], [ 17.642046872253658, 59.852875272784154 ], [ 17.642055787325642, 59.852875093818298 ], [ 17.642065058142652, 59.852879399809275 ], [ 17.642073973215609, 59.852879220842169 ], [ 17.642083244036098, 59.852883526831853 ], [ 17.642092159110028, 59.852883347863532 ], [ 17.642101429933994, 59.852887653851887 ], [ 17.642110700760355, 59.852891959839596 ], [ 17.642119971589111, 59.852896265826629 ], [ 17.64212853091222, 59.852891601898584 ], [ 17.642137090232936, 59.852886937969984 ], [ 17.64214564955126, 59.852882274040844 ], [ 17.642154208867186, 59.852877610111165 ], [ 17.642162768180722, 59.852872946180938 ], [ 17.642171327491862, 59.852868282250178 ], [ 17.642179886800609, 59.852863618318864 ], [ 17.642188446106964, 59.852858954387017 ], [ 17.642197005410921, 59.852854290454623 ], [ 17.642205564712484, 59.852849626521675 ], [ 17.642214124011659, 59.852844962588215 ], [ 17.642223039074331, 59.852844783611069 ], [ 17.642231598369797, 59.852840119676486 ], [ 17.642240157662872, 59.852835455741328 ], [ 17.642248716953553, 59.852830791805651 ], [ 17.642257276241839, 59.852826127869427 ], [ 17.642266191299164, 59.852825948889411 ], [ 17.642274750583748, 59.852821284952078 ], [ 17.642283309865938, 59.852816621014185 ], [ 17.642291869145733, 59.852811957075758 ], [ 17.642300428423138, 59.852807293136799 ], [ 17.642309343475116, 59.852807114153897 ], [ 17.642317902748815, 59.852802450213801 ], [ 17.642326462020119, 59.852797786273165 ], [ 17.642335021289028, 59.852793122332002 ], [ 17.642343580555544, 59.852788458390293 ], [ 17.642352495602179, 59.852788279404486 ], [ 17.642361054864995, 59.852783615461675 ], [ 17.642369614125414, 59.852778951518275 ], [ 17.642378173383438, 59.852774287574363 ], [ 17.642386732639071, 59.852769623629889 ], [ 17.64239529189231, 59.852764959684905 ], [ 17.642404206932284, 59.852764780695651 ], [ 17.642412794253278, 59.852760341128956 ] ] } }
]
}
