{
"type": "FeatureCollection",
"name": "Shortest_ST_Till_Domkyrkan",
"crs": { "type": "name", "properties": { "name": "urn:ogc:def:crs:OGC:1.3:CRS84" } },
"features": [
{ "type": "Feature", "properties": { }, "geometry": { "type": "LineString", "coordinates": [ [ 17.638926106714308, 59.858564124928726 ], [ 17.638901561883443, 59.858577262479223 ], [ 17.638874428570229, 59.858591785490233 ], [ 17.638874426405671, 59.858591786648809 ], [ 17.638731333648334, 59.858668376582209 ], [ 17.638731327606131, 59.858668375523173 ], [ 17.638576742833212, 59.858507027917042 ], [ 17.638486666110857, 59.858413009665554 ], [ 17.637810586548643, 59.858120050257817 ], [ 17.637759559537564, 59.858097938833787 ], [ 17.637678326241645, 59.858086625642031 ], [ 17.637602723531057, 59.858058546785969 ], [ 17.637556215165958, 59.858041277024221 ], [ 17.637457083391297, 59.857989493405739 ], [ 17.637452049207646, 59.857978951628141 ], [ 17.637440513431823, 59.857966413023128 ], [ 17.637238515133635, 59.857877688750968 ], [ 17.63720245578277, 59.857872308300031 ], [ 17.637163854607664, 59.857876108174153 ], [ 17.636946129767523, 59.85795569678789 ], [ 17.636806926305518, 59.858013797253619 ], [ 17.636676934127415, 59.858057130267831 ], [ 17.636535097806451, 59.858096396224298 ], [ 17.636447101756044, 59.858120764603655 ], [ 17.636337567793394, 59.8581585339141 ], [ 17.636204159782288, 59.858202784273139 ], [ 17.63610005155364, 59.858246240706087 ], [ 17.635997558967627, 59.858298458618854 ], [ 17.635851482877367, 59.858370357647367 ], [ 17.635840497347207, 59.858374522200286 ], [ 17.635803037839707, 59.858388722874949 ], [ 17.63572881145442, 59.858416869360553 ], [ 17.635687523234285, 59.858432221789265 ], [ 17.635687522837049, 59.858432221923913 ], [ 17.63564921146606, 59.85844520905647 ], [ 17.635299822926342, 59.858604199491673 ], [ 17.635234124070173, 59.858631939405434 ], [ 17.63501068789969, 59.858683437102904 ], [ 17.634924254164421, 59.858695431316178 ], [ 17.634831803188309, 59.858708260456154 ], [ 17.634630114472767, 59.85872251905613 ], [ 17.634397811260861, 59.858733442796243 ], [ 17.634391291648996, 59.858687133982983 ], [ 17.634388608799242, 59.858668050918332 ], [ 17.63438582223257, 59.858648270413397 ], [ 17.634017499102296, 59.85865769005715 ], [ 17.633804666437342, 59.858663326514623 ], [ 17.633565447195469, 59.858669669010524 ], [ 17.63352509559811, 59.85866587952669 ], [ 17.633442913835829, 59.858637351769509 ], [ 17.633406394990519, 59.858620637321145 ], [ 17.63337186670244, 59.858602184215755 ], [ 17.633213972467818, 59.858582729460565 ], [ 17.632347230780322, 59.858475931097182 ], [ 17.632160733474414, 59.858452950393733 ], [ 17.632131442777791, 59.858446291136914 ], [ 17.632117745597267, 59.858439448537908 ], [ 17.631918633850617, 59.858263426114668 ], [ 17.631948652549664, 59.858140474933542 ], [ 17.632307561963096, 59.858136809704952 ], [ 17.632310447344981, 59.858152300584287 ] ] } }
]
}
