{
"type": "FeatureCollection",
"name": "Shortest_ST_Till_VT",
"crs": { "type": "name", "properties": { "name": "urn:ogc:def:crs:OGC:1.3:CRS84" } },
"features": [
{ "type": "Feature", "properties": { }, "geometry": { "type": "LineString", "coordinates": [ [ 17.638926708134665, 59.858563803020019 ], [ 17.638979656441066, 59.858534314631065 ], [ 17.638979657245251, 59.858534314183188 ], [ 17.639123013931201, 59.858454474926987 ], [ 17.639338379041806, 59.858695334740986 ], [ 17.639384832924009, 59.858716181092532 ], [ 17.640050035587759, 59.859015380288611 ], [ 17.640272107690102, 59.859115263364295 ], [ 17.640359684130306, 59.859147854427256 ], [ 17.640441632517092, 59.859178345571628 ], [ 17.640441636304381, 59.85917834723773 ], [ 17.641113354031642, 59.85947384230905 ], [ 17.641500925925811, 59.859644334920461 ], [ 17.641542420279759, 59.859662910273926 ], [ 17.641564453967305, 59.85966903500448 ], [ 17.64160015754274, 59.859672344293969 ], [ 17.641632066947711, 59.859669441194185 ], [ 17.641656996805278, 59.859660767945137 ], [ 17.64170840079581, 59.859636266777514 ], [ 17.641855660960619, 59.859704319515274 ], [ 17.64206026781072, 59.859796860533152 ], [ 17.642056837045661, 59.859809099581057 ], [ 17.642061195988177, 59.859826100315587 ], [ 17.642066609388252, 59.859849354133601 ], [ 17.642084748108509, 59.859873694462394 ], [ 17.642113056236376, 59.859897502322013 ], [ 17.642146075219419, 59.859920309099564 ], [ 17.642194780929017, 59.859946341412083 ], [ 17.642476199616745, 59.860075734946207 ], [ 17.642529021228881, 59.860099992822917 ], [ 17.642646476031928, 59.860153930539667 ], [ 17.642956676912299, 59.860296379953319 ], [ 17.643081554431173, 59.860350690564516 ], [ 17.643149836344705, 59.860381921823162 ], [ 17.643308891035197, 59.86045467100066 ], [ 17.643596108368207, 59.860586038501751 ], [ 17.644255655148989, 59.86088840867879 ], [ 17.644430924051484, 59.860968759467376 ], [ 17.644466208195617, 59.860983475725334 ], [ 17.644489953042122, 59.860990750506126 ], [ 17.644524127367333, 59.860993325986676 ], [ 17.644559599401251, 59.860992984519143 ], [ 17.644586722653575, 59.860988899179887 ], [ 17.644603795933783, 59.860983695226302 ], [ 17.644619376659968, 59.860976815288041 ], [ 17.644668193065414, 59.860949995154805 ], [ 17.644800561863331, 59.861009207357128 ], [ 17.644897189212045, 59.861049879406991 ], [ 17.644874466130684, 59.861071464297957 ], [ 17.644864965568317, 59.861096109792925 ], [ 17.644903337088408, 59.861134918714029 ], [ 17.645199109924267, 59.861264646402752 ], [ 17.64527199823921, 59.86129661535815 ], [ 17.645944613872516, 59.861591621024289 ], [ 17.646027869590203, 59.861628135531312 ], [ 17.64612106926802, 59.861669011244764 ], [ 17.646323056346237, 59.861672522289354 ], [ 17.647086881119375, 59.861685796679716 ], [ 17.647086881120583, 59.861685796684114 ] ] } }
]
}
