{
"type": "FeatureCollection",
"name": "Shortest_ST_Till_Stadsparken",
"crs": { "type": "name", "properties": { "name": "urn:ogc:def:crs:OGC:1.3:CRS84" } },
"features": [
{ "type": "Feature", "properties": { }, "geometry": { "type": "LineString", "coordinates": [ [ 17.638926708134665, 59.858563803020019 ], [ 17.638979656441066, 59.858534314631065 ], [ 17.638979657245251, 59.858534314183188 ], [ 17.639123013931201, 59.858454474926987 ], [ 17.639123011489318, 59.858454472196001 ], [ 17.638587584130299, 59.858358323055519 ], [ 17.638467078198961, 59.858302529341302 ], [ 17.637859937979375, 59.858021421534055 ], [ 17.637850462704407, 59.858011404185575 ], [ 17.637847524378838, 59.858000356453985 ], [ 17.637853192290699, 59.857989171938691 ], [ 17.637793884825658, 59.857961394764281 ], [ 17.637738249521405, 59.857938197904815 ], [ 17.637668572913206, 59.857902905231818 ], [ 17.637410602683165, 59.857782132891082 ], [ 17.637414091477766, 59.857771220473055 ], [ 17.637457561308086, 59.857747779320931 ], [ 17.637787600934384, 59.857582346781015 ], [ 17.638177660433719, 59.85736899564489 ], [ 17.638265418278053, 59.857320994139428 ], [ 17.63866878260777, 59.857103538696819 ], [ 17.638767864269948, 59.857041964902606 ], [ 17.638774894303435, 59.857035910813842 ], [ 17.639224948606106, 59.856648330019105 ], [ 17.639178213108476, 59.856623891773701 ], [ 17.639143451627067, 59.856590769247752 ], [ 17.63912662940368, 59.856577580163432 ], [ 17.639147769846542, 59.856566849103004 ], [ 17.639166205308019, 59.856563231693293 ], [ 17.639564567857896, 59.85622395050671 ], [ 17.639609243197963, 59.856185124605744 ], [ 17.640056236010945, 59.855796651778284 ], [ 17.640357010566561, 59.855535248529911 ], [ 17.640374241449358, 59.855487564062258 ], [ 17.640403606914941, 59.855455989177031 ], [ 17.640466148576166, 59.855400835791755 ], [ 17.640908252767218, 59.85501095300463 ], [ 17.640965876554269, 59.854960134974021 ], [ 17.640978155760774, 59.854944192255232 ], [ 17.640983602004571, 59.854929721437472 ], [ 17.640982046066103, 59.854915098466833 ], [ 17.640972336551471, 59.854904372244796 ], [ 17.640956516757196, 59.854894232593502 ], [ 17.640878748467433, 59.854870824506996 ], [ 17.640902476901307, 59.854849184405985 ], [ 17.640921603145127, 59.854854567793666 ], [ 17.640964664107383, 59.854866687974571 ], [ 17.641008581105115, 59.854824884939951 ], [ 17.641064533681714, 59.854771619537807 ], [ 17.641082617813176, 59.85475440397768 ], [ 17.641108337745177, 59.854729925801344 ], [ 17.641186869136146, 59.854652059604945 ], [ 17.641225159786149, 59.854614095400002 ], [ 17.641250151900373, 59.854589317728809 ], [ 17.641269272236251, 59.854566399544389 ], [ 17.641301490533142, 59.854535316804245 ], [ 17.641396529363774, 59.854443628483153 ], [ 17.641509536748689, 59.854334605434353 ], [ 17.641537283143215, 59.854307838041805 ], [ 17.641540568182499, 59.854290705290566 ], [ 17.641537453373811, 59.854272444706723 ], [ 17.641540250924024, 59.854258448158077 ], [ 17.641547824871115, 59.854244491367332 ], [ 17.641558676492348, 59.85423187496707 ], [ 17.641617983840813, 59.854198592450814 ], [ 17.641669646276842, 59.854146240867912 ], [ 17.641766421784343, 59.85397549321948 ], [ 17.641831542345813, 59.853776322311454 ], [ 17.641879913697643, 59.853731652876554 ], [ 17.641915226438257, 59.853698801881592 ], [ 17.641996434178008, 59.853647284667922 ], [ 17.64215882484099, 59.853562916303176 ], [ 17.642172793039705, 59.853554612839851 ], [ 17.642155121239238, 59.853477777867518 ], [ 17.642089921071928, 59.853425216937467 ], [ 17.64200440970221, 59.853356281884452 ], [ 17.641996236801344, 59.853225807284787 ], [ 17.641970595029882, 59.852976372605191 ], [ 17.642116241728807, 59.85289584509038 ], [ 17.642175745749892, 59.852862936641181 ], [ 17.642198925521086, 59.852852782352556 ], [ 17.642425995370886, 59.852753310046324 ] ] } }
]
}
