{
"type": "FeatureCollection",
"name": "Shortest_ST_Till_Carolina",
"crs": { "type": "name", "properties": { "name": "urn:ogc:def:crs:OGC:1.3:CRS84" } },
"features": [
{ "type": "Feature", "properties": { }, "geometry": { "type": "LineString", "coordinates": [ [ 17.638926708134665, 59.858563803020019 ], [ 17.638979656441066, 59.858534314631065 ], [ 17.638979657245251, 59.858534314183188 ], [ 17.639123013931201, 59.858454474926987 ], [ 17.639123011489318, 59.858454472196001 ], [ 17.638587584130299, 59.858358323055519 ], [ 17.638467078198961, 59.858302529341302 ], [ 17.637859937979375, 59.858021421534055 ], [ 17.637850462704407, 59.858011404185575 ], [ 17.637847524378838, 59.858000356453985 ], [ 17.637853192290699, 59.857989171938691 ], [ 17.637793884825658, 59.857961394764281 ], [ 17.637738249521405, 59.857938197904815 ], [ 17.637668572913206, 59.857902905231818 ], [ 17.637410602683165, 59.857782132891082 ], [ 17.637414091477766, 59.857771220473055 ], [ 17.637457561308086, 59.857747779320931 ], [ 17.637389979664611, 59.857715228322483 ], [ 17.637325239075768, 59.857684426261422 ], [ 17.637274337944365, 59.857707616541475 ], [ 17.637252787415726, 59.85771165298457 ], [ 17.637225086532432, 59.857708931690063 ], [ 17.637184423570865, 59.857697012339514 ], [ 17.637141954166513, 59.857680161172119 ], [ 17.636543994515389, 59.857406501718266 ], [ 17.636482590583835, 59.857377727806657 ], [ 17.636257269479053, 59.857272141551562 ], [ 17.635827413714814, 59.857074342951719 ], [ 17.635792432158791, 59.857057826797842 ], [ 17.635779231709421, 59.857050924663852 ], [ 17.635719169081558, 59.857023682786938 ], [ 17.635683779997457, 59.85700763873114 ], [ 17.635657126800943, 59.856995552594803 ], [ 17.635573634480462, 59.856957694618849 ], [ 17.635412692197022, 59.856884712701671 ], [ 17.634946721966323, 59.856671867556386 ], [ 17.634809995856457, 59.856609413182809 ], [ 17.634324577932087, 59.856386397467766 ], [ 17.634287711159548, 59.856369247698808 ], [ 17.634198831480884, 59.856327884924532 ], [ 17.634080500683229, 59.856274027680641 ], [ 17.633913140566758, 59.856198174521445 ], [ 17.633932122853039, 59.856085864949641 ], [ 17.633941282903312, 59.856071048908802 ], [ 17.633959045693405, 59.856055239851486 ], [ 17.633998444174694, 59.85603453662047 ], [ 17.633962120908823, 59.856007729847597 ], [ 17.633898930070202, 59.855961094527679 ], [ 17.633834842207605, 59.855874416413933 ], [ 17.633751674139098, 59.85575138120376 ], [ 17.633631705800436, 59.855592471916907 ], [ 17.633584235045475, 59.855586390918596 ], [ 17.633549127098568, 59.855571925312432 ], [ 17.632986830010005, 59.855340171724194 ], [ 17.63289440787328, 59.855290477658542 ], [ 17.632709894403884, 59.855223103419078 ], [ 17.632539118085646, 59.855194712709221 ], [ 17.632445650632828, 59.855179172762668 ], [ 17.632145820125885, 59.855144383139503 ], [ 17.632061317856845, 59.855136529617809 ], [ 17.632033197561668, 59.855170383116793 ], [ 17.631947829209814, 59.855273156032325 ], [ 17.631947829206219, 59.855273156035764 ] ] } }
]
}
