{
"type": "FeatureCollection",
"name": "Uppsala_Innerstad",
"crs": { "type": "name", "properties": { "name": "urn:ogc:def:crs:OGC:1.3:CRS84" } },
"features": [
{ "type": "Feature", "properties": { }, "geometry": { "type": "Polygon", "coordinates": [ [ [ 17.62326263167089, 59.858502305772532 ], [ 17.624688425489143, 59.859151555517556 ], [ 17.626519354020743, 59.85998520564862 ], [ 17.628387015926982, 59.860837740675429 ], [ 17.630522050001968, 59.861810621094797 ], [ 17.63205697856915, 59.862502791887863 ], [ 17.633606306697004, 59.863228050149253 ], [ 17.635853321484614, 59.864230035949113 ], [ 17.638089082689479, 59.86523613912523 ], [ 17.638632794493933, 59.865492384102936 ], [ 17.639565567107347, 59.865729041000556 ], [ 17.640839611061793, 59.866229916520972 ], [ 17.642502690391176, 59.865234047180948 ], [ 17.644990556595616, 59.863903372232294 ], [ 17.648482094895606, 59.862033886225689 ], [ 17.651233363976814, 59.860485643160303 ], [ 17.653773534691556, 59.859035881019999 ], [ 17.655595061065693, 59.858566999786404 ], [ 17.656718537531361, 59.858355756340067 ], [ 17.652932023269216, 59.854943547561327 ], [ 17.646062666201299, 59.851836828827579 ], [ 17.646285353717872, 59.8514944940408 ], [ 17.645680371388593, 59.851349514282582 ], [ 17.646439470683998, 59.850485679994414 ], [ 17.643295597697399, 59.8496374338648 ], [ 17.639437285014449, 59.852975580119647 ], [ 17.634371470098568, 59.851128511945312 ], [ 17.631977092807361, 59.853635690910444 ], [ 17.623139944201355, 59.858432072904876 ], [ 17.62326263167089, 59.858502305772532 ] ] ] } }
]
}
